{"type": "FeatureCollection", "features": [{"type": "Feature", "properties": {"Parcela": "T-021", "Ha": 22.2894}, "geometry": {"type": "MultiPolygon", "coordinates": [[[[-48.727942813933225, -2.0979503474360115], [-48.72800586145557, -2.097940211402751], [-48.730298913909465, -2.0954887978350794], [-48.73021571007844, -2.0953761665758477], [-48.730146583278334, -2.0953719745165906], [-48.73000428074255, -2.0953513106760004], [-48.72993921468836, -2.095351215800263], [-48.72982945698914, -2.095322416864474], [-48.72977662029943, -2.0953018834691384], [-48.72971564446327, -2.0952854294737695], [-48.72965057842488, -2.095285334588957], [-48.7296180571963, -2.095277104624783], [-48.72957744397809, -2.09524022397743], [-48.72954901885291, -2.0952115436427516], [-48.72951654478627, -2.0951705835979575], [-48.7294394026728, -2.095084554460866], [-48.72940283251119, -2.095064044788247], [-48.72933778418068, -2.0950516761216353], [-48.729252408621164, -2.0950351865405374], [-48.729183411575015, -2.094940986756291], [-48.729134676919536, -2.094895911738772], [-48.7290778443874, -2.0948262773083117], [-48.729008741247675, -2.094805720193568], [-48.72892337161687, -2.094785139354337], [-48.72887065288517, -2.0946827807953015], [-48.728752809235644, -2.0946212399309196], [-48.72858211719629, -2.0945473481916115], [-48.72849228006082, -2.0948049669086872], [-48.728459523006755, -2.09496038722155], [-48.728406491787226, -2.09507486529139], [-48.72811718350081, -2.095475387116626], [-48.72792173779085, -2.09564693495999], [-48.727494228947755, -2.096002250753087], [-48.72726208906554, -2.0962392049769365], [-48.72682214976465, -2.09675406126309], [-48.72680165717745, -2.096864495364459], [-48.727942813933225, -2.0979503474360115]]], [[[-48.734207642714665, -2.0914742959153454], [-48.7341904608292, -2.0914036963378946], [-48.73184807415523, -2.0892830567209693], [-48.73180524547491, -2.089373002561907], [-48.731724730825164, -2.0895114775359898], [-48.73164310478373, -2.089715922682949], [-48.73159408214231, -2.089871319888], [-48.73157346701207, -2.089946030226358], [-48.731559339107356, -2.089997851480371], [-48.73152875119775, -2.0900944212607477], [-48.73149817681514, -2.09018156527694], [-48.731465283870385, -2.0902522108054225], [-48.73143471285758, -2.090336998373277], [-48.7313830142521, -2.0904547454453097], [-48.73131644736024, -2.0906400758930817], [-48.73117767676507, -2.090991723642858], [-48.73092487599846, -2.091457761070038], [-48.73068847087667, -2.0918338141633015], [-48.73052542951594, -2.0920954182788902], [-48.73037058016125, -2.0923161215310033], [-48.73015885689766, -2.0924958292020572], [-48.72998791753638, -2.0925937707814004], [-48.72987392263757, -2.0926836127116575], [-48.72967041496615, -2.092806054396026], [-48.729499499131435, -2.092887630810559], [-48.72934482622067, -2.09298559592434], [-48.729247085986415, -2.093083643955526], [-48.72917369834271, -2.0932144575951237], [-48.72910032246008, -2.093337088699715], [-48.72897785253174, -2.093664211597272], [-48.72907520398673, -2.093836186729699], [-48.72913444353645, -2.093875102562408], [-48.729286468024064, -2.093975597783426], [-48.729400227418324, -2.0940494064297113], [-48.72948953995022, -2.094155909594947], [-48.72961140905554, -2.0942460951476125], [-48.72971707059706, -2.094295344388795], [-48.72983085361889, -2.0943527880066197], [-48.729903946831186, -2.0944265373981796], [-48.73003390211981, -2.094549464914276], [-48.730163904562694, -2.094639662345857], [-48.7303507691191, -2.0947790379115285], [-48.73072655892568, -2.0950388699523295], [-48.73419746879853, -2.0914793952380513], [-48.734207642714665, -2.0914742959153454]]]]}}, {"type": "Feature", "properties": {"Parcela": "T-022", "Ha": 24.2232}, "geometry": {"type": "MultiPolygon", "coordinates": [[[[-48.72803621056147, -2.098044582989893], [-48.729758100865986, -2.099683605854771], [-48.7319778532639, -2.0973057256150285], [-48.73193738138324, -2.0971706545072535], [-48.73186837230414, -2.0970846370995986], [-48.73182369822475, -2.0970436592068054], [-48.731750510531, -2.097035369938102], [-48.73165291122786, -2.0970352276186603], [-48.73156346288969, -2.0970228233563186], [-48.73149443026847, -2.096953171023887], [-48.73140914289683, -2.0968753124430646], [-48.73133603186407, -2.0968138367183244], [-48.73127108358236, -2.09673191653191], [-48.73124271144565, -2.0966664147810548], [-48.73118995718146, -2.096588603657528], [-48.73112093048733, -2.096514860082488], [-48.73103561957924, -2.0964533665843814], [-48.73095034994094, -2.096363234240057], [-48.73084883735611, -2.096256713126176], [-48.730759506999625, -2.096162483601194], [-48.73070672329593, -2.0961051288226114], [-48.73062556158436, -2.0959863635885783], [-48.730651117277674, -2.0958897445545035], [-48.730578094722965, -2.095766899929617], [-48.73043497215491, -2.095609688708993], [-48.73037409057272, -2.0955277745186596], [-48.72803621056147, -2.098044582989893]]], [[[-48.7324196442116, -2.0969171870657273], [-48.73599358780197, -2.093119541206044], [-48.73426956194004, -2.0915418920249707], [-48.73084844000257, -2.09512087303179], [-48.730992583737645, -2.095275017246167], [-48.73113080207421, -2.0953079488705098], [-48.731284992413244, -2.0955454674499525], [-48.73162197511197, -2.0959264470860783], [-48.73176806761605, -2.096139406309066], [-48.7318737412294, -2.096180473082097], [-48.73217400070962, -2.0966473161654644], [-48.7324196442116, -2.0969171870657273]]]]}}, {"type": "Feature", "properties": {"Parcela": "T-023", "Ha": 25.827}, "geometry": {"type": "Polygon", "coordinates": [[[-48.737749051789955, -2.0947545159766645], [-48.7360880402896, -2.093187184660077], [-48.73603312890472, -2.0931952874631854], [-48.732455153655714, -2.096968379788505], [-48.73256482919745, -2.097054456478021], [-48.73267046757397, -2.097120070900204], [-48.73275982761603, -2.0971938441527698], [-48.732889877650926, -2.0972513116067515], [-48.73298737100172, -2.097325096720887], [-48.733019774518674, -2.0974151520790305], [-48.73303584075748, -2.097554278969194], [-48.733035722909705, -2.0976361043689535], [-48.7329542368384, -2.09774235881661], [-48.73289724490533, -2.0977831885096094], [-48.73276708876246, -2.097799363854124], [-48.732596336935124, -2.097766384662187], [-48.732287460800755, -2.097635013402682], [-48.731990256162845, -2.0974049738286733], [-48.729806007297256, -2.099719380616608], [-48.731567926583736, -2.1013829774798634], [-48.731609298572195, -2.101336733500502], [-48.73773544930193, -2.09478110086221], [-48.737749051789955, -2.0947545159766645]]]}}, {"type": "Feature", "properties": {"Parcela": "T-024", "Ha": 26.2476}, "geometry": {"type": "Polygon", "coordinates": [[[-48.739494342807674, -2.0963966376983643], [-48.73780268870583, -2.0948013826162857], [-48.731592675382686, -2.101406759509512], [-48.7333075012143, -2.1030482401306827], [-48.739494342807674, -2.0963966376983643]]]}}, {"type": "Feature", "properties": {"Parcela": "U-012", "Ha": 8.1903}, "geometry": {"type": "Polygon", "coordinates": [[[-48.744880786305174, -2.0977228788417226], [-48.74415824298991, -2.0967971947667783], [-48.7434601120284, -2.0958633640471587], [-48.741395220055864, -2.0980164852522463], [-48.741407255643075, -2.0981310591990208], [-48.7422885486414, -2.0989506001636773], [-48.74306831664864, -2.0996718027628343], [-48.744880786305174, -2.0977228788417226]]]}}, {"type": "Feature", "properties": {"Parcela": "T-011", "Ha": 2.8788}, "geometry": {"type": "Polygon", "coordinates": [[[-48.734318584639155, -2.0913864945072853], [-48.73518003569528, -2.0904406131468076], [-48.73204443380874, -2.089182082882142], [-48.73189292732778, -2.08919925072782], [-48.73186541453412, -2.0892431919752528], [-48.73427791833503, -2.0913864354348437], [-48.734318584639155, -2.0913864945072853]]]}}, {"type": "Feature", "properties": {"Parcela": "T-012", "Ha": 5.0827}, "geometry": {"type": "Polygon", "coordinates": [[[-48.73756979194934, -2.0914382636819666], [-48.73525317931302, -2.0904795865144847], [-48.73438149117404, -2.0914745484614827], [-48.73606280582018, -2.0930603180930407], [-48.73756979194934, -2.0914382636819666]]]}}, {"type": "Feature", "properties": {"Parcela": "T-013", "Ha": 7.6034}, "geometry": {"type": "Polygon", "coordinates": [[[-48.73763889551147, -2.091458820378039], [-48.736123740828454, -2.0931054107713645], [-48.737809114132745, -2.0946993707844257], [-48.73956047782793, -2.0928158258983878], [-48.73966641585934, -2.0926727841133244], [-48.73969510512253, -2.0925173564026607], [-48.73966683198721, -2.092382302587553], [-48.73957752982833, -2.0922676167838015], [-48.73763889551147, -2.091458820378039]]]}}, {"type": "Feature", "properties": {"Parcela": "T-014", "Ha": 8.2771}, "geometry": {"type": "Polygon", "coordinates": [[[-48.74096057987773, -2.0948369128741096], [-48.74099740555583, -2.094679451198998], [-48.74094872293392, -2.094597554557128], [-48.740769977655624, -2.0944663736450995], [-48.74064811869125, -2.094368005666085], [-48.74059137314116, -2.0942370017457446], [-48.7407544262995, -2.093967212413558], [-48.74086033519257, -2.0938446269774893], [-48.740966162012434, -2.0937793196141334], [-48.74116967060863, -2.093656875632189], [-48.741340540472905, -2.0936080277180027], [-48.74147055628274, -2.093690042240306], [-48.74151097674296, -2.0938619355491435], [-48.74152693864281, -2.0940747064341783], [-48.741494112339275, -2.094279223975714], [-48.741921764831936, -2.09382366362551], [-48.74129245540821, -2.093108819148627], [-48.741186874713605, -2.093002292276661], [-48.74072380354271, -2.0926334040228776], [-48.740471823489884, -2.0925266649980943], [-48.740292996332855, -2.0924527623999754], [-48.74019944873553, -2.09246285504735], [-48.74025610057744, -2.0926593195316707], [-48.74017461520542, -2.0927655751772196], [-48.74005260397267, -2.0927735808783803], [-48.739971212361205, -2.092814375852628], [-48.73995883950637, -2.0929350512153833], [-48.74007651154486, -2.0931172846350727], [-48.74022288755018, -2.093133862084973], [-48.74036094271434, -2.0932813490445987], [-48.74058031924628, -2.093437136537816], [-48.740588159483025, -2.0936417129139553], [-48.74064490506461, -2.0937727168116553], [-48.74021357004328, -2.0939602909918587], [-48.74012437338568, -2.0937719618546846], [-48.74010443000553, -2.093499861557085], [-48.73999066927633, -2.093426053187709], [-48.73989326896945, -2.0932868077793345], [-48.73983658207604, -2.093114891045291], [-48.73980423645838, -2.0929839226008267], [-48.73977183221857, -2.0928938670551402], [-48.739682506610144, -2.092795546374625], [-48.73786598850025, -2.0947403663261137], [-48.739526986173104, -2.0963199733010454], [-48.74096057987773, -2.0948369128741096]], [[-48.74087266117847, -2.0937566818809006], [-48.740860607742356, -2.093654381879982], [-48.7408199998058, -2.093613409991077], [-48.740759099626885, -2.09354376957575], [-48.7407470403251, -2.093445560875617], [-48.74073089092261, -2.0933637114492027], [-48.74069029471347, -2.0933145569847262], [-48.74060499462484, -2.093244881206856], [-48.74069454889695, -2.0931836415375624], [-48.74072709384217, -2.0931755061181696], [-48.74073532090709, -2.0931100572356844], [-48.74074355382806, -2.0930405170602295], [-48.740784249654645, -2.0930201195495455], [-48.740792259910215, -2.0931060484768893], [-48.74080436611427, -2.0931715268389883], [-48.740848987965805, -2.093249326242684], [-48.74088549409102, -2.093314839981252], [-48.74094230418829, -2.093400839663404], [-48.74096250853647, -2.0934908775811896], [-48.740966364213385, -2.0936381700152267], [-48.74091332772982, -2.093756740848211], [-48.74087266117847, -2.0937566818809006]]]}}, {"type": "Feature", "properties": {"Parcela": "U-011", "Ha": 7.3743}, "geometry": {"type": "Polygon", "coordinates": [[[-48.74100107639952, -2.094955619359422], [-48.739640840855294, -2.096328321284898], [-48.73966512924217, -2.0964060912170623], [-48.73970164696373, -2.096463422429107], [-48.739851913707646, -2.096602744837954], [-48.74053010076988, -2.097262429138188], [-48.74098897617869, -2.0977213213932315], [-48.74124482970288, -2.0979630798579136], [-48.741436121592514, -2.0978528925723205], [-48.74297569207966, -2.0962022401117135], [-48.74291087163313, -2.0960303112190806], [-48.742894757384896, -2.0959239138777765], [-48.74284619186914, -2.095760191188261], [-48.74281385783932, -2.0956210398827344], [-48.74291164536387, -2.095490259866391], [-48.743009374264325, -2.0954003928102396], [-48.743066395481655, -2.095339105872018], [-48.742002951531504, -2.093926063899312], [-48.741502008271475, -2.094444933184267], [-48.74152210123288, -2.0946127057339066], [-48.741529976613485, -2.094792734476661], [-48.74154603219708, -2.0949400446634576], [-48.74158638219337, -2.095161033544598], [-48.741683559880464, -2.09545574833087], [-48.741764553002604, -2.095693161421179], [-48.74179675788482, -2.09592232113818], [-48.74179645289226, -2.0961350684757623], [-48.74186928916902, -2.096388834992397], [-48.741925940898504, -2.096585299787861], [-48.741836227852396, -2.096757004332765], [-48.74169780867111, -2.0968631772948725], [-48.74164064062792, -2.097026746425158], [-48.74162413921676, -2.0971903745854763], [-48.741607673000516, -2.097329454975463], [-48.74155057532138, -2.097443928542714], [-48.74152605792213, -2.097525718992388], [-48.74145267006809, -2.0976565340930073], [-48.74137123105677, -2.0977300592518433], [-48.74132265415556, -2.097574519217171], [-48.7413636612992, -2.097337283248434], [-48.74138006883851, -2.0972391158217296], [-48.741331503637866, -2.0970753932148125], [-48.74139686372451, -2.0968709230037708], [-48.7414458514869, -2.096740072447806], [-48.74144601579045, -2.0966255162179057], [-48.74138121908194, -2.0964372222502834], [-48.741365316191676, -2.096183538427843], [-48.741373672446265, -2.0960280810699725], [-48.741227964801936, -2.095545095980134], [-48.74109028485984, -2.0951357660451158], [-48.74100107639952, -2.094955619359422]]]}}, {"type": "Feature", "properties": {"Parcela": "V-012", "Ha": 0.7415}, "geometry": {"type": "Polygon", "coordinates": [[[-48.749158333463605, -2.103829240369914], [-48.74840870673954, -2.1047712016615816], [-48.749156023556786, -2.105439172953126], [-48.749158333463605, -2.103829240369914]]]}}, {"type": "Feature", "properties": {"Parcela": "V-022", "Ha": 7.3231}, "geometry": {"type": "Polygon", "coordinates": [[[-48.74829053444893, -2.104936728495743], [-48.745695791546964, -2.1078909762754496], [-48.74901224931161, -2.1078569361832056], [-48.74903716694743, -2.1074969359682423], [-48.74908517716757, -2.106631690856732], [-48.74915381989773, -2.105557818142212], [-48.748359791765154, -2.104850911369423], [-48.74829053444893, -2.104936728495743]]]}}, {"type": "Feature", "properties": {"Parcela": "U-023", "Ha": 26.1994}, "geometry": {"type": "Polygon", "coordinates": [[[-48.7447961174229, -2.10146630633218], [-48.74307829836279, -2.099800693431222], [-48.736907741632045, -2.1064196053480124], [-48.73820733960138, -2.1076263897059255], [-48.73908991646022, -2.107554035888328], [-48.7447961174229, -2.10146630633218]]]}}, {"type": "Feature", "properties": {"Parcela": "U-013", "Ha": 8.015}, "geometry": {"type": "Polygon", "coordinates": [[[-48.74487249404344, -2.10137845408662], [-48.74697424189354, -2.099053546035988], [-48.74707917880109, -2.0989002737315237], [-48.746973474272565, -2.098879663909801], [-48.74690435234106, -2.098871381070483], [-48.746368721978776, -2.098762184603132], [-48.74577934024712, -2.098560855500052], [-48.74549085799121, -2.0983845106249683], [-48.745226875568726, -2.098138648976511], [-48.74503201502678, -2.097901070240143], [-48.74493853420811, -2.0978641128592357], [-48.74491814806172, -2.0979009051038], [-48.74494237225042, -2.098023679603769], [-48.74486913687913, -2.098048121256551], [-48.744804070042115, -2.098048026880522], [-48.744747136562125, -2.0980479442992674], [-48.743174987640344, -2.0997271903678474], [-48.74487249404344, -2.10137845408662]]]}}, {"type": "Feature", "properties": {"Parcela": "U-024", "Ha": 20.2441}, "geometry": {"type": "Polygon", "coordinates": [[[-48.74487937291045, -2.1015441622126083], [-48.73921095055166, -2.107519436667907], [-48.74076875171913, -2.107341694040468], [-48.74212711523036, -2.1072823064060873], [-48.74221821490765, -2.107560647961034], [-48.7422423615205, -2.107736609264595], [-48.742212743822904, -2.107829643226278], [-48.74659324376861, -2.103129990809023], [-48.74575356194074, -2.1023575579209797], [-48.74487937291045, -2.1015441622126083]]]}}, {"type": "Feature", "properties": {"Parcela": "U-014", "Ha": 11.789}, "geometry": {"type": "Polygon", "coordinates": [[[-48.74666655586199, -2.1030523622953634], [-48.74918383212668, -2.1002248208970355], [-48.749164869070384, -2.0992674235780138], [-48.749148918463916, -2.0990464689732478], [-48.74721340873534, -2.098880011711079], [-48.74498118101013, -2.101446118626195], [-48.74666655586199, -2.1030523622953634]]]}}, {"type": "Feature", "properties": {"Parcela": "V-021", "Ha": 15.4757}, "geometry": {"type": "Polygon", "coordinates": [[[-48.74830291075524, -2.10481400683491], [-48.746650095289326, -2.1031873518390145], [-48.74225938845204, -2.1079146058382947], [-48.74235687120611, -2.107996574145461], [-48.74294245197863, -2.108013793573026], [-48.74554742453328, -2.1078437100388427], [-48.74830291075524, -2.10481400683491]]]}}, {"type": "Feature", "properties": {"Parcela": "V-011", "Ha": 6.9911}, "geometry": {"type": "Polygon", "coordinates": [[[-48.746707164094786, -2.1030933344573843], [-48.74836402290473, -2.104736360511446], [-48.749138076224106, -2.1037760237530088], [-48.74919186300451, -2.100296430707512], [-48.746707164094786, -2.1030933344573843]]]}}, {"type": "Feature", "properties": {"Parcela": "U-021", "Ha": 26.3607}, "geometry": {"type": "Polygon", "coordinates": [[[-48.74124873047897, -2.098078664801377], [-48.73961420059082, -2.0964725008160614], [-48.7395328909118, -2.096456017505554], [-48.7334315667667, -2.1030259193904914], [-48.73339480735936, -2.103136330218173], [-48.73484871712542, -2.1044926690190726], [-48.73499694369492, -2.1046360805563515], [-48.73507817070401, -2.104709842368263], [-48.74124873047897, -2.098078664801377]], [[-48.740597452891755, -2.098503213700064], [-48.740597452891755, -2.098503213700064], [-48.740597452891755, -2.098503213700064], [-48.740597452891755, -2.098503213700064], [-48.740597452891755, -2.098503213700064], [-48.740597452891755, -2.098503213700064], [-48.740597452891755, -2.098503213700064], [-48.740597452891755, -2.098503213700064], [-48.740597452891755, -2.098503213700064], [-48.740597452891755, -2.098503213700064], [-48.740597452891755, -2.098503213700064], [-48.740597452891755, -2.098503213700064], [-48.740597452891755, -2.098503213700064], [-48.740597452891755, -2.098503213700064]]]}}, {"type": "Feature", "properties": {"Parcela": "U-022", "Ha": 26.4528}, "geometry": {"type": "Polygon", "coordinates": [[[-48.74301578198107, -2.0997908496359776], [-48.74298892813972, -2.0996905227268097], [-48.74133385216597, -2.0981754433634374], [-48.74129027643221, -2.0981503081115256], [-48.73515854152512, -2.1047269238151767], [-48.7351791883476, -2.104810526776236], [-48.736771954885626, -2.1063213440587103], [-48.73681968400287, -2.1063464856729275], [-48.73686952004165, -2.106350737144632], [-48.74301578198107, -2.0997908496359776]]]}}]}