{"type": "FeatureCollection", "features": [{"type": "Feature", "properties": {"nome": "FAZENDA_SAO_JOSE", "Ha": 325.3817}, "geometry": {"type": "Polygon", "coordinates": [[[-48.74594812, -2.0986520499999974], [-48.74550626, -2.0984249799999977], [-48.74485318, -2.097788600000001], [-48.74323276, -2.0956328499999946], [-48.74168299, -2.093552289999996], [-48.74086555, -2.092802130000005], [-48.73611303, -2.0908632699999954], [-48.73190542, -2.089230219999992], [-48.73162232, -2.089645559999998], [-48.73138905, -2.090212029999996], [-48.73118624, -2.090778370000002], [-48.7308613, -2.0914163099999925], [-48.73044943, -2.0920823200000047], [-48.73021789, -2.092378050000005], [-48.72963702, -2.092781110000007], [-48.72922338, -2.093053969999999], [-48.72895755, -2.093455409999993], [-48.72849495, -2.0943378600000044], [-48.72844111, -2.0947243400000013], [-48.72827977, -2.095133979999999], [-48.72810825, -2.095369039999991], [-48.72743233, -2.0960124300000067], [-48.72667373, -2.0969043000000003], [-48.72979872375621, -2.0999023744159433], [-48.72979865, -2.0999024800000043], [-48.73819288, -2.1077710299999968], [-48.74185232, -2.110893959999991], [-48.74414341, -2.108102449999994], [-48.74903368, -2.1080333600000025], [-48.74920189, -2.1068498000000018], [-48.74922891, -2.0990355000000016], [-48.74594812, -2.0986520499999974]]]}}]}