{"type": "FeatureCollection", "features": [{"type": "Feature", "geometry": {"type": "MultiLineString", "coordinates": [[[-48.70215605105397, -2.1386754183375847], [-48.70253262669246, -2.1389780200693957], [-48.703601962879596, -2.1398061286462577], [-48.704908433123855, -2.140805513877743], [-48.70569646927753, -2.1414295017280467], [-48.705812738004354, -2.1414952348548453], [-48.70592917049399, -2.1414509244043782], [-48.70601307615896, -2.141369103226443], [-48.706096887763366, -2.141350498565929], [-48.706379054962774, -2.1409739646655814], [-48.70648391695751, -2.1408851508754805], [-48.70664471832844, -2.140740228636302], [-48.706842882207454, -2.140511073626718], [-48.706973414347935, -2.140375471168883]], [[-48.661649041608186, -2.107343030228221], [-48.661896133987035, -2.107661407356684], [-48.66242649869709, -2.108143075231873], [-48.66359350791185, -2.1090650156628965], [-48.66445576920327, -2.1096589004898045], [-48.66604117252288, -2.110967355552722], [-48.66856234299026, -2.1128660344760473], [-48.6693226905468, -2.113454911376078], [-48.67004177632081, -2.114014042939397], [-48.67044846526259, -2.114335236615639], [-48.67201635498148, -2.115524936555557], [-48.673000713400086, -2.116268506232012], [-48.674091102918794, -2.1171383907176304], [-48.67487501784364, -2.1177555042882847], [-48.67544531847976, -2.1181734168843116], [-48.676031814122325, -2.118613616611897], [-48.67642084519378, -2.1189065854842144], [-48.676929199506624, -2.1193154999026977], [-48.67780600093502, -2.119971343141353], [-48.678426393878716, -2.12043534137402], [-48.67901732639013, -2.1208696118270614], [-48.68059260079473, -2.1220652653179477], [-48.681379488284364, -2.1226719963803946], [-48.68225190210162, -2.1233055719340226], [-48.683368879311935, -2.124162143450912], [-48.684388578873204, -2.124959201583371], [-48.684842461818114, -2.1252953108447445], [-48.68515189242472, -2.125548088202692], [-48.68561460532078, -2.125899052732598], [-48.68601543671005, -2.126196493494329], [-48.68654298690569, -2.1265980181530173], [-48.686929088156695, -2.1268805950265066], [-48.68736232759156, -2.127210736886828], [-48.688287689943024, -2.1279571922836222], [-48.68855899030337, -2.128058525885313], [-48.689065945833235, -2.1284214312290044], [-48.68928395957906, -2.1286414192610787], [-48.68930738711956, -2.128760189354758], [-48.68953128877599, -2.1289890914289424], [-48.69071898817709, -2.129914045679158], [-48.691818300713436, -2.1307527844286898], [-48.693009007240676, -2.1316421238674086], [-48.69382529806243, -2.132326081309255], [-48.694503222264075, -2.132802043914813], [-48.69546984818318, -2.133584185138704], [-48.69791893881194, -2.135496547558565], [-48.70136135839447, -2.1381020448392545], [-48.70212179106557, -2.13865531193158]], [[-48.6959886812348, -2.123969631746721], [-48.69493029416721, -2.1253750562749354], [-48.69466423714981, -2.125716020435872], [-48.69278993893229, -2.1281650826441707], [-48.69219571035997, -2.1289478391575805], [-48.69122454833295, -2.1302242607898205]], [[-48.69483115615548, -2.1215931900307483], [-48.694050701412635, -2.1226101738598118], [-48.692995302098076, -2.123991853634438], [-48.69190735605726, -2.1254328491535466], [-48.69158218636736, -2.1258419957310166], [-48.6894093636748, -2.1286378978844227], [-48.68935613429142, -2.128717963597836]], [[-48.69121009955896, -2.108118019335579], [-48.691957974006094, -2.109175876701695], [-48.692075776103415, -2.1093244712821124], [-48.69209821584788, -2.1101140927021342], [-48.692150756067306, -2.1105000599904518], [-48.69239122764069, -2.111497793457124], [-48.69247319404377, -2.111937235597052], [-48.69240711666486, -2.112726724959484], [-48.6920754996894, -2.1135098804378014], [-48.69154840083164, -2.114797366640823], [-48.6912282504206, -2.115806134524722], [-48.691190946100726, -2.1170884160403642], [-48.69114897052104, -2.117539545906017], [-48.69100055555929, -2.118138934826822], [-48.690929074182314, -2.1185900203415806], [-48.69087521667388, -2.1190945629523172], [-48.69084504248698, -2.119545710346267], [-48.690879709627815, -2.1200444489915284], [-48.6909790508241, -2.120703576877284], [-48.691025704750885, -2.1210776619176963], [-48.69095438967801, -2.121415949358141], [-48.690676439466415, -2.121819230584], [-48.689949168779755, -2.1227858268372883], [-48.68983061786358, -2.1231418530782515], [-48.68986521290674, -2.123688085277889], [-48.68979302325948, -2.124614108265029], [-48.68959763387701, -2.125053133009183], [-48.68939614888941, -2.125622756686036], [-48.689289628829734, -2.1258244454122392], [-48.68905904430323, -2.1261209350470676], [-48.68857465942467, -2.1264526625728886], [-48.687830299007395, -2.1270036569269672], [-48.68750534070529, -2.127270319866413]], [[-48.690512087733346, -2.1084530883154713], [-48.67948954141398, -2.121160367167762]], [[-48.68483829636068, -2.101973758260423], [-48.68487110381558, -2.1017974897567044], [-48.68376899204101, -2.098737999361449], [-48.68257204409958, -2.0954718286945213], [-48.68205093068672, -2.0940101396353223], [-48.68137703607163, -2.094291243968657], [-48.672216188800334, -2.0977006265663447]], [[-48.67393506065403, -2.1169140456901414], [-48.674816008828664, -2.115775533038064], [-48.675419192981394, -2.1149156238905134], [-48.67616417683528, -2.1139371936430402], [-48.680273671776874, -2.1083510040425164], [-48.68077028724586, -2.107722457944807], [-48.68185241790294, -2.1062042818359723], [-48.682360912624624, -2.105522321130484], [-48.683017299856864, -2.1045912389085712], [-48.68381555510422, -2.1034941393737325], [-48.68464341882741, -2.102325841710718], [-48.68482680459786, -2.1020174058463557]], [[-48.68227115367094, -2.1017268605731565], [-48.68182249117968, -2.100373586709131], [-48.68180512162488, -2.1002677705416732]], [[-48.681176407617635, -2.098770656390345], [-48.67976998480779, -2.0949450012800317]], [[-48.67909406305174, -2.0999967277304097], [-48.67753549214151, -2.0957879893746103]], [[-48.67265140092817, -2.114073637514112], [-48.673949341121876, -2.1122797505901865], [-48.67481852513257, -2.111111533860074], [-48.67564046429927, -2.1099669908783185], [-48.67616373258666, -2.1092731854458235], [-48.676781680194914, -2.1084014208918], [-48.67734635079818, -2.1076423724669455], [-48.678277655342534, -2.106361444037621], [-48.67864435998891, -2.1057920710389615]], [[-48.67529225042746, -2.0966221426814267], [-48.67677451521283, -2.1007866841878533]], [[-48.67605047496044, -2.113970177316914], [-48.67380916917295, -2.112524555928128]], [[-48.67021358181456, -2.1258883614734683], [-48.67030817176503, -2.125772740249035], [-48.675803349016356, -2.118479696405168]], [[-48.66826232157508, -2.1245184067350493], [-48.6738955059975, -2.117038557194865]], [[-48.67197553531295, -2.11560261934186], [-48.669612385245784, -2.118747540672241], [-48.66643132113075, -2.122951982044061]], [[-48.670337688245894, -2.102447000822557], [-48.670277742997584, -2.1023511966179567], [-48.66995274881066, -2.102028302970695], [-48.66937032153662, -2.1014078052852976], [-48.66912044038802, -2.101082505853292], [-48.6682958790672, -2.0999780371962067], [-48.66802345438605, -2.0996602606229287], [-48.66801629835651, -2.0994209647785858], [-48.66789684885484, -2.098932140165448]], [[-48.66781741272546, -2.0989367880863203], [-48.66570071108218, -2.1017475778375942], [-48.66490247336277, -2.1028327816445387], [-48.663453834608596, -2.104789688478709], [-48.66312865658786, -2.105210698874253], [-48.6630103464396, -2.1054064291911048], [-48.66227129877945, -2.1063670476088747], [-48.66195198540091, -2.106811812378724], [-48.6617273078544, -2.107108304248395], [-48.66149665839224, -2.1074522799455577], [-48.66139589976099, -2.107748958808143], [-48.66120003485833, -2.1085085503157694], [-48.66079675887267, -2.1098555531706324], [-48.66058918818809, -2.110549823443771], [-48.660340319442376, -2.1112380943231024], [-48.66022745573163, -2.111736599212983], [-48.66010883304868, -2.1121401094271146], [-48.65946251980091, -2.114216944738083], [-48.6591956518224, -2.1151010950817013], [-48.65895849256452, -2.1158487480947072], [-48.65813991127853, -2.118679266623432], [-48.65698199515448, -2.122503645128073]], [[-48.66705031166938, -2.0999188937944453], [-48.666342960739684, -2.099407279951701], [-48.66584190399542, -2.099056265466491], [-48.664131067631025, -2.09876873636025], [-48.66401319969447, -2.0986676364377024], [-48.66382491778993, -2.0982992822172717], [-48.663696138262765, -2.0975985660722474], [-48.6636787131771, -2.0974115359772285], [-48.66364483156109, -2.0973788336016095], [-48.66364354137063, -2.0972541623889955], [-48.66367323740783, -2.097125085245442], [-48.66366900776401, -2.0969929888249736], [-48.66368393615218, -2.0968742786004633], [-48.66366352971111, -2.096708022250145], [-48.663625539518456, -2.0964615949661525], [-48.66364355920607, -2.0962479032661343], [-48.66362033435042, -2.0959925932152563], [-48.66357930117027, -2.0958084960228596], [-48.663703932662976, -2.095327815879386], [-48.66369263260933, -2.094989410870629], [-48.66289096781928, -2.0944123547386178], [-48.660839606961645, -2.0929666763283157], [-48.66083388216697, -2.0928479353267697], [-48.6610289624264, -2.092610763241487], [-48.661969212504246, -2.0912526866158068], [-48.662087519668056, -2.091056955292306], [-48.66199931454368, -2.0908490412006615], [-48.66162220511126, -2.0904804053208665], [-48.659617905595255, -2.0891357252653604], [-48.65883979578729, -2.088594327021434], [-48.65736609319445, -2.0875769575486514], [-48.652709322095546, -2.084287036661734], [-48.651247476390225, -2.083240005264977], [-48.649013513140986, -2.0815981590519583], [-48.64788993801663, -2.083234965141736], [-48.645626259602416, -2.0817414873641447], [-48.64226896759107, -2.0795963157722506], [-48.64147606093439, -2.0790964544416086], [-48.641411148601314, -2.0790993251253522], [-48.64097784256156, -2.078831529501309], [-48.6404885461041, -2.0785191257307516], [-48.6402999481429, -2.0783674605457687], [-48.64066671804334, -2.07774467574967], [-48.64342905480324, -2.0732251756784748], [-48.6445114914602, -2.071463640637643], [-48.64614398606715, -2.0688243129388866], [-48.64862539295897, -2.064711004234946], [-48.64921389113088, -2.063773901555531], [-48.65191999927905, -2.0593195492596297], [-48.65172096615129, -2.059240594456414], [-48.651073645964736, -2.059048179924864], [-48.649939754764034, -2.0586947560625886], [-48.64921283535228, -2.0584621513432113], [-48.647526008819355, -2.0579372301704777], [-48.646535080080774, -2.057674550381837], [-48.64539091815069, -2.057286975078401], [-48.64429975891357, -2.0569707169481655], [-48.642518548149766, -2.0564337808244573]], [[-48.66629739367111, -2.064894066273447], [-48.653789571470085, -2.0686983791470532]], [[-48.66450452679128, -2.112482182925069], [-48.66574930580697, -2.1107983817931655]], [[-48.665560721979936, -2.1020956999431206], [-48.66579297573854, -2.102409782512229], [-48.66592299276654, -2.102616011865763], [-48.6659129739029, -2.1030936204890707], [-48.66586046626581, -2.103973867461324], [-48.665430504809045, -2.1051532311395538], [-48.66494389358044, -2.106866322871788], [-48.664728673899354, -2.1076152112377473], [-48.66472377166156, -2.107781435467954], [-48.66470032854129, -2.107896123325871], [-48.66460656990361, -2.1083455095738244], [-48.66451766456446, -2.108661449542819], [-48.66439631443004, -2.108886030164712], [-48.66411864644984, -2.1093749403643933]], [[-48.6652318420955, -2.105543352857647], [-48.663503983501265, -2.104795700716845]], [[-48.659138998816545, -2.1001971438606986], [-48.661114494492864, -2.1010728033167205], [-48.662111090923645, -2.1015136146655418], [-48.662630042696584, -2.1017340514389824], [-48.66313718856166, -2.101957438738562], [-48.66344679586307, -2.1020855424953213], [-48.663544094476556, -2.1021302137340867], [-48.66362670708394, -2.102130338122433], [-48.66370638690758, -2.1021185848266244], [-48.663924812976134, -2.1020565790260863], [-48.66420816664347, -2.1019827976362038], [-48.66434685551745, -2.10197113311147], [-48.66446480296518, -2.102018803709452], [-48.66460023245116, -2.102214916513431], [-48.66462959572857, -2.102309946883245], [-48.664711970046596, -2.102470360046544], [-48.664829599720015, -2.1027317491178734]], [[-48.662427726314654, -2.0636256515556965], [-48.66477298576948, -2.0628812408048183]], [[-48.66462349014373, -2.1078963119619285], [-48.662105448955906, -2.1067853293018253]], [[-48.66405030138545, -2.0987462701919672], [-48.66393006600641, -2.098787649401145], [-48.663603343906686, -2.09878715828048], [-48.66330290424742, -2.0987904847794914], [-48.662777032548306, -2.0988652574892304], [-48.66254038471636, -2.098902683294716], [-48.66223614491762, -2.0989362292059877], [-48.66198086043516, -2.0988791726253195], [-48.661737005140054, -2.0987125663203323], [-48.661455416005914, -2.0986668046460344], [-48.661095187819804, -2.098469797919368], [-48.66087387091008, -2.0982994473982606], [-48.660814188955, -2.098323767149947], [-48.65999141641662, -2.097615461451644], [-48.6597444285275, -2.097821122626477], [-48.65785825347003, -2.0985955873618467], [-48.656115959064884, -2.0996418528058287], [-48.65585490991636, -2.099913046933632], [-48.655170062361705, -2.1003521729357972]], [[-48.65721255792042, -2.102043491514155], [-48.657660705616145, -2.1022578858620373], [-48.66015517923721, -2.103334693019894], [-48.66056207308229, -2.103514889584674], [-48.6612874098085, -2.103833592936921], [-48.66197000540671, -2.104125517007757], [-48.662668813544066, -2.104427854606715], [-48.66336463640849, -2.104753934211986]], [[-48.66115675635223, -2.0614966745036236], [-48.663128405585915, -2.0608873725049213]], [[-48.65442171117201, -2.071001991978086], [-48.65932487028679, -2.0695205366544984], [-48.66077999049903, -2.069075511531801], [-48.66309653594019, -2.0683718779821345]], [[-48.6612766447475, -2.1256621441953207], [-48.66235225948333, -2.1260811535300594], [-48.662276916942226, -2.126313661560017]], [[-48.662276916942226, -2.126313661560017], [-48.662373683919554, -2.126071348571955], [-48.6612766447475, -2.1256621441953207]], [[-48.662276916942226, -2.126313661560017], [-48.66218391628419, -2.126600662478727], [-48.66199515668884, -2.1267689473342624], [-48.66184713736581, -2.1267999355165923]], [[-48.66184713736581, -2.1267999355165923], [-48.66204654533698, -2.1267207993237665], [-48.66222257854346, -2.1264497295814055], [-48.662276916942226, -2.126313661560017]], [[-48.66192911690373, -2.1067263523492827], [-48.66165396224251, -2.1065622162012283], [-48.66102842794673, -2.106311912454558], [-48.65910939774191, -2.1054727798248263], [-48.65826614823931, -2.1051566588707478], [-48.657785423594746, -2.1051760824610772], [-48.657564947300436, -2.105281537577889], [-48.65720399753108, -2.10556813172731], [-48.656928035108166, -2.1059455299360765], [-48.65655145331471, -2.106640140671389], [-48.65604977297542, -2.10727914859253], [-48.65516947993707, -2.106622935897817], [-48.65464421093805, -2.106294700760842], [-48.65395149429778, -2.1057697484035893], [-48.652788582363385, -2.1049216823775154], [-48.65099283728929, -2.10368728790551], [-48.649574781341855, -2.102692748679564], [-48.649139622894516, -2.1023797635041355], [-48.64868943557177, -2.1020717931400252], [-48.64857433805027, -2.1020262811370256]], [[-48.66094441738641, -2.1276448978249722], [-48.661123270774304, -2.127546025609969], [-48.66152546860562, -2.1270355141816517], [-48.6617139134752, -2.126852806152569], [-48.66184713736581, -2.1267999355165923]], [[-48.66184713736581, -2.1267999355165923], [-48.661562154203246, -2.126859597337153], [-48.661408101946456, -2.127161388146768], [-48.66110035706839, -2.1275261591025827], [-48.66094441738641, -2.1276448978249722]], [[-48.66151431309113, -2.062879903313249], [-48.66112559091415, -2.061529674094712]], [[-48.660454803391836, -2.059187659423245], [-48.66148902242226, -2.0588882970740405]], [[-48.6612766447475, -2.1256621441953207], [-48.65835191658417, -2.1245711941092593]], [[-48.65835191658417, -2.1245711941092593], [-48.661103267004265, -2.1255946042555727], [-48.6612766447475, -2.1256621441953207]], [[-48.66011996135845, -2.058230580632083], [-48.66109976915054, -2.061454848381579]], [[-48.64400566686563, -2.072351882265809], [-48.64451851928986, -2.0726969698683217], [-48.64659073114264, -2.0742800877247225], [-48.64698594831473, -2.0745475829705162], [-48.64720929731454, -2.074585377394109], [-48.64732109643242, -2.074519989348692], [-48.647386892806495, -2.074089295546659], [-48.647396948641216, -2.0735835979403006], [-48.64743499898483, -2.073031116934151], [-48.647333034218235, -2.0727406479675285], [-48.647408000182025, -2.0724036182671064], [-48.647389894828194, -2.0720570843852486], [-48.647474293507976, -2.071635783275076], [-48.64752154094923, -2.07115823631063], [-48.64763376805453, -2.070802532010081], [-48.647764335719785, -2.070634156064049], [-48.647918126244925, -2.070498592432244], [-48.64797400485944, -2.0704799457527097], [-48.65373853904494, -2.0687466343620486], [-48.65345137894104, -2.067790967804003], [-48.65279836207298, -2.065589201022313], [-48.652896321369504, -2.0654395052347136], [-48.65299900363543, -2.065242991000142], [-48.65304571799711, -2.065125996818393], [-48.65317651125748, -2.064803095593733], [-48.65332135647373, -2.064419342083165], [-48.65343350501144, -2.0641151431984506], [-48.653452293737885, -2.0639981074633273], [-48.653457147181975, -2.063862320852614], [-48.6535689796355, -2.0637735185200814], [-48.653741228035436, -2.0637456789526762], [-48.65419754359472, -2.063610562385034], [-48.65449786973814, -2.063524380911176], [-48.65524523054887, -2.0632843382942903], [-48.65577837578113, -2.063125922148735], [-48.656444229081394, -2.0629255594076596], [-48.65729169791674, -2.0626575681697044], [-48.65799712639341, -2.0624478978315643], [-48.658683927695485, -2.062245223237031], [-48.659796809806224, -2.0618956776978417], [-48.66108196848193, -2.061499559780642]], [[-48.661005128041054, -2.0870372607314756], [-48.657282004258334, -2.084276728345811]], [[-48.66094441738641, -2.1276448978249722], [-48.6607229115818, -2.127813561125625], [-48.660366580549834, -2.1279886135574047], [-48.66034915921953, -2.1279739630419052]], [[-48.66034915921953, -2.1279739630419052], [-48.66094441738641, -2.1276448978249722]], [[-48.66091409175317, -2.1098208530512883], [-48.66197210486569, -2.110626865947485], [-48.66313327927759, -2.1115042749271904], [-48.664306248427465, -2.1123876389545604], [-48.6653200844192, -2.113143125155334], [-48.666708189026544, -2.1141960099450583], [-48.66673459698142, -2.114294004509572], [-48.667878119926954, -2.1151417059536373], [-48.668190485439936, -2.115400422566592], [-48.66811937664342, -2.115599192808505], [-48.66800390405663, -2.115869135716288], [-48.66791213732206, -2.116070842970871], [-48.66775556191493, -2.1162041806774705], [-48.66764935331288, -2.116198083328466], [-48.666803145750976, -2.1158079524956226], [-48.66503694452829, -2.1150453890454117], [-48.66315279014838, -2.1142410904292124], [-48.661678510339904, -2.113600669807094], [-48.66076003773822, -2.11320004032021], [-48.659987525095886, -2.1128589981965025]], [[-48.6579541452099, -2.0829665782759523], [-48.66091457687145, -2.0851413487074786]], [[-48.66071516651216, -2.1096661999913127], [-48.660417507486024, -2.1094401581556435], [-48.65965124531902, -2.108866115352275], [-48.65896894642436, -2.108376054477953]], [[-48.66034915921953, -2.1279739630419052], [-48.6602829061836, -2.127918247368114]], [[-48.65300274960325, -2.125112098198638], [-48.66026347976197, -2.127866532888808], [-48.66026952368228, -2.128017986394679], [-48.66034915921953, -2.1279739630419052]], [[-48.660380399530744, -2.059234509126914], [-48.65434018761769, -2.0610291645407406]], [[-48.65977219690438, -2.1327236325303054], [-48.65806201813677, -2.1320679125154993]], [[-48.65792206405764, -2.1119638910473078], [-48.658259660173364, -2.1121187547515747], [-48.658691626641804, -2.112303444585536], [-48.65914719478188, -2.112489654344802], [-48.65979292347789, -2.1127726223151124]], [[-48.65894672601834, -2.134972734387704], [-48.65237629639524, -2.132499331252065], [-48.65208928186379, -2.1325367515815326], [-48.65161840818568, -2.1328341828072874], [-48.651157201400665, -2.1329612548402093], [-48.65046772549085, -2.1331636975568804], [-48.64996422050268, -2.1332646747284847]], [[-48.656609580389585, -2.1239231013686277], [-48.65835191658417, -2.1245711941092593]], [[-48.65835191658417, -2.1245711941092593], [-48.65658133047468, -2.1239107472616836], [-48.656398816164966, -2.1243206292415864], [-48.6470822763263, -2.120835677262451]], [[-48.65812949283023, -2.137214746783626], [-48.64970076755414, -2.1340498810186794]], [[-48.657300563599854, -2.1394105950133544], [-48.648844720357154, -2.13629063122306]], [[-48.656814989629, -2.0727274786751533], [-48.64828502646614, -2.075320119718253]], [[-48.63962328724344, -2.1180259998967936], [-48.63509788387528, -2.116330979969558], [-48.63198870434381, -2.1151399167727236], [-48.63226545308567, -2.114629227482165], [-48.63257367692062, -2.1140428655875447], [-48.632812849632906, -2.113494257788258], [-48.63427349977524, -2.1139949922354595], [-48.637677342246334, -2.115274842697539], [-48.648848081102, -2.11945659878625], [-48.655405112064805, -2.12194018321367], [-48.65698484770862, -2.1225231268536686], [-48.65657819433891, -2.123910742476487]], [[-48.65654229479205, -2.1289951004408], [-48.65214790814589, -2.127347736146218]], [[-48.65649975030268, -2.1416751063825337], [-48.65116931259536, -2.1396945836025645], [-48.64995044157309, -2.139232460040048], [-48.6484988339775, -2.1386907065603533], [-48.648053372270226, -2.1385172801180294]], [[-48.65308499220376, -2.0664276287994214], [-48.656284564990685, -2.0654618873114994]], [[-48.65431031884117, -2.0802712351677557], [-48.65791815969991, -2.082917591840073], [-48.657885378812175, -2.083053337035088], [-48.657087413253265, -2.084456910318061], [-48.65584641091916, -2.0864498191117353]], [[-48.655680175666404, -2.1438993585173876], [-48.64720323227538, -2.140733186909353]], [[-48.65339025087002, -2.0786566465095486], [-48.655600533467336, -2.0780164321497887]], [[-48.65532589113576, -2.0537049544690564], [-48.65195546646527, -2.0592765615977973]], [[-48.65528512069595, -2.0738557045267068], [-48.65510267874115, -2.073309311969765]], [[-48.65525821981269, -2.0756870816799284], [-48.65183030973654, -2.076732460169302]], [[-48.65442171117201, -2.071001991978086], [-48.65448686856114, -2.0712178314351593], [-48.655085534785535, -2.073211889118415]], [[-48.655035802231815, -2.0834802721132353], [-48.654403821804216, -2.082978425301808]], [[-48.65485943760132, -2.1461117742096274], [-48.6529764310161, -2.1454202733211267], [-48.652170104261444, -2.1451220574583547], [-48.6510323001895, -2.144710930304158], [-48.6500802356911, -2.1443521484755084], [-48.647604883180904, -2.143412452985581], [-48.64641067748809, -2.142972842426461]], [[-48.65374086617658, -2.0687466378249546], [-48.65442171117201, -2.071001991978086]], [[-48.64749772767247, -2.073101448595534], [-48.6476840050882, -2.0730291479538607], [-48.64907390923808, -2.0726191625764923], [-48.65070829047143, -2.072122913130573], [-48.652161069802744, -2.071684921789894], [-48.65280598240959, -2.071484533994707], [-48.65438214900938, -2.0710139453129717], [-48.65442171117201, -2.071001991978086]], [[-48.65405036274049, -2.148384545615537], [-48.64557344517682, -2.145200594285165]], [[-48.65351886953454, -2.1232593145430734], [-48.649271779176374, -2.1216701272827145], [-48.6470822763263, -2.120835677262451]], [[-48.65320960078725, -2.1506099387800512], [-48.64476085932748, -2.147457959779983]], [[-48.653185545407275, -2.130260680538418], [-48.65290534410372, -2.130197916942673], [-48.65134253470355, -2.1295721801211935]], [[-48.653171371085996, -2.081710415761358], [-48.650442924790994, -2.0797027321658965]], [[-48.65087389789309, -2.0611631618035338], [-48.65314338710543, -2.0625648742255347]], [[-48.653017500598615, -2.0528980183112093], [-48.65014432166422, -2.0576627447479776], [-48.649589838667985, -2.05854545198617]], [[-48.652397040936265, -2.1528472039444067], [-48.64390478094568, -2.1496975074455724]], [[-48.65189020581621, -2.127703864474124], [-48.64522028763402, -2.1252169160194367], [-48.64343369510145, -2.1245610784651427]], [[-48.65179981932323, -2.076786009671415], [-48.65196427158927, -2.0773106999836544], [-48.65195943397996, -2.0774347800524193], [-48.651935968848875, -2.0775658560714354], [-48.65160718795691, -2.078007864219516]], [[-48.651098066995644, -2.0745022235998842], [-48.65141306454315, -2.075514122344919], [-48.65178832540856, -2.0766900004339637]], [[-48.651766305362514, -2.0767601922126486], [-48.65129071261187, -2.076888184310425], [-48.65111784924499, -2.07688096885885]], [[-48.65155385970919, -2.1551092646618994], [-48.643106331265, -2.151932408837046]], [[-48.64907549534121, -2.0815819264730115], [-48.65039411734302, -2.0797257556668334], [-48.65105641662685, -2.0787709583777465], [-48.65156790760372, -2.0780444926983264]], [[-48.65108602339719, -2.1298766718807194], [-48.642651469787445, -2.126730748786731]], [[-48.65074484613761, -2.157327598647229], [-48.64227965430789, -2.154164896943713]], [[-48.64882546085315, -2.0599183095776166], [-48.65075990447173, -2.0610934232923004]], [[-48.65036472776298, -2.0796485361413435], [-48.6463212886515, -2.076620764872668]], [[-48.6501857092886, -2.0530051436684236], [-48.64728832019559, -2.05777329755556]], [[-48.64992049095859, -2.159576667577275], [-48.64261544625055, -2.1568227590885214]], [[-48.64952230154924, -2.0586253564190957], [-48.6464273638316, -2.0636958261723275]], [[-48.64912617475516, -2.1617902856772644], [-48.640619256784746, -2.158610922387911]], [[-48.648177949622735, -2.1347095101394795], [-48.648549315852094, -2.134885187616839], [-48.64914172623971, -2.1350966996989604]], [[-48.64420460223384, -2.0780689395465983], [-48.64897071992169, -2.0815754156704425]], [[-48.6473452953297, -2.0590012771354127], [-48.64870975430942, -2.0598381332000537]], [[-48.64857250916076, -2.1366469312995435], [-48.647822619276816, -2.1363618206678643], [-48.64682119900051, -2.1359816706471504], [-48.646010141513806, -2.1357059307691344], [-48.64575859997974, -2.135617990265504]], [[-48.64827302577849, -2.1640191899130445], [-48.642800181677075, -2.1619648738035036]], [[-48.648095645704764, -2.05185763833145], [-48.6449071387889, -2.057101899064902]], [[-48.647872207091666, -2.0832542323451535], [-48.64752636031378, -2.0836930185257687], [-48.64642068619224, -2.0851933061285917], [-48.64530615810304, -2.086693577197085], [-48.64458776559431, -2.0876660893327466], [-48.64364167467446, -2.0889855446027226], [-48.64217235330691, -2.090980972655986]], [[-48.64275039086674, -2.137073349738289], [-48.64370956004524, -2.137394279658558], [-48.64427137291779, -2.1376175781648534], [-48.644621670118504, -2.137726968229218], [-48.64503306079135, -2.1378766795025417], [-48.64608854240932, -2.138280577911622], [-48.64640532097465, -2.138391099299013], [-48.646911933137986, -2.1385669866084083], [-48.64744261953402, -2.1387659823851863], [-48.64775878619905, -2.138892475258394]], [[-48.64746158453358, -2.1662724105464055], [-48.63898464411524, -2.16310016010153]], [[-48.647486587455695, -2.069892533533054], [-48.64607028403667, -2.0690434153617514]], [[-48.64511486839897, -2.139756823851431], [-48.64577071628871, -2.1400133963374945], [-48.6462714409839, -2.140194007860541], [-48.64713770256102, -2.1405171613747833]], [[-48.6470822763263, -2.120835677262451], [-48.64491453731972, -2.1200248046104266], [-48.63969904714548, -2.1180543761807704], [-48.63962328724344, -2.1180259998967936]], [[-48.6470822763263, -2.120835677262451], [-48.643424564558906, -2.1194416667667477], [-48.63962328724344, -2.1180259998967936]], [[-48.64704345892751, -2.1309636945033565], [-48.64178711921252, -2.1290247169914402]], [[-48.646621908249465, -2.168527950174472], [-48.64210948082491, -2.1668180349199484]], [[-48.646453673457685, -2.133282346841583], [-48.643233081402364, -2.1321084402343287], [-48.640966942860445, -2.131267283199758]], [[-48.646361743090615, -2.1426716559937824], [-48.64491369930592, -2.142108605809482], [-48.64436713769927, -2.1419089921142143], [-48.64359372650147, -2.1416250242018284], [-48.6415531834554, -2.1409131637229595], [-48.64073387792186, -2.1406492378613384], [-48.63985929516905, -2.1403875925489997], [-48.638842492871724, -2.1400724854550424], [-48.63802902284041, -2.1398393298088427]], [[-48.639378765422705, -2.0798722149456355], [-48.64643809110851, -2.085083112114118]], [[-48.64613370958272, -2.050574663617039], [-48.6425502160725, -2.0563957509017334]], [[-48.63569448143471, -2.062638018943553], [-48.64597788467123, -2.06898414370408]], [[-48.64554765895454, -2.1447592410054614], [-48.643261473411116, -2.143942880424049], [-48.64177459639046, -2.1433975141866606], [-48.637379423366006, -2.1420324540644837]], [[-48.638034352417435, -2.081833765566231], [-48.64503841073498, -2.087002848976526]], [[-48.64476756332275, -2.1469202307588073], [-48.64377555408534, -2.1465377202908673], [-48.64310323746906, -2.1462834849942976], [-48.64166691335836, -2.1457488428721727], [-48.64079472355365, -2.145458803029373], [-48.63998127552916, -2.1452090810098836], [-48.63821801409473, -2.144673930611134], [-48.6366898532, -2.144212499316098]], [[-48.64400816067814, -2.1490049369386424], [-48.64198649486551, -2.1482493190375074], [-48.640886294310306, -2.1478642722322574], [-48.63899607006528, -2.147293427647271], [-48.6358692402283, -2.146332589746024], [-48.63453388805141, -2.145914047988732], [-48.626703096340805, -2.1432918583033347]], [[-48.64393974062987, -2.0677984270438663], [-48.641621118208036, -2.071582984886984]], [[-48.643788685441024, -2.134863656091436], [-48.64271912020703, -2.1344431736105305], [-48.640114442363036, -2.13349500710155]], [[-48.64363525270775, -2.0889330107567634], [-48.63673136698694, -2.0838336364347545]], [[-48.64330641664532, -2.124477865829075], [-48.64021518768888, -2.123318372002289], [-48.63482964589187, -2.121305856220806]], [[-48.642952911686315, -2.151895492844354], [-48.639986237208774, -2.1507858235074275], [-48.638166731951124, -2.1501133343140495], [-48.63627200301865, -2.1494146985048546], [-48.63453013918902, -2.1487328643346895]], [[-48.64249750721532, -2.126665439264216], [-48.63401482172659, -2.123515884184591]], [[-48.64236958458778, -2.1618050526801973], [-48.63981958915741, -2.160858824032743]], [[-48.642199839309185, -2.1387182512564826], [-48.64140062085909, -2.138392834572945], [-48.64082938655959, -2.13817898572188], [-48.64026515466827, -2.138000641901191], [-48.639973668440845, -2.1378866095111064], [-48.639247139000496, -2.137710380803077], [-48.63872519144385, -2.137567596416399]], [[-48.64214918335031, -2.154117959661081], [-48.641041941871414, -2.1537210659105015], [-48.64015099830756, -2.1533883985528157], [-48.63979133544889, -2.153250593900746], [-48.63791072849696, -2.1525425119340817], [-48.636554325196805, -2.1520434791857928], [-48.633681705652634, -2.1509647103902045]], [[-48.63535586885299, -2.0857673026857313], [-48.642233873289904, -2.090826646375214]], [[-48.64146121525145, -2.156390295872161], [-48.641898437336756, -2.156568448857498]], [[-48.64200837313162, -2.0663041589706572], [-48.6419182618488, -2.0664518581592106]], [[-48.64188793620192, -2.066501380656093], [-48.63952585529822, -2.070451092695417]], [[-48.641640230897394, -2.128947586632254], [-48.63317402034437, -2.1257909414345746]], [[-48.64128541209676, -2.156378190344855], [-48.640239318440905, -2.155986122344948], [-48.639496480002094, -2.1557045593294415], [-48.63771457681013, -2.1550510522596853], [-48.635389685949164, -2.154171900867772], [-48.63286968953854, -2.1532190896380583]], [[-48.64125640805069, -2.130004724984404], [-48.632847918480394, -2.126785455030471]], [[-48.6332535378861, -2.071979144027864], [-48.641156919164814, -2.076857343853428]], [[-48.64091188244847, -2.1663609563033446], [-48.63819439507084, -2.1653344641856105]], [[-48.64063760566743, -2.073245944433585], [-48.63918544137117, -2.075602145032229]], [[-48.640480544232425, -2.1585698874395955], [-48.63972830916046, -2.158280026457761], [-48.63805454657894, -2.157662179377905], [-48.636371382287464, -2.157041950960376], [-48.63466002867105, -2.1564003816393593], [-48.63280762852342, -2.1557088996598974], [-48.63204599146835, -2.1554190232958663]], [[-48.64047994649652, -2.1321136618717835], [-48.639013100006565, -2.1315505904351943], [-48.636951504558354, -2.130773635820209], [-48.63569856554352, -2.130300812576683], [-48.6342364093369, -2.129751945282817], [-48.63322322631098, -2.1293836080018966], [-48.63282592155275, -2.1292552155256286], [-48.632050208576224, -2.1289464017759383]], [[-48.6402093516015, -2.0647457392721957], [-48.639942452594774, -2.0652044942915175]], [[-48.63988789553291, -2.0652739815112238], [-48.63738895918183, -2.069420013210998]], [[-48.639664987814186, -2.160825454382373], [-48.635896721967015, -2.1594021595076276], [-48.63370815153373, -2.1585894682325573], [-48.631230456330734, -2.157660376282913]], [[-48.639693435866754, -2.1342539336665567], [-48.63866146519748, -2.133861903453635], [-48.63765064640807, -2.133481737197568], [-48.63624725157123, -2.132956621234795], [-48.63512829409234, -2.1325407934038574], [-48.63381658711044, -2.1320465803612625], [-48.63312311561865, -2.1317899504978697], [-48.633024429780846, -2.1317235422752523], [-48.632291017085365, -2.131438455337298], [-48.631223795581484, -2.1310321721508454]], [[-48.63962328724344, -2.1180259998967936], [-48.63543286205841, -2.1164653983049253], [-48.63201853311412, -2.115172476830403]], [[-48.63915423148054, -2.0756647099757397], [-48.6361562929768, -2.0805369583499362], [-48.636107826591626, -2.080578626398922]], [[-48.63882716660693, -2.1630253757407605], [-48.63627770768881, -2.162100900987096], [-48.635819314373215, -2.1619250784594533], [-48.63439003888224, -2.1613963428108947], [-48.63292784517525, -2.1608616396065443], [-48.63039608594417, -2.1599099784982454]], [[-48.63838389338291, -2.072298168486657], [-48.63716729562306, -2.074345137950293]], [[-48.63802098569385, -2.1652951487262166], [-48.63444543586395, -2.16397389142916], [-48.62954882293742, -2.1621276126603908]], [[-48.637925577662195, -2.063978207006644], [-48.63809119904532, -2.063705374388024]], [[-48.637855105522426, -2.1397491417464227], [-48.637092191830796, -2.13952552938945], [-48.63429917832112, -2.1386930028524818], [-48.63069769647486, -2.1374427565088485], [-48.62909445885261, -2.1368676308706887]], [[-48.637884407480456, -2.064043099772672], [-48.63530927288468, -2.068282927805847]], [[-48.63720197247612, -2.141945809630371], [-48.63359322004207, -2.1408256927195115]], [[-48.63712226637836, -2.074400725165327], [-48.63362175003193, -2.080113985108456]], [[-48.63653475996918, -2.144117607333281], [-48.63478795872834, -2.1435895800492637], [-48.633318572946436, -2.143149535463551], [-48.631715265884814, -2.142614631346684], [-48.62984871374912, -2.1419586375807045], [-48.62860749480399, -2.1415142142278243], [-48.627506131549126, -2.1411315312301196]], [[-48.636462202028206, -2.0619339151650364], [-48.6359406827274, -2.0627323045584847]], [[-48.636048516894995, -2.071633761616493], [-48.63513361971832, -2.0730724556698514]], [[-48.63589476166036, -2.0628070220904764], [-48.63506476246513, -2.0641258432718907]], [[-48.63511155361295, -2.1365669825228615], [-48.63311803105949, -2.135882407427665], [-48.631637040683636, -2.1353453349488656], [-48.62991154590195, -2.1347368949980314]], [[-48.63507469887175, -2.0731697630040933], [-48.63358080780918, -2.075684154375876], [-48.63262948138801, -2.0772027903818056]], [[-48.63481859999633, -2.0645898445166004], [-48.633214756029105, -2.0672414773724572]], [[-48.63470150263034, -2.121276672266647], [-48.62621009345306, -2.1181076295044834], [-48.63468504000385, -2.121275463807312]], [[-48.63438327125485, -2.1486427171377063], [-48.6271429510196, -2.1459528118867577], [-48.62589001492132, -2.145481153353086]], [[-48.63385724432633, -2.1235085426525164], [-48.62791227193113, -2.1212821865229468], [-48.625394655446115, -2.120343629053843]], [[-48.63356186144476, -2.1508911689934025], [-48.63218902189826, -2.1503779122595605], [-48.63091256569222, -2.1499002997849415], [-48.62935165394112, -2.1493275922555104], [-48.62796473019652, -2.148800115240626], [-48.62639912669028, -2.1482226672841245], [-48.62505685324861, -2.147723654695077]], [[-48.63044123180835, -2.1332795051281934], [-48.633546591859826, -2.134415391846048]], [[-48.633177143764016, -2.1406665063571673], [-48.62832505540888, -2.1389599861284347]], [[-48.63305412454429, -2.1257517130333], [-48.62456801465889, -2.1225867467902617]], [[-48.632719319152926, -2.1531123725574832], [-48.626988198895546, -2.150969040630853], [-48.624219025790225, -2.1499377504467194]], [[-48.63219928272718, -2.127975870282866], [-48.62926556967956, -2.126882854434863], [-48.62374374212381, -2.1248156674684022]], [[-48.631881428053205, -2.155364341644412], [-48.63028290347205, -2.154775005831683], [-48.62928616084776, -2.154418505754097], [-48.628016766214614, -2.153938532913046], [-48.626742735125205, -2.1534159599600993], [-48.62337176988074, -2.1521612932118224]], [[-48.63139205488196, -2.13020660513133], [-48.63097363269384, -2.1300450517084974], [-48.630407102858456, -2.1298359438032892], [-48.62988524995159, -2.1296351869191428], [-48.62925876669257, -2.129410605442218], [-48.6287721700588, -2.129226466904831], [-48.62822209698431, -2.129023299982344], [-48.62769905845682, -2.1288296399242204], [-48.62742755119839, -2.1287274703314853], [-48.626252188271295, -2.128290258416723], [-48.62480884486484, -2.12775324839049], [-48.62392496940969, -2.1274277018115186], [-48.62321741882523, -2.127154486013353], [-48.62291652317409, -2.12704517197332]], [[-48.631032999986566, -2.15758198010632], [-48.62914770901874, -2.1568691459844636]], [[-48.63056127374879, -2.1324550474034174], [-48.6255965319544, -2.1306064006496004], [-48.6221057286495, -2.129297178180587]], [[-48.630242143665996, -2.159831650215458], [-48.62865071920028, -2.1592139242149413], [-48.62730135512013, -2.1587314548432848], [-48.62590972131706, -2.158206326176358], [-48.62461209648765, -2.1577310363539812], [-48.62333094555005, -2.1572510396952915], [-48.62179828426512, -2.156666532364854]], [[-48.62974228007546, -2.1346822083604766], [-48.628160250548035, -2.134083455598418], [-48.62693552004396, -2.1336272327625605], [-48.62563085372562, -2.133149589317025], [-48.62397126067991, -2.1325199540321185], [-48.62129615004683, -2.131519605006472]], [[-48.62941777064367, -2.1620771236521175], [-48.62771585574683, -2.1614213607293404]], [[-48.629245293897114, -2.1891873253841663], [-48.62186316646178, -2.2092073036084887], [-48.62173739011878, -2.2095070976513433], [-48.62139197296094, -2.2104863395732703], [-48.621079948094994, -2.2113216500916075], [-48.62093086406927, -2.2117726786543623], [-48.6206854542473, -2.212427237254378], [-48.62051720591603, -2.212855407760689], [-48.62038217453095, -2.213250269485274], [-48.62010521624546, -2.2139855483321504], [-48.61994220357427, -2.214413726851624], [-48.61973360655329, -2.214968257019016], [-48.61966700662585, -2.2151384725302528], [-48.61942330333149, -2.215815859259694], [-48.619223410347466, -2.2163844502663275], [-48.61904371627778, -2.216874057903826]], [[-48.62905322421793, -2.1365321489858413], [-48.62060006505177, -2.13335177429998]], [[-48.62888615282481, -2.189988650265835], [-48.62531593551004, -2.188698520058584]], [[-48.6282788600191, -2.1653929681230104], [-48.6286403713898, -2.164396208911894]], [[-48.62855004188423, -2.1975241760486997], [-48.62648422976523, -2.196749765937039]], [[-48.628538949315704, -2.200069175982099], [-48.62659065323348, -2.1993376412424714], [-48.62566292370842, -2.198970947405012]], [[-48.62852238272663, -2.156652835743421], [-48.62260089451067, -2.1544216295441165]], [[-48.62822601013501, -2.1387450938200434], [-48.627440882438094, -2.1384409913309312], [-48.62554382958593, -2.137742359877301], [-48.62429559072932, -2.137278997209122], [-48.62303797810844, -2.136794323482257], [-48.621547571476, -2.1362714269908607], [-48.62115262562761, -2.1361406680088026]], [[-48.62804831337618, -2.1922408919230802], [-48.61956289005963, -2.1890765287978002]], [[-48.62803099953705, -2.194768876401745], [-48.627320586863, -2.194511595575289]], [[-48.62772909103642, -2.202315837231968], [-48.62482563036248, -2.201235013515094]], [[-48.6273881407726, -2.1410006115915325], [-48.620730881280934, -2.138519865989378]], [[-48.62719334380659, -2.19446870131828], [-48.618727777864294, -2.1913138264228866]], [[-48.6268225693858, -2.2044975624457255], [-48.62400448772735, -2.2034700362748927]], [[-48.626877872920055, -2.1158134216586153], [-48.62673936023045, -2.1157616670366344], [-48.620155807177646, -2.113301476748686]], [[-48.626732632970935, -2.1610678339183873], [-48.620949841313845, -2.158886514305039]], [[-48.626594977210225, -2.1432419982616446], [-48.62579103283015, -2.142937863392466], [-48.62454745522265, -2.142500532240619], [-48.623146374376724, -2.142008531210745], [-48.62176884192643, -2.141500002899527], [-48.618146537381364, -2.1400509338602607]], [[-48.626404925183415, -2.196718754404338], [-48.617912542391906, -2.1935821687512496]], [[-48.62601676495443, -2.1180333460403395], [-48.61760713476677, -2.114896917452498]], [[-48.625856686803935, -2.20669312274999], [-48.623182065164706, -2.205703373827102]], [[-48.62575481947979, -2.1454489977627964], [-48.62047977842269, -2.143486230060455]], [[-48.62556139495103, -2.198942534167239], [-48.61710414026502, -2.1958109614757646]], [[-48.62529333564645, -2.2090295549570387], [-48.62235982015832, -2.2079451083274177]], [[-48.62518894730696, -2.120280605701679], [-48.616787534418386, -2.117153638472817]], [[-48.62488992839059, -2.1476760685497407], [-48.6233290416987, -2.147093894847827], [-48.621918606498994, -2.1465663800698573], [-48.61980765468164, -2.1457798473211653], [-48.619650128075, -2.145739374471151]], [[-48.62475309740404, -2.2011959614226093], [-48.61626755574586, -2.198061164443824]], [[-48.62441287725431, -2.122522618075367], [-48.61594097165611, -2.1193505669465544]], [[-48.624106140296036, -2.1499281086639415], [-48.61890632834308, -2.1479891008920933]], [[-48.62392754775017, -2.203422478295414], [-48.61543574105997, -2.2002734244444646]], [[-48.623545079192745, -2.1247597529731452], [-48.61513314128202, -2.1215936939433093]], [[-48.623282390529376, -2.1521611530612517], [-48.62225512253109, -2.151776209164339], [-48.62079062139698, -2.1512273079483446], [-48.61887711420219, -2.1505238956905353], [-48.618385779592444, -2.150362219678226], [-48.61807080322314, -2.150231581703911]], [[-48.62310511596285, -2.20566164618095], [-48.61461959790113, -2.202511004704217]], [[-48.62276606813784, -2.126995247443579], [-48.62162831864738, -2.126574656975841], [-48.62123340333454, -2.1264249708261422], [-48.620090962570096, -2.125997274135506], [-48.61860062814071, -2.1254341614772074], [-48.617413512909124, -2.1249992963891553], [-48.61531435136739, -2.124210445040811], [-48.61429415827803, -2.12382552979301]], [[-48.62246685473379, -2.1544024890603084], [-48.61727644310195, -2.1524682083862787]], [[-48.622267024527545, -2.2079227241003805], [-48.61747096325067, -2.206125540065945], [-48.61379176007266, -2.2047481676473284]], [[-48.62164780182346, -2.1566331682466005], [-48.61995526760499, -2.156005816667923], [-48.61761863361812, -2.155140826627412], [-48.61648559275024, -2.1547131193746614]], [[-48.62146024571821, -2.210133647773423], [-48.612987264596555, -2.207005129276783]], [[-48.62112689671444, -2.1314578194182423], [-48.6173422364599, -2.1300605806323674], [-48.61376918793002, -2.128720459387457], [-48.612645512468546, -2.1283306465416656]], [[-48.620785253616695, -2.158848395173177], [-48.61572646973846, -2.156971091646349]], [[-48.62064728539906, -2.21239821851988], [-48.61753532796534, -2.2112271998929867], [-48.61411587638795, -2.209954292476634], [-48.61214639246801, -2.2092160277503625]], [[-48.62028937044018, -2.143414944879739], [-48.618947109256816, -2.1429147506632353]], [[-48.62025398090899, -2.1285909353889867], [-48.61935600768714, -2.12825826608084], [-48.6181289528176, -2.1277925756712177], [-48.61606032049881, -2.127032162993824], [-48.61346047548696, -2.1260484972526523]], [[-48.619665499944944, -2.1621677691319787], [-48.6200624357379, -2.1611592003237448]], [[-48.619924690422266, -2.1880091253901583], [-48.61171210837525, -2.210329015131954]], [[-48.619812204642436, -2.214608793765089], [-48.611757085280836, -2.211616896305373]], [[-48.619600853803824, -2.1131081546613864], [-48.61842259278969, -2.112653792766369]], [[-48.61948183557131, -2.189060121985039], [-48.617455493861435, -2.1883137465403624]], [[-48.61942175839491, -2.135977065866075], [-48.61922477604172, -2.135593426849749], [-48.6189430104145, -2.135280643159039], [-48.618785528427324, -2.1352117765649785], [-48.61112222170948, -2.1323697984186167]], [[-48.61897686583052, -2.1327683340592136], [-48.61426607562732, -2.1310005119732613], [-48.61197653584081, -2.1301238014234647]], [[-48.61876687086455, -2.1377797156763876], [-48.61405018896505, -2.1360142331220797], [-48.61139626531886, -2.135016266500159], [-48.610897925067476, -2.1348261887424638], [-48.61034785120089, -2.1346289313659392]], [[-48.61866745534582, -2.1913112697935393], [-48.61619832302825, -2.190384565596948]], [[-48.61795139672988, -2.1399985715402097], [-48.61653627956322, -2.1394639550331576], [-48.61440182763617, -2.138675025757348], [-48.61287386162555, -2.1381118372930406], [-48.61122365773492, -2.1375058650183942], [-48.60967925113488, -2.136930819073505], [-48.609517062797906, -2.1368643106583036]], [[-48.617838840946476, -2.1935519105045174], [-48.61498509181193, -2.1924599734936665]], [[-48.617841217279924, -2.1505096544195013], [-48.61756191786836, -2.150532627862199], [-48.61735705957084, -2.150574447854073], [-48.61717110953894, -2.1504290007846447], [-48.617078029158186, -2.1504241721491106], [-48.61686898171405, -2.150166310799744], [-48.61676214172351, -2.1500303528798117], [-48.61661315069629, -2.1500628957476002], [-48.616370941255795, -2.150179575616017], [-48.61607309010545, -2.150160377948016], [-48.61583612398145, -2.14989779040508], [-48.615733902182505, -2.1497852518581255], [-48.61558973286316, -2.1497101067100792], [-48.61538958748113, -2.149714474607673], [-48.61504041491641, -2.1497747971847647], [-48.614752265589814, -2.1495027644761557], [-48.61463152826562, -2.1493246431386805], [-48.61449652243704, -2.149343160578247], [-48.61375773332983, -2.15152868298523], [-48.613014116980004, -2.1538218903005077], [-48.61282690617836, -2.15448649647426], [-48.612228678577054, -2.15606820468624], [-48.61208822915646, -2.156592411871876], [-48.61187333121502, -2.1571024541653734], [-48.611798546863774, -2.1573036792386286], [-48.6100355961984, -2.156621946735965], [-48.60843529600742, -2.1561043546058736], [-48.608347031191265, -2.1559965201608415]], [[-48.61731593959236, -2.1417793594366126], [-48.617040733733994, -2.141788393838305], [-48.61668078055801, -2.141844620410122], [-48.61658200863475, -2.141835000870561], [-48.6157686020783, -2.1415710750110457], [-48.6141959982096, -2.1409723206808553], [-48.61399358964938, -2.141057188260818], [-48.61337542409204, -2.140781736612818], [-48.61294283306922, -2.1406603809672538], [-48.61252909894663, -2.140513026234406], [-48.612279971955545, -2.1403895917245648], [-48.612106301131654, -2.1401432312666997]], [[-48.617028737662864, -2.1957855422563504], [-48.61497413449442, -2.1950201358852004], [-48.614883085081736, -2.194950419619272], [-48.614723105693734, -2.194738290181962], [-48.61206534559325, -2.193734744438355]], [[-48.61617960945244, -2.198016751233466], [-48.60998440472468, -2.1957046565030307]], [[-48.61573179712195, -2.1192484945635033], [-48.60729752916567, -2.116126184905593]], [[-48.61536033592264, -2.2002495860629074], [-48.60900176786686, -2.197877133026021]], [[-48.61521628373866, -2.1898172862815017], [-48.610190483966875, -2.187954461499827]], [[-48.614969751532755, -2.1215437494619658], [-48.613446509549284, -2.120973488960811], [-48.611641187443915, -2.120298676004492], [-48.60965722836555, -2.1195502320942974], [-48.607896573016234, -2.11889441764332], [-48.60654024834872, -2.1183812048615307]], [[-48.61452535467094, -2.2024729055805823], [-48.60862542025251, -2.2002940780393914]], [[-48.61439387539139, -2.149504542332885], [-48.613770451791765, -2.149334995544085], [-48.611472431846465, -2.148536543462861], [-48.61137010877405, -2.1484895584982184], [-48.611354018683386, -2.1483607672292466], [-48.61125878269846, -2.1482458986514787], [-48.61104492253964, -2.1480910430904063], [-48.61076366165942, -2.14787989275409], [-48.61051926083202, -2.147909943811454], [-48.61035636215147, -2.1479073463015115], [-48.61020164682648, -2.1478801790811297], [-48.60933871646963, -2.1475885126720864], [-48.60895961480267, -2.147441591248613], [-48.60879918736684, -2.147346520323854]], [[-48.61413665220635, -2.1237732278894046], [-48.612775609151434, -2.1232623723770843], [-48.610963234250065, -2.1225851787618435], [-48.609092102556126, -2.121881864885164], [-48.60783214921433, -2.121406659328649], [-48.60571185289193, -2.120610674290269]], [[-48.613679302786096, -2.204735732459047], [-48.609576407125054, -2.203192248011504]], [[-48.613663095557996, -2.1622254901584768], [-48.61332786122261, -2.1622998783270155], [-48.61297481450922, -2.1618591738458304], [-48.612677035226795, -2.161793149109753], [-48.612286446200045, -2.1615490462577425], [-48.611830769007526, -2.1612580164608732], [-48.61140250594892, -2.1612947979499273], [-48.61103928735515, -2.1614066005979073], [-48.610750744190504, -2.161387414248093], [-48.61056467098987, -2.161321566135236], [-48.61041622848673, -2.1610029282919134], [-48.61036996287722, -2.160824924065431], [-48.60776036932564, -2.1598515372056415], [-48.60767198009618, -2.1598233028876037], [-48.60743816896307, -2.160520607783654], [-48.60672763651671, -2.162476717280512], [-48.60680192314861, -2.1625938946902266], [-48.60844400470155, -2.1631817975761147], [-48.60943488435831, -2.163506453704839], [-48.609514141124386, -2.163422296322275], [-48.610248219907746, -2.1612906295460217], [-48.61055768573781, -2.1613238962738905]], [[-48.61358034815316, -2.191766817338161], [-48.60936072807544, -2.1901881285103326]], [[-48.61363646836317, -2.1516900351287123], [-48.61058942394599, -2.1506785206638313]], [[-48.61330822782766, -2.1260180909096515], [-48.611686260632695, -2.1254086280063516], [-48.61052267723706, -2.12497143017035], [-48.60944488045667, -2.124575774788028], [-48.60841058458755, -2.1241884688174046], [-48.60761018821754, -2.123884345024604], [-48.606624083467096, -2.1235148606300336], [-48.60567558104816, -2.123165547633681], [-48.60488107443904, -2.1228567003536054]], [[-48.612915055855915, -2.206948091725849], [-48.60797011030144, -2.205156581427701]], [[-48.612504503364136, -2.1282570735974713], [-48.61087785934887, -2.1276298535300087], [-48.609432185800515, -2.1270928320642457], [-48.60772794887674, -2.126453659372678], [-48.60620706320981, -2.1258857591501132], [-48.60432652619141, -2.1251847889554782], [-48.604063283071575, -2.125066067028377]], [[-48.612479299507925, -2.1430531012210747], [-48.60786257329731, -2.1413043097514084]], [[-48.612194536648225, -2.1668820854053985], [-48.612338727926875, -2.167125706815417], [-48.612648266247454, -2.1672924172307844], [-48.613081612651705, -2.1675305609482423], [-48.613853826010406, -2.1680482535271755], [-48.61420768708852, -2.168173479399571], [-48.614408105184125, -2.1683103347772317], [-48.61455514508516, -2.168619261619408], [-48.61464907647635, -2.168928104282663], [-48.61465474483841, -2.1690765237082075], [-48.614465588884876, -2.169283998253651], [-48.61420530505573, -2.169693197983992], [-48.61393921317483, -2.170043024149979], [-48.613371669827934, -2.1707129377125347], [-48.61296361924831, -2.17127624855172], [-48.612455177545414, -2.1718868906238975], [-48.61163931688875, -2.1728591637601355], [-48.61088250183309, -2.1738077836868226], [-48.61012561083227, -2.1748038932294578], [-48.609421901912796, -2.1757525949219625], [-48.60890745274117, -2.176428523244586], [-48.608375253307344, -2.1771341044922283], [-48.60789632103587, -2.177738851477505], [-48.607535510402215, -2.178278486356442], [-48.607132811434205, -2.1791861097281067], [-48.60668858902168, -2.1802302028200575], [-48.6064693245755, -2.180817553804757], [-48.60599540755656, -2.181980325674144], [-48.605734825832236, -2.1825735461570757], [-48.60527280243207, -2.183676971844651], [-48.605047550071, -2.184317739206052], [-48.604555944329945, -2.1854686070191467], [-48.60435448289709, -2.1859906843909], [-48.604105672101795, -2.186601731096681], [-48.60384502595405, -2.1872335358115995], [-48.60352214100328, -2.188040363050857], [-48.60338005560077, -2.1883310166445016], [-48.60299479420639, -2.1893989429812635], [-48.602669018151154, -2.190167177981421], [-48.6025771658769, -2.1904104210428255], [-48.601889950189765, -2.192107113708363], [-48.60177142950933, -2.1924215497826007], [-48.601671768351125, -2.1924776635448415], [-48.60162986703968, -2.192484619546413], [-48.60146230096072, -2.1924878611982157], [-48.601081922187184, -2.1924099889945556], [-48.60034223321277, -2.1921770194887293], [-48.59950481818401, -2.1919333569381783], [-48.5985139359738, -2.1916086760327653], [-48.59740792464537, -2.191241667997644], [-48.59434451553129, -2.190274500425222], [-48.59060160841445, -2.189101673191031]], [[-48.612094155538394, -2.209201465999156], [-48.60794405161414, -2.2076926740825233]], [[-48.61214606746244, -2.1664864152410344], [-48.61182939854189, -2.1665936081831347], [-48.61161524415984, -2.166626045268342], [-48.61151293515498, -2.1665696941913444], [-48.611285265315836, -2.1663164835549154], [-48.610997198313655, -2.1659929412141037], [-48.61051289762626, -2.1661466919130747], [-48.61011318394054, -2.16578551334372], [-48.60997844111813, -2.1656354629680417], [-48.6097594638735, -2.1657755872589615], [-48.60955446450718, -2.165906368875967], [-48.6093776559286, -2.165868629110688], [-48.60899203822992, -2.16542318998413], [-48.60892234706611, -2.1653434787518107], [-48.60805291722597, -2.167706703540767]], [[-48.61214070859212, -2.1669359171543703], [-48.6119560517547, -2.167450688177179], [-48.61184612598352, -2.167799352481979], [-48.61165217451362, -2.168304743683885], [-48.61155623371618, -2.1686393828294], [-48.61134830014578, -2.1691564575476323], [-48.61114965305988, -2.169687594021928], [-48.61052030623654, -2.1703233995635873], [-48.60996587113266, -2.170678379860717], [-48.60979312774402, -2.171015237333408], [-48.609271737089955, -2.17107527890142], [-48.60898321471009, -2.1710420430644213], [-48.60883855961111, -2.171275932293174], [-48.60868000010927, -2.1714723402196032], [-48.60839590387577, -2.171584265244606], [-48.607981697655, -2.171560193794422], [-48.60756198967205, -2.172074587663199], [-48.606929129350036, -2.17198461410501], [-48.606305718308526, -2.17180569020474], [-48.60449620142336, -2.171137908274129], [-48.60397523308198, -2.1709310531929016], [-48.603861314642444, -2.1708582947771324], [-48.60302627454839, -2.1705877267849796], [-48.60167027560528, -2.1701056210879677], [-48.60150962904251, -2.1701498472186196], [-48.60123620639746, -2.1708728359181566], [-48.60098846729413, -2.1715420181315728], [-48.60079208493154, -2.1721106113464943], [-48.60031521087367, -2.173456027717], [-48.60013733760307, -2.174092544077948]], [[-48.611801352991684, -2.130095133420376], [-48.61102563762461, -2.12979814440503], [-48.610027772731456, -2.129425089351305], [-48.60868200765926, -2.128922531769762], [-48.60767709112055, -2.1285482823386594], [-48.60685554225128, -2.128233474743237], [-48.60580596491944, -2.1278425917997494], [-48.60488566949521, -2.1275039675768905], [-48.60338594462135, -2.12694319627288]], [[-48.6109835446372, -2.1323092429227914], [-48.610314786596824, -2.132051462297388], [-48.60908770429901, -2.1316094265660332], [-48.60726355547664, -2.130941665902978], [-48.604019633522064, -2.129725086997685], [-48.602539893498964, -2.1291690764808178]], [[-48.60855858919777, -2.1924427028225444], [-48.61081815492809, -2.1932601137931145]], [[-48.610685724584286, -2.1865472663571546], [-48.60303592309317, -2.2073093287091203]], [[-48.610140958088984, -2.187939312103464], [-48.604434601712065, -2.185802973245366]], [[-48.610203846398726, -2.1345914380259274], [-48.60762279592561, -2.1336267114625627]], [[-48.609975068888275, -2.139558981253774], [-48.60865867911665, -2.139069474043326]], [[-48.60927424670177, -2.190160258578324], [-48.60736573504928, -2.1894563576345045]], [[-48.609310138120385, -2.1368284931644683], [-48.608409852553805, -2.1364745150273783]], [[-48.60891705539468, -2.210575072307816], [-48.60485813207621, -2.2090600941766234]], [[-48.60847337262334, -2.1924077889497036], [-48.6026575991094, -2.190237634077317]], [[-48.6085428694208, -2.1390509541653078], [-48.60627919705971, -2.138181364542431], [-48.60408833702523, -2.1373805091232017], [-48.6020996795888, -2.1366296612693896], [-48.60006869751268, -2.1358740140655366]], [[-48.60817245416432, -2.1363723953645506], [-48.6069266000376, -2.1359019306233504], [-48.603955347051965, -2.1347898808400827], [-48.60090418656469, -2.133644577689811]], [[-48.60764478739057, -2.1946229035948486], [-48.60178983847482, -2.1924503558130324]], [[-48.60772151302088, -2.141263862385555], [-48.6068400143773, -2.140928840122523], [-48.60518746266101, -2.1403252231241523], [-48.603873427009724, -2.1398380826692587], [-48.602542962139886, -2.1393296202232737], [-48.6007587782721, -2.1386784710285847], [-48.599219076082214, -2.1381128898008104]], [[-48.60691802288542, -2.1969149180016343], [-48.607377445774205, -2.1971059869940714]], [[-48.607182096036276, -2.1894839301496374], [-48.60621371634014, -2.1891195053184767], [-48.60520527436815, -2.188745529227762], [-48.60351826228671, -2.1881166914164027]], [[-48.606092291385444, -2.1991281563767653], [-48.60694754531312, -2.19947106052552]], [[-48.606881895495405, -2.2172853503802905], [-48.6043867224833, -2.2163340956881803]], [[-48.60684696223367, -2.1968775480914315], [-48.601518908091585, -2.194873572791275], [-48.600199454279704, -2.1943844571077227]], [[-48.60688712855189, -2.143532353249819], [-48.60512888030548, -2.1428339179788813], [-48.60339404556543, -2.1422065058855937], [-48.5984200452874, -2.140334095358004]], [[-48.60633501125522, -2.2017833635810184], [-48.60526063537581, -2.201357094448501]], [[-48.60624125583468, -2.1330643453680125], [-48.601725561656714, -2.131412749734665]], [[-48.60607515097934, -2.1457571009767724], [-48.60544282195673, -2.1455171166177895], [-48.60442967565152, -2.145139291493153], [-48.60336953385302, -2.1447329975696965], [-48.60175225849833, -2.144134161787422], [-48.600229012165784, -2.143570967183958], [-48.59839786993073, -2.1428676801380493], [-48.59757278325071, -2.142561137246926]], [[-48.605988382463906, -2.1991150431855075], [-48.602831134897116, -2.1979241001626018], [-48.59883195066802, -2.1964282195217795]], [[-48.6056830363045, -2.204061803816008], [-48.60442833225748, -2.203618638986981]], [[-48.60532722430202, -2.2142461651812284], [-48.60512214419702, -2.2142268582898468], [-48.604054829663866, -2.2138053337774086], [-48.60315950220078, -2.213457611200266]], [[-48.60518401616057, -2.2013557847820504], [-48.60174401593879, -2.2000671391087754], [-48.59881059283466, -2.1989737897697736]], [[-48.60524317367795, -2.1479829971427042], [-48.60350837216163, -2.1473319164759723], [-48.60068520620915, -2.146276860952603], [-48.59899508008895, -2.1456400472284445], [-48.59790437101842, -2.145231336240613], [-48.59679016144169, -2.1448107569495596]], [[-48.60437023168471, -2.2035854401111523], [-48.598454686921286, -2.2013749357228924]], [[-48.60443114087016, -2.150236133114136], [-48.60282564653509, -2.1496207465932926], [-48.601340017054994, -2.149064704616809], [-48.5996686933159, -2.1484350162388197], [-48.59814075829134, -2.1478623433637245], [-48.59602750234783, -2.147075785530513], [-48.595931124478426, -2.147040139936839]], [[-48.60436547763125, -2.1857935884733144], [-48.603013457352496, -2.1852906321162657]], [[-48.6041432921629, -2.2060550897501985], [-48.60360432953173, -2.205846100652254]], [[-48.60411986366606, -2.2162473910960907], [-48.601767814652526, -2.2153630722938367], [-48.600977894292775, -2.2150754046353867]], [[-48.60381241135063, -2.1576295477079084], [-48.60221718425022, -2.1570185412004217]], [[-48.6036027120358, -2.1524419156039776], [-48.59913172168423, -2.1507666601299995], [-48.59714539373286, -2.150029990012626], [-48.59513557948488, -2.1492743525819944]], [[-48.60350801200249, -2.2058157055327126], [-48.60062050981677, -2.20474732312974]], [[-48.60345629267898, -2.187976110453029], [-48.601415580304845, -2.1872262883664475]], [[-48.60300050052693, -2.1598573666423735], [-48.60136693645706, -2.159234423457519]], [[-48.60282684799301, -2.1727182284449693], [-48.60103987624774, -2.1720801838836983]], [[-48.60029217785565, -2.189334267538329], [-48.602618435147356, -2.1902282972359317]], [[-48.60216496676994, -2.162094049433442], [-48.600528452233576, -2.1614710983667353]], [[-48.6020369710812, -2.2129213651204633], [-48.601119613651875, -2.212590998919383]], [[-48.60027031074627, -2.2147988962790275], [-48.6018242557614, -2.2105990303753558]], [[-48.601565719613006, -2.1313509776215245], [-48.60051498328272, -2.1309518066057174]], [[-48.60133420276578, -2.2101153083860656], [-48.599684893868314, -2.2094928274330465], [-48.59766175892669, -2.208721112860618]], [[-48.60132390655366, -2.154134941109208], [-48.59432610023123, -2.1515574839604255]], [[-48.60130427614648, -2.164368143689394], [-48.595935441456206, -2.16227732853229], [-48.59521138092461, -2.1620395540855735], [-48.594299320724176, -2.1616973669061292], [-48.5909989830064, -2.160461679364998]], [[-48.60121947572368, -2.1591956029833126], [-48.599892623604596, -2.1586592237624975]], [[-48.601059949224265, -2.2125529548804472], [-48.59250547691832, -2.2093767844745797]], [[-48.60038392789762, -2.1614411867958627], [-48.59844077796493, -2.1606871479653935]], [[-48.59989474333153, -2.1358122191558704], [-48.5945422858736, -2.133818553331108]], [[-48.59903287873268, -2.18635383676427], [-48.59275613718667, -2.1840052551507463]], [[-48.59908979564679, -2.138060629697676], [-48.59836343600363, -2.137792104685401], [-48.59707059326834, -2.1372955317388804], [-48.595251221059996, -2.1365922694589665], [-48.59372561832773, -2.136040906728454]], [[-48.59872467793159, -2.165893777219696], [-48.59649549563924, -2.16503835680239]], [[-48.59823300790127, -2.1886006401844735], [-48.592023450522404, -2.186281462523202]], [[-48.59827015974936, -2.140297774455269], [-48.596523637111574, -2.1396324831594686], [-48.59512030622169, -2.1391002402647654], [-48.593110448905826, -2.138380110302908], [-48.59292007220253, -2.138292260471856]], [[-48.59824459998339, -2.1555260696369953], [-48.59345862175292, -2.1537438152708273]], [[-48.597994880662434, -2.2063261592596497], [-48.596750842412874, -2.2058527667604535], [-48.59474163942186, -2.2050970866588457], [-48.59418675421832, -2.2048969638281215]], [[-48.59795078125781, -2.193557259424558], [-48.59603171902313, -2.1928284253812613], [-48.58986448386183, -2.190555877079773]], [[-48.597915704735605, -2.168115648305986], [-48.59580149070036, -2.1673227387452294]], [[-48.59744879641325, -2.2036014358343636], [-48.596579964156646, -2.203253723547289], [-48.59500989053282, -2.2026624058001887]], [[-48.59741764526463, -2.1424993710077884], [-48.59629400342579, -2.142095342293617], [-48.59331807775806, -2.140978527197549]], [[-48.59712136900109, -2.208546310710517], [-48.59332166498084, -2.2071329326153073]], [[-48.59706581862675, -2.195768605793308], [-48.58876923124883, -2.1926921592392183]], [[-48.597088999996615, -2.1703523287643907], [-48.59533748261063, -2.169690594511368]], [[-48.59659620201188, -2.144757210788805], [-48.5960414443509, -2.1445504740933408], [-48.59475799281743, -2.144064556393664], [-48.59394936178161, -2.143765136250045], [-48.59260479768456, -2.1432554595981776], [-48.592318028612056, -2.143141428380546]], [[-48.596270159817465, -2.157328941679039], [-48.59264075116581, -2.15595550403771]], [[-48.596246972983636, -2.1598525692781947], [-48.59181214952335, -2.158198175948631]], [[-48.596173961420746, -2.198049309084277], [-48.594081699249664, -2.1972703815717245], [-48.59257847434385, -2.196712973812442], [-48.59128965892498, -2.1962365501906658], [-48.589185628251386, -2.195452858931649], [-48.58768241167663, -2.194895450230523]], [[-48.59580184775664, -2.1469855126367783], [-48.594894466705, -2.146662272752236], [-48.59257436236953, -2.145797301944891], [-48.5912156887884, -2.1452864171377115], [-48.590193144894606, -2.144910937932379]], [[-48.59556404757238, -2.2130278241790236], [-48.591666952678395, -2.211579487734753]], [[-48.59001597610314, -2.2160171881750337], [-48.590555354466886, -2.214542898210158], [-48.590777621187556, -2.2139377580795996], [-48.59090505411369, -2.213590692238768], [-48.591168775877314, -2.2128936066391947], [-48.59147701337888, -2.212036312955428], [-48.59163406077855, -2.2116210274294774], [-48.59167994208327, -2.2115290894667687], [-48.59180885889684, -2.211176089188484], [-48.59230970765402, -2.2098041332525966], [-48.59245495438246, -2.2093873437929075], [-48.592487596435475, -2.209271638811532], [-48.59276310726055, -2.2085805067759834], [-48.59291426637263, -2.208156306229027], [-48.59307429590138, -2.2077202473776536], [-48.59317510501579, -2.2074146910332506], [-48.593250595962445, -2.207257501452701], [-48.5932876778267, -2.2071328990787005], [-48.59337357426901, -2.206926751746172], [-48.593425427693, -2.2067903007517273], [-48.59364618764219, -2.2062014800242986], [-48.59381957696981, -2.2057134995169774], [-48.59399443412692, -2.205229973493278], [-48.59411294062275, -2.2049274136277544], [-48.59413821063626, -2.204808728205066], [-48.59429523796845, -2.204403829251027], [-48.594921973786214, -2.202719672501191], [-48.59501532758272, -2.2024623358011812], [-48.59548498051924, -2.2012164686325373]], [[-48.59408423242302, -2.2023078194951107], [-48.59490885167222, -2.202636449758118]], [[-48.59491238867157, -2.2000634850457192], [-48.59297562861769, -2.19934528336098], [-48.59082683659379, -2.1985377993770183], [-48.588480125138865, -2.1976624008717507], [-48.58662469696034, -2.1969550022462814]], [[-48.59498510481674, -2.149238621078425], [-48.58956447806045, -2.1472187562443157], [-48.58772631883844, -2.146501248662039]], [[-48.59454145489576, -2.2152152105417184], [-48.590897716599905, -2.2138182713071135]], [[-48.59453039405032, -2.1643194882686005], [-48.59019574858239, -2.162703550955751]], [[-48.59417192328206, -2.1514668868376683], [-48.58999245272435, -2.1499032925231902], [-48.587754618007686, -2.1490763016316823], [-48.58588824406235, -2.148354013068102]], [[-48.594052424811686, -2.204864727802649], [-48.592288880037685, -2.2041859329941853], [-48.58888192728523, -2.202896130363841]], [[-48.59383531922874, -2.1665804676722136], [-48.59105681838659, -2.1655443628190136], [-48.5893549207054, -2.164916964933667]], [[-48.59331756628753, -2.1537009995146428], [-48.59005249997449, -2.152479583318502], [-48.58808741241901, -2.151707444617571], [-48.586307919463906, -2.151075206149374], [-48.585094968817955, -2.150633164254293]], [[-48.59321465531514, -2.20721576686442], [-48.59192229545243, -2.206740513719215], [-48.5896815796739, -2.2059174515350506], [-48.5874950645076, -2.2051122645098364], [-48.58622274640666, -2.2046406005325965], [-48.58591169583222, -2.204549970047885]], [[-48.592521420557354, -2.185170237853439], [-48.59234666714278, -2.1855944028437704], [-48.59222833658115, -2.1857901104734028], [-48.59198262987817, -2.1863032055137857], [-48.59180806054543, -2.1866116122407218], [-48.5915357471127, -2.187157313670671], [-48.59143811674749, -2.1873233728353076], [-48.591283089077535, -2.187634778963851], [-48.59116535229832, -2.187920273880513], [-48.591044031614786, -2.188140463499043], [-48.5909507982986, -2.1883243385434703], [-48.59079097338607, -2.1886372207152687], [-48.59061043112048, -2.1889901394020645], [-48.590446218207376, -2.189279269039286], [-48.59038992942515, -2.189423133540097], [-48.59032180557146, -2.1895877559697356], [-48.590221255085325, -2.1897345169966242], [-48.590154682315784, -2.1898516514162525], [-48.58994756639611, -2.190216399310922], [-48.58980094900669, -2.1905723405214936], [-48.589528628209116, -2.1911210080987464], [-48.58915265130568, -2.19191289600714], [-48.58885306279295, -2.1924459359407886], [-48.588792384616866, -2.192566789786884], [-48.58870060415203, -2.192764023107551], [-48.58857697303167, -2.193044312994243], [-48.58848225506869, -2.193233379059098], [-48.58831204340352, -2.193582602799746], [-48.587718633866466, -2.194730314072103], [-48.58748491395862, -2.1951246985039017], [-48.587171152626276, -2.1957549205442253], [-48.58697275680767, -2.1961998204422266], [-48.58682479033753, -2.1964756177407674], [-48.586645691342504, -2.19684634506394], [-48.58657914138266, -2.1969486379594794], [-48.586444456527886, -2.1972214884998333], [-48.58616916653475, -2.197779052333372], [-48.58604773704342, -2.198065280883812], [-48.58512126649201, -2.1999129269371336], [-48.58474832246949, -2.200648418867775], [-48.58428657439361, -2.2015633380836555], [-48.583946213242875, -2.202218742230302], [-48.58366649895193, -2.202773328163251], [-48.58324915403242, -2.203596305744465], [-48.583027085593905, -2.2040812338522415], [-48.582683712058355, -2.2047737332475648], [-48.582340412247376, -2.2054202262022518], [-48.58230042743664, -2.2055151412286516], [-48.58074794078241, -2.2085816527387894]], [[-48.59251613763814, -2.15592691136235], [-48.59139016927765, -2.155506302332055], [-48.58953782935697, -2.154826621364724], [-48.58847769929914, -2.1544203139638576], [-48.586916867832336, -2.1538357444361864], [-48.585478292204634, -2.153284496126278], [-48.5847801473863, -2.1530254689045956], [-48.5843006292883, -2.152837775756413]], [[-48.59241511042692, -2.20936441165987], [-48.58977794286168, -2.20834000081572], [-48.58348779463874, -2.205978849089644]], [[-48.59244780014198, -2.1851716201657148], [-48.59051145128313, -2.1842055991190357]], [[-48.59170646205559, -2.158158722458485], [-48.5902490423366, -2.1576192731477652], [-48.5886106412634, -2.157001450636062], [-48.5866807479559, -2.1562837828640946], [-48.58485663287952, -2.155608874839917], [-48.58358256652839, -2.1551430687988726]], [[-48.59159339596317, -2.2115748548024237], [-48.58314051742363, -2.2083847980871703]], [[-48.589706314987694, -2.1864478958839713], [-48.5913787491512, -2.1873328576114317]], [[-48.590867967478204, -2.160391075969287], [-48.58818585519367, -2.159392993472681], [-48.58764226466083, -2.159190407687866], [-48.58627653468821, -2.158679495685247], [-48.585176429458144, -2.1582683877278357], [-48.5842291103452, -2.157919044621342], [-48.58280929649748, -2.1574033132619066], [-48.58164763913919, -2.1572476539475165], [-48.580557317865726, -2.156602309125855], [-48.5773088578505, -2.1553146436190054], [-48.573806415806764, -2.154012373407215]], [[-48.5907716610158, -2.213794568439764], [-48.58233484303441, -2.210648571367042]], [[-48.5907728958549, -2.14003689903242], [-48.58907574150833, -2.1393953431327635]], [[-48.59050715816919, -2.1891113859334923], [-48.589998182393714, -2.1889540328756176], [-48.58950216760291, -2.1888002582225994], [-48.5883970099293, -2.188472366588457]], [[-48.57772036947432, -2.239549088392224], [-48.57745538256837, -2.239207313317087], [-48.57710099699674, -2.239402620191902], [-48.57661971910525, -2.2396095882624993], [-48.576495660229476, -2.2396924893024215], [-48.576180612483405, -2.239291268546398], [-48.57521507981838, -2.237927294567003], [-48.574805811044165, -2.2374071928148442], [-48.57454672627571, -2.237065428176324], [-48.573748970071726, -2.235948089037436], [-48.573171908083, -2.2351932278427618], [-48.572960075921735, -2.2348248292742925], [-48.57264217171371, -2.234367210991126], [-48.57239487504191, -2.234034371029431], [-48.57237222657467, -2.233452582996896], [-48.57243923329883, -2.2321764051913546], [-48.57244046083062, -2.2314284424027266], [-48.572506745060004, -2.2305915441599242], [-48.572561324026765, -2.229695264107923], [-48.57258141072679, -2.228240921182702], [-48.57258311241169, -2.2272020838083644], [-48.572667660324484, -2.2260209141293115], [-48.57274017205235, -2.224982193890117], [-48.57273107854394, -2.223325970503941], [-48.572827521692034, -2.2220854577480442], [-48.572811059954624, -2.221325592951384], [-48.57288409101055, -2.2199663166431787], [-48.57289776238956, -2.2188206465200615], [-48.57295157785897, -2.218387390430561], [-48.573614691496246, -2.2170350231902294], [-48.575816462887595, -2.212972324682028], [-48.57606804893786, -2.2124829981033494], [-48.57622491101664, -2.212183475514646], [-48.5763164865877, -2.2121153591891156], [-48.57644679426128, -2.211815792839636], [-48.57666873997099, -2.211409524494324], [-48.5768818966747, -2.2109646559221794], [-48.577035788455035, -2.210677000507968], [-48.57726369712597, -2.210232155857877], [-48.577559663737965, -2.2096657295213067], [-48.577713579115375, -2.209363233144365], [-48.57787934437337, -2.20903107484664], [-48.577928279696614, -2.208875328430139], [-48.57798154450438, -2.208778951647535], [-48.57807466230387, -2.2086692836334088], [-48.57821980764254, -2.2083163144176705], [-48.57830104175526, -2.2082570850329253], [-48.57847582861935, -2.2078195726100387], [-48.578628198395734, -2.20756011105055], [-48.57883242233445, -2.2071642004216856], [-48.57905440413644, -2.2067341852332687], [-48.579647872130415, -2.20556126118956], [-48.57976927085636, -2.205295812086125], [-48.57995273967507, -2.2049621974304783], [-48.58026945421029, -2.204334955446337], [-48.580770365660406, -2.2033792933388496], [-48.58084140090125, -2.203240649157069], [-48.58104857800315, -2.2028417735904955], [-48.58156142960091, -2.20179931162765], [-48.581912119917064, -2.2011424418630803], [-48.582455240310246, -2.2000822187987854], [-48.58369846739877, -2.1975791349778446], [-48.585080773119586, -2.194818042977704], [-48.58570236058631, -2.193578368296038], [-48.586202577772475, -2.1925878195712163], [-48.586889271603376, -2.191223585685145], [-48.58722592331219, -2.1905763329907173], [-48.58730500005885, -2.1904814803630326], [-48.587463375613986, -2.1901530144658348], [-48.5875913936952, -2.1898964769267044], [-48.587887362840355, -2.1893196510973376], [-48.58819078127988, -2.188696830676637], [-48.58845267941153, -2.1882075095447737], [-48.58914225481448, -2.186881860707547], [-48.58947387602133, -2.186149262782444], [-48.5899444898051, -2.18521505434791], [-48.590182768052486, -2.1847345979266404], [-48.590342582250074, -2.184427651780479], [-48.590471312509244, -2.1841859548185734]], [[-48.5903975502301, -2.142421431701068], [-48.588192678778704, -2.141575576101264]], [[-48.590035921452554, -2.162632309734272], [-48.588160110776236, -2.1619194538931166], [-48.58590350581119, -2.161059285010499]], [[-48.589323191818885, -2.186278888657319], [-48.58635683686409, -2.1848030709305246]], [[-48.58925365166144, -2.2157935505499764], [-48.583943523356865, -2.213792655502684], [-48.582314269740465, -2.2131763182427964], [-48.581480198613725, -2.212865449483431]], [[-48.58925730568794, -2.191547436050801], [-48.58731153723444, -2.190576645500257]], [[-48.58919507863437, -2.164855188158779], [-48.58659992436389, -2.163899825748295]], [[-48.58852008941568, -2.2003018307809445], [-48.58553718460581, -2.1992154997790143]], [[-48.588236814012085, -2.1883997716685655], [-48.586180352393065, -2.1873623993614095], [-48.58433120527642, -2.1864202292750607]], [[-48.58816294306232, -2.19367838118345], [-48.586208924302454, -2.192707573558249]], [[-48.58803750527628, -2.141537471309111], [-48.58174248499671, -2.1391991676582585], [-48.57959872004108, -2.1383959982860485]], [[-48.587720943821026, -2.202461114801798], [-48.58449422853187, -2.2012534262170913]], [[-48.587184346724264, -2.1905041037508086], [-48.585349272663024, -2.189604642612322], [-48.58399950135739, -2.188924160743157], [-48.58321506431917, -2.1885386807911287]], [[-48.587200801321266, -2.14377397109774], [-48.57871971717436, -2.140608752518065]], [[-48.58709862487603, -2.195814707052284], [-48.585134032474905, -2.194822533628565]], [[-48.586077621520495, -2.1926267240948065], [-48.582148459935574, -2.190635863484506]], [[-48.58605908385781, -2.197933281604802], [-48.584094440942806, -2.1969731217831563]], [[-48.585172213064915, -2.2040613878231077], [-48.58338742643332, -2.203407455585476]], [[-48.585038668756106, -2.1947500431261697], [-48.581093007446704, -2.1927585554305433]], [[-48.58498767061653, -2.2000767026139005], [-48.58301246557722, -2.199088061984641]], [[-48.584386059607034, -2.1452513290017845], [-48.57793124384285, -2.142832295138266]], [[-48.58398612045018, -2.1968946808987693], [-48.57997921141435, -2.1948746262260475]], [[-48.58114019468969, -2.21368897009924], [-48.58148688408834, -2.212775353575956], [-48.581697268243715, -2.212220657382993], [-48.58199660413491, -2.2113960064267406], [-48.582272109536696, -2.210710818419895], [-48.582375881020276, -2.2103993340626635], [-48.58274342207085, -2.2093610878877286], [-48.58309607514702, -2.20840592456681], [-48.58322352645332, -2.2080469882923026], [-48.5836117421129, -2.2069939336891977], [-48.583925806393765, -2.20618117659947]], [[-48.583895074105094, -2.2021951824698047], [-48.58192338921463, -2.20121721628544]], [[-48.58392617198819, -2.165424689522028], [-48.579991148653384, -2.1639773709338694]], [[-48.58337479216865, -2.147399968696173], [-48.582832224031684, -2.1472091444606995], [-48.577111871788986, -2.1450807888667693]], [[-48.58306563961072, -2.208370765073742], [-48.58126222616366, -2.207683881252049]], [[-48.58289818836603, -2.199048743495133], [-48.57887488199681, -2.1969646199686115]], [[-48.5828370885556, -2.204334028483825], [-48.58082446763922, -2.203331503831319]], [[-48.58225882413056, -2.2106275810810962], [-48.57792414727403, -2.209002224137099]], [[-48.581848039973295, -2.201160173696051], [-48.58021084963029, -2.2003558840854693], [-48.57778925048055, -2.1991518773818646]], [[-48.58176110659418, -2.2064535579905056], [-48.579725833488745, -2.205436348093869]], [[-48.58156009167999, -2.16203784635046], [-48.58022496351653, -2.161515146446314], [-48.5759468021554, -2.159918213950404], [-48.57214345168644, -2.1585208000071705]], [[-48.57687342674667, -2.2111218419503755], [-48.578663454192785, -2.211811372352385], [-48.58043231931912, -2.212468850409893], [-48.58143778867851, -2.212849371262765]], [[-48.581083606951594, -2.1484796915900586], [-48.580036841623915, -2.1480891979680807], [-48.57721207200837, -2.147025072155977], [-48.57651916108292, -2.146756835662839]], [[-48.58079076762321, -2.2033000479779177], [-48.57992622355403, -2.202883596615963], [-48.577873338917556, -2.2018269335238236], [-48.57772682145868, -2.201679059111045], [-48.5776474963574, -2.201529515830383], [-48.577594635945154, -2.2014155904893125], [-48.57699806682545, -2.2007564841349736]], [[-48.580772624407224, -2.159144521481079], [-48.57846424891522, -2.1583126619841937], [-48.57697160154803, -2.1577518529670034], [-48.57548365697732, -2.1571934174196934], [-48.57349735901592, -2.1564638182342306], [-48.57296143504615, -2.15625236970626]], [[-48.57870383820089, -2.207622518946717], [-48.58066847054782, -2.2085862549321424]], [[-48.57993242168835, -2.2048840920754658], [-48.57888177866928, -2.2043772124308094], [-48.57822216473391, -2.204070190862123]], [[-48.579850116866716, -2.163920356254949], [-48.5764463944196, -2.162646619951146], [-48.57455176651242, -2.1619502872366865], [-48.57358563982207, -2.1616009073845395], [-48.571326693156664, -2.1607549196660814]], [[-48.579480105170354, -2.1536156534011943], [-48.57460490240566, -2.1517953695265506]], [[-48.57893207170893, -2.2068070465375342], [-48.57460388077843, -2.2051990950604834]], [[-48.57781347905843, -2.2089527380900957], [-48.5742039619117, -2.2075760065512977]], [[-48.57672318467554, -2.2110901709168598], [-48.57238088345043, -2.209462019812044]], [[-48.57558104966378, -2.2132085410355318], [-48.575185218244805, -2.2130632198718887], [-48.57367972000193, -2.2124654616191775]], [[-48.57443890521875, -2.215329278250346], [-48.57173414711924, -2.214283673312125]], [[-48.57287678154596, -2.15624040306331], [-48.56886427406303, -2.1547456465091277]], [[-48.57198830172552, -2.1584684951368005], [-48.56844354537304, -2.157161409199412]], [[-48.571223264848996, -2.160716894672089], [-48.56919701475984, -2.159970659589033]], [[-48.56852949681847, -2.1596856460861984], [-48.56517748656155, -2.158459311884407], [-48.5626999769566, -2.1575183238596964]], [[-48.56821113318021, -2.15836659250674], [-48.56798583757999, -2.1580538972895944], [-48.56787370886331, -2.1575710209431342], [-48.567667334619074, -2.157192103949153], [-48.567526575695204, -2.156964726555873], [-48.56746108073213, -2.156737470249273], [-48.563483839937945, -2.1552640559526814]], [[-48.566358538672084, -2.1538022572620954], [-48.564332284876045, -2.1530678594606942]]]}, "properties": {"id": 9, "Estrada_KM": 2.91, "Pri_Boa_Km": null, "Pri_Pi_Km": null, "Km_Piçarr": null, "PIÇ_ALB_K": null, "S_PI_ALB_K": null, "Rua_Pi_Km": null, "C_Piçar_K": null, "Rua_S_KM_B": null, "S_Piçar_K": null, "layer": "Estrada Principal ADM", "path": "E:/MAT_SOCOCO/TOPOGRAFIA/ARQUIVOS SIG SOCOCO_RAFAEL/SHAPE FAZ-SOCOCO-MOJU/SHAPE FAZ-SOCOCO-MOJU/Shape Adm/Estrada Principal ADM.shp", "KM TOTAL": 301.224}}]}