{"type": "FeatureCollection", "features": [{"type": "Feature", "geometry": {"type": "LineString", "coordinates": [[-48.78343332327163, -2.084428309991839], [-48.810223485289995, -2.083745073446407]]}, "properties": {"INDICE": 122, "NOME": "Trilha 0122", "COR": 0, "ESTILO": 1, "ESCALA": 0.0}}, {"type": "Feature", "geometry": {"type": "LineString", "coordinates": [[-48.63657925047428, -1.965313338409102], [-48.618345611380924, -1.9881182344624408], [-48.60876457091969, -1.9948144710418698]]}, "properties": {"INDICE": 160, "NOME": "R Santana", "COR": 0, "ESTILO": 1, "ESCALA": 0.0}}, {"type": "Feature", "geometry": {"type": "LineString", "coordinates": [[-48.63182975801917, -1.9712537044340683], [-48.62510616410151, -1.99502077064881]]}, "properties": {"INDICE": 161, "NOME": "Trilha 0161", "COR": 0, "ESTILO": 1, "ESCALA": 0.0}}, {"type": "Feature", "geometry": {"type": "LineString", "coordinates": [[-48.62510616410151, -1.99502077064881], [-48.62180640123276, -2.0026386029109347], [-48.606883846963015, -2.01185005032731], [-48.592651056334056, -2.046660369573785], [-48.589987345179196, -2.058070737785767], [-48.58790695377697, -2.060151129188031], [-48.58864995070619, -2.0625287193618855], [-48.58642095991769, -2.0735250739162687], [-48.586058091772856, -2.075810664139621], [-48.5816763916991, -2.0771854738767095], [-48.568291834841474, -2.085264425400751], [-48.558914266990925, -2.0922480507977075], [-48.55254029993915, -2.0962607799557973], [-48.55135150485204, -2.100272963374299], [-48.54363720573866, -2.1066885498827923], [-48.53389743443747, -2.108390367040905], [-48.52985538129309, -2.1081683414377754], [-48.52581695286678, -2.10889719373773], [-48.52416023591162, -2.110805399997705], [-48.522740324595134, -2.1124749659576296], [-48.52227494571391, -2.1150917229553774], [-48.52204913291507, -2.1181829882653913], [-48.52157827762254, -2.119373443915098], [-48.52039518491471, -2.1208043955087414], [-48.51896886853727, -2.1208099729059176], [-48.51778027435243, -2.1208146167162], [-48.51730482547473, -2.120816472204276], [-48.51659442175512, -2.1215324163545444], [-48.51588768502386, -2.1231992526516947], [-48.51685327690702, -2.1269990743079847], [-48.51733792649351, -2.1293744177333], [-48.51508280321288, -2.130215299850826], [-48.51342520284281, -2.131885882676394], [-48.51224951886693, -2.1352186731850304], [-48.51083520241953, -2.1383146895501963], [-48.50752187557652, -2.142131402420734], [-48.50349445791729, -2.145713243616853], [-48.50006553645269, -2.1503625753036224], [-48.49912579733585, -2.153219083721298], [-48.497946469043036, -2.1556010853713428], [-48.49628982956033, -2.157509536135892], [-48.49368975144492, -2.161323626850276], [-48.49013688222637, -2.1646660737469716], [-48.48753024688163, -2.1668161094763883], [-48.48658494434108, -2.168246306039678], [-48.483983004615595, -2.1715850460040875], [-48.48235086822988, -2.1796747249232333]]}, "properties": {"INDICE": 162, "NOME": "Trilha 0162", "COR": 0, "ESTILO": 1, "ESCALA": 0.0}}, {"type": "Feature", "geometry": {"type": "LineString", "coordinates": [[-48.71692544274077, -2.0787850798248666], [-48.68228728693232, -2.090441895983159], [-48.67905845507485, -2.0915071438754507], [-48.67689056767896, -2.0923968795228496], [-48.67557547858846, -2.092938386795476], [-48.67441510586156, -2.093131782250012], [-48.67316961186286, -2.093608556806172], [-48.67182923434198, -2.094140786894908], [-48.671013283483916, -2.09478365726794], [-48.66968316708173, -2.0966919647428566], [-48.66872720897979, -2.097820352911575], [-48.6677175277825, -2.099088943068244], [-48.66505591694204, -2.1027819470717897], [-48.66336213016406, -2.105003903920302], [-48.6615933791244, -2.1074610249370282], [-48.656797454084966, -2.1230222710737574]]}, "properties": {"INDICE": 163, "NOME": "Trilha 0163", "COR": 0, "ESTILO": 1, "ESCALA": 0.0}}, {"type": "Feature", "geometry": {"type": "LineString", "coordinates": [[-48.80659924663567, -2.09024012775527], [-48.81452182571666, -2.0718238802407005], [-48.82313461803744, -2.0528574120461553], [-48.82258486533625, -2.0507500266912686], [-48.822005980233165, -2.0504324312472706], [-48.81974447637977, -2.049284019487996], [-48.81734681808723, -2.0477950790734485], [-48.81600127643648, -2.045262294789473], [-48.813389342643816, -2.0401967262215], [-48.81085655835999, -2.036397549795547], [-48.80959016621815, -2.032519223860653], [-48.808877820638685, -2.023971076902019], [-48.809055966395846, -2.022217717406628], [-48.809514093647046, -2.0197438302508397], [-48.809422468197084, -2.0142463032380427], [-48.80988059544825, -2.0121389178831297], [-48.81033872269953, -2.0073743944720057], [-48.81006384634914, -2.0020601183596676], [-48.806123951990465, -1.9926226969878873], [-48.80255055943254, -1.9850177846203587], [-48.80346681393507, -1.9760384904994268], [-48.805482573840216, -1.9655015637247917], [-48.80511607203949, -1.963119302019275], [-48.80419981753744, -1.9614700439154793], [-48.78798211285071, -1.9452523392285128], [-48.78028557503332, -1.9369144232594828], [-48.77387179351877, -1.9308671435457225], [-48.77148953181339, -1.9281183800394415], [-48.77029840096074, -1.9258277437841718], [-48.769473771909006, -1.9224376021263139], [-48.76956539735939, -1.9184060823169298], [-48.76864914285795, -1.903379508481992], [-48.76846589195753, -1.9032878830317943], [-48.76855751740776, -1.90319625758158]]}, "properties": {"INDICE": 700, "NOME": "PA475", "COR": 0, "ESTILO": 1, "ESCALA": 0.0}}, {"type": "Feature", "geometry": {"type": "LineString", "coordinates": [[-48.778639587036004, -2.306361213141618], [-48.7772136316225, -2.311489257865681], [-48.76563749530562, -2.355200530910641], [-48.75825561305007, -2.379113327474101], [-48.74308561511566, -2.415001976530238], [-48.7453406157515, -2.4502489453951686], [-48.74534527123961, -2.451292970575709]]}, "properties": {"INDICE": 888, "NOME": "PA475", "COR": 0, "ESTILO": 1, "ESCALA": 0.0}}, {"type": "Feature", "geometry": {"type": "LineString", "coordinates": [[-48.42436884244268, -1.9828074070719262], [-48.43381269939322, -1.9808113915708556], [-48.46266354122443, -1.9707207148878252], [-48.471584644549424, -1.9722931036461824], [-48.501318103854096, -1.960239110358869], [-48.5139159829985, -1.9569511877126549]]}, "properties": {"INDICE": 889, "NOME": "PA252", "COR": 0, "ESTILO": 1, "ESCALA": 0.0}}, {"type": "Feature", "geometry": {"type": "LineString", "coordinates": [[-48.513915498847936, -1.9567188343951287], [-48.5200212029798, -1.9551253338851784], [-48.53715577795939, -1.9604122086558624], [-48.54072590062096, -1.9616473140911315], [-48.54464556669869, -1.9609200183081037], [-48.55658139106984, -1.958380978284284], [-48.56050601952107, -1.959079929724889], [-48.569445235480906, -1.966178697380694], [-48.56953778212725, -1.9730834856678834], [-48.57535142372497, -1.9790559053117223], [-48.57946618349645, -1.9766604787862674], [-48.58339259252877, -1.9778940826598483], [-48.58945626358295, -1.9785850644378813], [-48.5942745878526, -1.9799936422548494], [-48.600331037940975, -1.988538355186444], [-48.60876457091969, -1.9948144710418698], [-48.61341743859342, -1.99618105216669], [-48.63906037050456, -1.9990566481748575], [-48.643259866140944, -1.9975012794204512], [-48.64683721427561, -1.9964125212923214], [-48.649792414908404, -1.9998343325514505], [-48.6530586892921, -2.001856311931765], [-48.657880332430025, -2.002789533184054], [-48.674056167473466, -2.00465597568832], [-48.68539934495322, -2.005544212902311], [-48.69221705600833, -2.009253849799783], [-48.69773138112638, -2.0138658308075637], [-48.70093971574042, -2.0184778118154805], [-48.70525091537803, -2.0243931787603984], [-48.70946185455895, -2.0309101084455], [-48.710163677755595, -2.0361236521937007], [-48.7140896126419, -2.046773098632767], [-48.71408961264161, -2.0531040815876453], [-48.71615116217199, -2.072644234786572], [-48.71692544274075, -2.07885364121808], [-48.71755950000643, -2.08325346631413], [-48.72378748607288, -2.0860007650101977], [-48.741656496000346, -2.092963115241368], [-48.74587647131361, -2.098571628152042], [-48.7736561624996, -2.100490952269034], [-48.77498569848024, -2.100886167808474], [-48.77631150370109, -2.101562599043572], [-48.778827827895746, -2.1029966332619674], [-48.779787487653344, -2.1031135307258118], [-48.783232923971106, -2.1025184099071224], [-48.78758670259086, -2.101610067604944], [-48.79829887732433, -2.099135617885278], [-48.80092993778517, -2.098477852769925], [-48.80233943446064, -2.0979453762480116], [-48.80321645461427, -2.0972876111327676], [-48.804030830471234, -2.096441913127434], [-48.804688595586505, -2.095282993638685], [-48.80531503855345, -2.093560275479769], [-48.806599246635656, -2.090208805606924], [-48.80666189093235, -2.0902088056069306], [-48.80656792448732, -2.090302772051964]]}, "properties": {"INDICE": 890, "NOME": "PA252", "COR": 0, "ESTILO": 1, "ESCALA": 0.0}}, {"type": "Feature", "geometry": {"type": "LineString", "coordinates": [[-48.80584751507534, -2.0922134231009655], [-48.806317347300386, -2.0945312620783687], [-48.80856842397641, -2.1083406252273194], [-48.81058418388058, -2.1186943011013164], [-48.807285667671934, -2.1409592855032966], [-48.8052125367903, -2.1547999489840683], [-48.80249135492645, -2.177295052383763], [-48.799770173062576, -2.2005158042801987], [-48.795070197931324, -2.2356032024611254], [-48.79129003103682, -2.2683040356170165], [-48.78406062391603, -2.286867669649806], [-48.77882384899524, -2.305698583045544]]}, "properties": {"INDICE": 1014, "NOME": "PA475", "COR": 0, "ESTILO": 1, "ESCALA": 0.0}}, {"type": "Feature", "geometry": {"type": "LineString", "coordinates": [[-48.5440985599913, -2.0655103165110975], [-48.54255187725966, -2.063249915186188], [-48.540886201718635, -2.0593237377249016], [-48.539577505917116, -2.056349412643804], [-48.53862570285271, -2.054445781468789], [-48.53767393242882, -2.0536129910271432], [-48.536603131747285, -2.0530181752962506], [-48.53684112894228, -2.050995553010594], [-48.537554944837325, -2.049092003690261], [-48.53755497007002, -2.047902248613567], [-48.536722135910765, -2.0448089493400237], [-48.53565133774417, -2.0405259103340803], [-48.5360082222954, -2.039098208884205], [-48.53660309610169, -2.0376705649032787], [-48.53660310444782, -2.035766945125706], [-48.5374358789598, -2.033982368010165], [-48.539101538864145, -2.0331495543391034], [-48.54148100670957, -2.0324356526470355], [-48.54362255733986, -2.031483879370752], [-48.545050177682306, -2.028628532377935], [-48.545288117025216, -2.026724897257628], [-48.54457429704804, -2.022917776586024], [-48.54362252161402, -2.0205382987047678], [-48.54183789691401, -2.0193485640806452], [-48.53933947961657, -2.0182778044004603], [-48.537435823496075, -2.016969082998943], [-48.53541332412512, -2.015184529857002], [-48.53220100764246, -2.0128050593878997], [-48.52993074668954, -2.0110393381804905], [-48.528988661651766, -2.010306601742917], [-48.52696611551529, -2.0075702386746803], [-48.52375383542268, -2.0029302596986587], [-48.521374313098754, -2.0003128266782917], [-48.51863791767372, -1.9981713143297377], [-48.51637744096398, -1.9955539391521586], [-48.51292715445454, -1.9946021113945214], [-48.5022195494202, -1.9911518973015931], [-48.49746052974177, -1.9891293786260507], [-48.491868785643305, -1.9909140440561814], [-48.48990337030757, -1.9915975785406301]]}, "properties": {"INDICE": 0, "NOME": "Ramal M F", "COR": 0, "ESTILO": 0, "ESCALA": 0.0}}, {"type": "Feature", "geometry": {"type": "LineString", "coordinates": [[-48.4982934768771, -2.0182779392259222], [-48.497936564249194, -2.0155415123799933], [-48.49793654507321, -2.014113899457099], [-48.49627090883861, -2.0087600942836192], [-48.49424834240337, -2.0042390838849156], [-48.494010332451275, -2.002335450262997], [-48.49282062916341, -2.000907826647975], [-48.49258269280247, -1.9992421673481775], [-48.49151188680273, -1.9969816623289327], [-48.49151186573524, -1.9949591135828804], [-48.490441091166474, -1.9934125024075], [-48.48996523838104, -1.9917468438760086], [-48.48990337030757, -1.9915975785406301], [-48.48651492818296, -1.9834187294396561], [-48.481997831906476, -1.9680715804231534]]}, "properties": {"INDICE": 0, "NOME": "", "COR": 0, "ESTILO": 0, "ESCALA": 0.0}}]}