{"type": "FeatureCollection", "features": [{"type": "Feature", "properties": {"id": 281, "Parcela": "O-131", "ANO": 2001, "Ha": 13.53, "PLANTAS": 2081, "VARIEDADE": "PB-121", "Rot_labels": -35}, "geometry": {"type": "Polygon", "coordinates": [[[-48.642143259716434, -2.080478344599027], [-48.642167559343825, -2.0802986805555483], [-48.635339248619594, -2.075310574460956], [-48.63462638344618, -2.076258708348438], [-48.635516606300996, -2.0770280929734537], [-48.63568706734711, -2.077130734495307], [-48.63607683650715, -2.077371864314056], [-48.63631256859718, -2.0775887079624717], [-48.63663447644912, -2.0778382254580947], [-48.63718791237313, -2.0782805261284065], [-48.63859421376862, -2.0793240543773783], [-48.639377891553124, -2.0798756542462202], [-48.63961083585903, -2.080067024818789], [-48.64023084340799, -2.0804202837955565], [-48.640774444215566, -2.080867735523828], [-48.640994593189426, -2.081065241754683], [-48.64121483112319, -2.0812466886367647], [-48.64139989206141, -2.0814109276950385], [-48.6414791073146, -2.0812824604747906], [-48.642143259716434, -2.080478344599027]]]}}, {"type": "Feature", "properties": {"id": 282, "Parcela": "O-132", "ANO": 2001, "Ha": 24.26, "PLANTAS": 3767, "VARIEDADE": "PB-121", "Rot_labels": -35}, "geometry": {"type": "Polygon", "coordinates": [[[-48.64225235815113, -2.0803072978613844], [-48.64359033909529, -2.078522744259193], [-48.64358386460177, -2.078447203309604], [-48.64302471084405, -2.0780445132569567], [-48.63752370666386, -2.0739866265167786], [-48.63676122327519, -2.073442136440178], [-48.63645536959654, -2.0737982467118647], [-48.6360955984457, -2.0742901117865475], [-48.6356551819005, -2.0748964815715727], [-48.6354978638666, -2.0751098889938002], [-48.63536756139386, -2.0752823178914923], [-48.64225235815113, -2.0803072978613844]]]}}, {"type": "Feature", "properties": {"id": 283, "Parcela": "O-133", "ANO": 2001, "Ha": 24.93, "PLANTAS": 3857, "VARIEDADE": "PB-121", "Rot_labels": -35}, "geometry": {"type": "Polygon", "coordinates": [[[-48.644987445888354, -2.0765942869624], [-48.64497203048613, -2.07650512085967], [-48.63807882646806, -2.0714178910204395], [-48.63797401464738, -2.0715592298997203], [-48.637900401786574, -2.071632697435814], [-48.6378207397398, -2.071686368995426], [-48.63778678855494, -2.0717540868031072], [-48.637741554125476, -2.0718217876768845], [-48.63767373629824, -2.0719007494477655], [-48.637588959774185, -2.0720022753373106], [-48.63753244208417, -2.072069959254201], [-48.63750976564801, -2.072143341347908], [-48.63748714841748, -2.0721771917683802], [-48.63742498063343, -2.0722505145829446], [-48.63741931363589, -2.072267448258774], [-48.637351504223545, -2.072340762594548], [-48.637306218982104, -2.0724423476998424], [-48.63726097603346, -2.0725156958943267], [-48.6372355591298, -2.072535423613002], [-48.637212941882645, -2.072569274016404], [-48.63716771584571, -2.0726313274387325], [-48.637105539557, -2.0727102975832237], [-48.63704894140935, -2.07283163153734], [-48.63696976406705, -2.0729614026593874], [-48.63698377501654, -2.0730235450140575], [-48.63696964557263, -2.073040465970703], [-48.63675854897525, -2.0733402553240627], [-48.64003712497608, -2.0757534440143566], [-48.640517153401, -2.0761333750928723], [-48.64169473662475, -2.076998271643029], [-48.6425843019562, -2.0776363417746455], [-48.64319990733676, -2.078098545037179], [-48.64366871853972, -2.078419031380507], [-48.644987445888354, -2.0765942869624]]]}}, {"type": "Feature", "properties": {"id": 284, "Parcela": "O-134", "ANO": 2001, "Ha": 25.1, "PLANTAS": 3871, "VARIEDADE": "PB-121", "Rot_labels": -35}, "geometry": {"type": "Polygon", "coordinates": [[[-48.63804125324759, -2.071359150822099], [-48.64505259507431, -2.07650948654658], [-48.646423645928905, -2.0746664210600194], [-48.64501393883661, -2.0736002520124135], [-48.64082953236571, -2.070472573762374], [-48.64002745101189, -2.0699393463330447], [-48.63943747838337, -2.0695258387377717], [-48.63936694971515, -2.0695313805066076], [-48.63920859607615, -2.0697909237779757], [-48.6389570543124, -2.0701180961464773], [-48.638677236740605, -2.070490405167128], [-48.63847651995358, -2.0707837690093065], [-48.638363472102235, -2.0709276081634505], [-48.63826449869214, -2.071091234282432], [-48.63804125324759, -2.071359150822099]]]}}, {"type": "Feature", "properties": {"id": 294, "Parcela": "P-131", "ANO": 2001, "Ha": 20.63, "PLANTAS": 3194, "VARIEDADE": "PB-121", "Rot_labels": -35}, "geometry": {"type": "MultiPolygon", "coordinates": [[[[-48.647757076372, -2.0726979428959904], [-48.641514906118616, -2.0687020643435385], [-48.64111284263668, -2.069120292273954], [-48.64096960878093, -2.069240114851972], [-48.64089624237317, -2.0692569472794964], [-48.64078909370884, -2.069228549880282], [-48.64067632873909, -2.0691832018508354], [-48.64055218775084, -2.069199958267283], [-48.640512654220736, -2.0692281361268763], [-48.64043277739809, -2.0692296416594034], [-48.64034519448706, -2.0691927215100576], [-48.640198172136024, -2.0692038211323425], [-48.63986747337437, -2.069160877157811], [-48.639760050588094, -2.0691578863982425], [-48.63966077383546, -2.069224037091481], [-48.63956208262258, -2.069208528632725], [-48.63943217438207, -2.0692999347100614], [-48.63938698658165, -2.0693365751509014], [-48.63938691905871, -2.0693817542650663], [-48.646453435644624, -2.0745957171737155], [-48.64705963300118, -2.0737872615074], [-48.64767192175179, -2.0730028518261845], [-48.6477850414857, -2.0728110081046403], [-48.647757076372, -2.0726979428959904]]], [[[-48.64074304062215, -2.0682856177377156], [-48.64029823816002, -2.0679807351465933], [-48.63986476926853, -2.0686055001838226], [-48.639912777983746, -2.0686395311511996], [-48.640203995501906, -2.06861732759761], [-48.64036230899663, -2.0686175645162423], [-48.64040640812249, -2.0685954676136777], [-48.640430379505105, -2.0684690952183113], [-48.64047708460633, -2.068429546125421], [-48.64056328357199, -2.068446654661795], [-48.64062404563859, -2.0684594802464837], [-48.640727126498874, -2.0685303826584964], [-48.64087862597227, -2.0683608136521583], [-48.64074304062215, -2.0682856177377156]]]]}}, {"type": "Feature", "properties": {"id": 292, "Parcela": "P-123(1)", "ANO": 2002, "Ha": 23.62, "PLANTAS": 3520, "VARIEDADE": "PB-123", "Rot_labels": 17}, "geometry": {"type": "Polygon", "coordinates": [[[-48.655129689262175, -2.062815543151227], [-48.656821092687686, -2.062257718347176], [-48.656798668748, -2.0621275069585896], [-48.66369992013928, -2.0599416553090384], [-48.663095475978444, -2.058009306848771], [-48.654445080661986, -2.0606198973664416], [-48.655129689262175, -2.062815543151227]]]}}, {"type": "Feature", "properties": {"id": 293, "Parcela": "P-124", "ANO": 2002, "Ha": 25.77, "PLANTAS": 3878, "VARIEDADE": "PB-123", "Rot_labels": 17}, "geometry": {"type": "Polygon", "coordinates": [[[-48.6623538237542, -2.0557810256497877], [-48.65378409392607, -2.058340804784161], [-48.65445221103583, -2.0605774586010637], [-48.66309978734763, -2.057961203665915], [-48.6623538237542, -2.0557810256497877]]]}}, {"type": "Feature", "properties": {"id": 297, "Parcela": "P-134(1)", "ANO": 2002, "Ha": 19.29, "PLANTAS": 2861, "VARIEDADE": "PB-123", "Rot_labels": 17}, "geometry": {"type": "Polygon", "coordinates": [[[-48.65371618025297, -2.058384568517545], [-48.647957747206924, -2.0601305960574687], [-48.64775299318032, -2.0603095215205744], [-48.64761990520323, -2.060562848364142], [-48.64758016254065, -2.0607322497020153], [-48.64755171571193, -2.060893159323206], [-48.64752590535949, -2.061178316425533], [-48.64753694982143, -2.0613392847414747], [-48.64750850709771, -2.061497370633313], [-48.6474801565307, -2.0615933348726574], [-48.64745176405219, -2.0617175362186053], [-48.64746852130926, -2.0618305098311973], [-48.647479645316906, -2.0619378276341696], [-48.64743438660119, -2.0620224718465803], [-48.64743980191001, -2.062174960635171], [-48.64740863885167, -2.0622652732369837], [-48.64738589211393, -2.06238665924266], [-48.647508687438325, -2.0626610973881543], [-48.6543668592683, -2.060584407016751], [-48.65371618025297, -2.058384568517545]]]}}, {"type": "Feature", "properties": {"id": 296, "Parcela": "P-133(1)", "ANO": 2002, "Ha": 21.34, "PLANTAS": 3149, "VARIEDADE": "PB-123", "Rot_labels": 17}, "geometry": {"type": "Polygon", "coordinates": [[[-48.65504485692518, -2.0628295671320913], [-48.65440831657083, -2.0606283327555537], [-48.64756754502147, -2.06267979355823], [-48.64751931743885, -2.062792919466114], [-48.647462510732915, -2.0630291689122244], [-48.64744784476258, -2.0634075252129964], [-48.647447333091556, -2.063752017966482], [-48.64739771061764, -2.0641313006713733], [-48.64745494132334, -2.064261563168475], [-48.64745463857386, -2.064465318483764], [-48.64765238799977, -2.0645618309292693], [-48.647980046543736, -2.064749094941331], [-48.6482060244083, -2.064873948851055], [-48.6483473762252, -2.0648741592880264], [-48.648760316971014, -2.06474459656212], [-48.65504485692518, -2.0628295671320913]]]}}, {"type": "Feature", "properties": {"id": 310, "Parcela": "Q-123", "ANO": 2009, "Ha": 20.11, "PLANTAS": 2999, "VARIEDADE": "PB-123", "Rot_labels": 17}, "geometry": {"type": "Polygon", "coordinates": [[[-48.66039705831412, -2.048930844320073], [-48.65426182826269, -2.0507431722118414], [-48.6542560324071, -2.0509071018873493], [-48.65422204141668, -2.051003058607082], [-48.65422754170728, -2.051099073574975], [-48.65422741700579, -2.0511837853217663], [-48.65422725904317, -2.0512910868677046], [-48.65419321812937, -2.0514209282734113], [-48.65414207772734, -2.051669341138384], [-48.65405141269066, -2.05194028549964], [-48.654034321493064, -2.0520532095018993], [-48.65400596368887, -2.0521548219495265], [-48.65395499781493, -2.0522846383260154], [-48.65397742285417, -2.0523806782654788], [-48.653977198223465, -2.0525331593822713], [-48.653937548818014, -2.052640402605387], [-48.653875316287596, -2.0527589073990824], [-48.65377360906155, -2.0528660589695793], [-48.65366049374049, -2.05305790556723], [-48.653632152476284, -2.0531482230657545], [-48.653640168954794, -2.0533796827993926], [-48.65580098585384, -2.0527263227782497], [-48.66107659298745, -2.051106288233632], [-48.66039705831412, -2.048930844320073]]]}}, {"type": "Feature", "properties": {"id": 344, "Parcela": "P-123(2)", "ANO": 2003, "Ha": 17.81, "PLANTAS": 2913, "VARIEDADE": "PB-132", "Rot_labels": -35}, "geometry": {"type": "Polygon", "coordinates": [[[-48.656484186592024, -2.0749417891068025], [-48.65647647147251, -2.0748165683260407], [-48.65475756650828, -2.07357920086606], [-48.655033531205056, -2.0730438071451522], [-48.654401015352, -2.0725410189422613], [-48.65433590805774, -2.0732314309872657], [-48.65289447226286, -2.0722593771910836], [-48.65277029282858, -2.0722593538396366], [-48.652674535511096, -2.0721575568349677], [-48.65266898627496, -2.0720954265441747], [-48.65267472039888, -2.072033313078528], [-48.65268042930911, -2.0719881419428874], [-48.65270306326046, -2.0719429960424556], [-48.65275393082299, -2.0718809498665585], [-48.65282173182595, -2.0718132814732533], [-48.65288953282311, -2.0717456130704455], [-48.65292849358933, -2.071652105240907], [-48.652853363584356, -2.071478422842149], [-48.653142625465236, -2.071282982539659], [-48.65041275946186, -2.069294175609184], [-48.64991513006353, -2.0699923299968295], [-48.64968710654312, -2.0703176425739347], [-48.64909337940781, -2.0711584540860133], [-48.6493701351776, -2.0713569633485247], [-48.655814685685016, -2.0759341226804477], [-48.65615621965643, -2.0754439249949623], [-48.65627371588989, -2.0752329775610274], [-48.656484186592024, -2.0749417891068025]]]}}, {"type": "Feature", "properties": {"id": 346, "Parcela": "P-133(2)", "ANO": 2003, "Ha": 15.88, "PLANTAS": 2448, "VARIEDADE": "PB-132", "Rot_labels": -35}, "geometry": {"type": "Polygon", "coordinates": [[[-48.65037388468697, -2.0692491507491924], [-48.64629609380541, -2.0662471053394498], [-48.645762707568466, -2.0666871294130766], [-48.645313887457164, -2.0668638025777066], [-48.64497076167419, -2.0669387555408485], [-48.64491377663639, -2.0669051550614093], [-48.6448348274437, -2.0668824475439598], [-48.644812218865496, -2.066910650923274], [-48.6447556847983, -2.066989630482941], [-48.64472171724752, -2.0670686437166537], [-48.64468779175148, -2.067119419891131], [-48.64465383260152, -2.067192785705561], [-48.644631131468806, -2.067283110591238], [-48.6445915727416, -2.067328230922537], [-48.6445464985853, -2.0672886316724983], [-48.64446752416476, -2.067282866350898], [-48.644422273321716, -2.067361862709148], [-48.644337589957914, -2.067401268230561], [-48.64421921930473, -2.067585453012764], [-48.64893521643366, -2.0710563399872197], [-48.64906096073742, -2.071096382741866], [-48.65037388468697, -2.0692491507491924]]]}}, {"type": "Feature", "properties": {"id": 325, "Parcela": "S-141", "ANO": 2009, "Ha": 19.02, "PLANTAS": 2889, "VARIEDADE": "PB-141", "Rot_labels": 60}, "geometry": {"type": "Polygon", "coordinates": [[[-48.65228460471265, -2.0438639893194743], [-48.64963245063634, -2.0482247994101566], [-48.64967011204467, -2.048244537253662], [-48.64975770349815, -2.0482757959312496], [-48.6499018059881, -2.048326947630542], [-48.65002899228116, -2.048346944953249], [-48.6511656349015, -2.0487037805031694], [-48.65175269506396, -2.0488758584457547], [-48.65196132176363, -2.0488693390630783], [-48.65286862469778, -2.0474596980923696], [-48.65320592964534, -2.04685458511897], [-48.65384924161618, -2.0457801498250214], [-48.6538832738252, -2.0457066210949644], [-48.655254795036946, -2.0434956122745196], [-48.655283239393796, -2.043376795864838], [-48.65507422302188, -2.043251970742379], [-48.65476626546487, -2.043124170330095], [-48.654359362664025, -2.0429962245489204], [-48.65312457421845, -2.0425755769531935], [-48.65228460471265, -2.0438639893194743]]]}}, {"type": "Feature", "properties": {"id": 326, "Parcela": "S-142", "ANO": 2009, "Ha": 19.2, "PLANTAS": 2939, "VARIEDADE": "PB-141", "Rot_labels": 60}, "geometry": {"type": "Polygon", "coordinates": [[[-48.65016509087532, -2.042795547933431], [-48.64733627215275, -2.0473807890079474], [-48.64735022783614, -2.0475024970746705], [-48.64955429427178, -2.0481835224882574], [-48.65012461546095, -2.047310639577093], [-48.65091066480507, -2.046041122840638], [-48.65127157319113, -2.0453914816483048], [-48.652226573505914, -2.0438279251427316], [-48.652954987036544, -2.042552688090979], [-48.65263135493734, -2.042356577856317], [-48.65149702498513, -2.042024174021695], [-48.65115622664154, -2.041899036157157], [-48.65094333924323, -2.041705848996028], [-48.650816268949704, -2.04169745473837], [-48.65073007252287, -2.041771194657961], [-48.65047562479787, -2.0419636945032362], [-48.650360684148424, -2.042070221710356], [-48.65036830463974, -2.042464188399436], [-48.65033945798855, -2.0425667385275257], [-48.65022172214512, -2.0426572875270823], [-48.65019904806351, -2.0427306709540045], [-48.65016509087532, -2.042795547933431]]]}}, {"type": "Feature", "properties": {"id": 327, "Parcela": "S-143", "ANO": 2009, "Ha": 16.41, "PLANTAS": 2545, "VARIEDADE": "PB-141", "Rot_labels": 60}, "geometry": {"type": "Polygon", "coordinates": [[[-48.64843440940047, -2.0446062361393404], [-48.648508094573394, -2.0444818272522687], [-48.64918760614825, -2.0438191384019753], [-48.64919918812032, -2.0436158475665596], [-48.64917674792386, -2.043475352386278], [-48.64921639247266, -2.0434301316589845], [-48.649369191886294, -2.0433341385539596], [-48.64934640001064, -2.043254628085938], [-48.649374823593405, -2.0431078364411], [-48.64941488961002, -2.043017251999247], [-48.64954508128071, -2.042915565643671], [-48.64970839770947, -2.042616999963837], [-48.64970858018936, -2.0424927564730484], [-48.649625076937156, -2.042344034419349], [-48.64815900861498, -2.041563641970314], [-48.647191556225245, -2.0430933254582033], [-48.646416776660274, -2.0443741501032644], [-48.645981328914296, -2.0450850836779098], [-48.645540189059375, -2.0458298928428436], [-48.64537696771567, -2.0460704635819535], [-48.64493517680556, -2.0467551768472516], [-48.64501894946714, -2.046822697744934], [-48.64708175845775, -2.047437011942026], [-48.647286735668125, -2.047419400014124], [-48.64750648446479, -2.0469791887094293], [-48.6484472911339, -2.0454580680007086], [-48.64937352883113, -2.0439888355269344], [-48.64970547190597, -2.0434251919711484], [-48.650148282253845, -2.0427249488006516], [-48.650154097982586, -2.0426063610054577], [-48.65009408460345, -2.0425315010469136], [-48.64993992581247, -2.042464859714081], [-48.6499060100734, -2.0425099893594547], [-48.64987203627348, -2.042594651026364], [-48.64984937877468, -2.042656739566902], [-48.64979846367432, -2.042752671178364], [-48.64971361621088, -2.0429050272696965], [-48.64969655047822, -2.043001008688869], [-48.64958724098615, -2.043082594487493], [-48.649498713989956, -2.043260499806016], [-48.64949858951513, -2.0433452112641914], [-48.64948723999326, -2.043390374093902], [-48.64943643269927, -2.0434128890481684], [-48.64939123377453, -2.0434580020274815], [-48.64934036008191, -2.043525696413861], [-48.6492950781483, -2.0436272836808103], [-48.649272345868624, -2.0437401990371775], [-48.64930047899546, -2.0437910674521933], [-48.6492946963075, -2.0438870654476857], [-48.64868336862109, -2.044482085583231], [-48.64843440940047, -2.0446062361393404]]]}}, {"type": "Feature", "properties": {"id": 328, "Parcela": "S-144", "ANO": 2009, "Ha": 18.03, "PLANTAS": 2852, "VARIEDADE": "PB-141", "Rot_labels": 60}, "geometry": {"type": "Polygon", "coordinates": [[[-48.646072823148344, -2.040414795074485], [-48.6425892692896, -2.046088137103017], [-48.64487555864455, -2.046768717054649], [-48.647989107452574, -2.0416713466226595], [-48.647949786076076, -2.041580313624577], [-48.647859413728426, -2.041517921855744], [-48.64759954651136, -2.0413703823085987], [-48.64739614438441, -2.04127386484434], [-48.64719839628929, -2.041177355707156], [-48.64709102880896, -2.0411375784549555], [-48.6469555078567, -2.0410185214259693], [-48.64675781808043, -2.040882393232185], [-48.64663640495735, -2.0408052976073487], [-48.64657456370685, -2.0406583733460093], [-48.64651819804514, -2.0406244057694787], [-48.646473132071975, -2.040579159970523], [-48.64639436619781, -2.040432210811679], [-48.64634367528325, -2.0403756618779516], [-48.64627038501056, -2.040341669391602], [-48.64620824506193, -2.04039805219244], [-48.64615178814444, -2.0404262062084695], [-48.646072823148344, -2.040414795074485]]]}}, {"type": "Feature", "properties": {"id": 329, "Parcela": "S-151", "ANO": 2009, "Ha": 13.93, "PLANTAS": 2143, "VARIEDADE": "PB-141", "Rot_labels": 60}, "geometry": {"type": "Polygon", "coordinates": [[[-48.641018824365304, -2.0456030227907864], [-48.642080161820545, -2.0459467336172783], [-48.64238531807676, -2.0460547222868617], [-48.64250406840337, -2.0460435781784643], [-48.64258664435978, -2.045955418976415], [-48.64610973382058, -2.040251073986252], [-48.64610418355408, -2.0401889440959415], [-48.64605919228162, -2.0400928715642777], [-48.64598026049547, -2.040058870780662], [-48.64588439579835, -2.0400304924938073], [-48.64582243843299, -2.0399626321355573], [-48.64567577500815, -2.0399511213341497], [-48.64560583715481, -2.0399071981817416], [-48.64554051915381, -2.0398549159201074], [-48.64546722895175, -2.0398209234441653], [-48.64531475806011, -2.039922352590374], [-48.64522430256747, -2.0400521101621636], [-48.64511706355633, -2.0400858367672594], [-48.64502660803605, -2.0402155942986737], [-48.644953110315996, -2.040322787092973], [-48.64489082923274, -2.0404751757896884], [-48.64489066316686, -2.0405881240248416], [-48.644839781375886, -2.0406614655646558], [-48.64478320821275, -2.040768683252243], [-48.64459674676605, -2.0409660682725805], [-48.644506299412434, -2.0410901782582687], [-48.64446106742108, -2.041157880653119], [-48.6444496098842, -2.0412764596301622], [-48.64447199326157, -2.041400735917201], [-48.64447750186513, -2.041491102795262], [-48.64433639691147, -2.041536074132421], [-48.64426880646699, -2.0414625579953163], [-48.64418990802432, -2.0414059674534624], [-48.64415609204472, -2.041417125302752], [-48.64357002876824, -2.040970115006171], [-48.64345712329665, -2.0409869779122003], [-48.64338930023666, -2.0410715891689657], [-48.64333282672477, -2.0411110378114], [-48.64321998774846, -2.041116518816455], [-48.643146639509226, -2.041122058056607], [-48.64309017431022, -2.0411558592770778], [-48.64292072882818, -2.0412911473322555], [-48.6427454921281, -2.0415280802671676], [-48.64257598005411, -2.0417085474250154], [-48.642468508162466, -2.041900400911815], [-48.64242291840031, -2.0422109413951772], [-48.64242259394816, -2.0424311900607126], [-48.64242245250933, -2.042527195889274], [-48.642326280155366, -2.0427077711383026], [-48.64223569936412, -2.0429222390929085], [-48.64221293347676, -2.0430577433883292], [-48.64215637662214, -2.043153665880577], [-48.64203207970389, -2.043277725367609], [-48.64198667268984, -2.04346402289791], [-48.64191879108485, -2.0435881656784938], [-48.641828301679794, -2.043740512097621], [-48.64180542740956, -2.043949432523035], [-48.641760053583106, -2.0441131403985597], [-48.64174297904475, -2.0442147685659724], [-48.641578799631176, -2.04460419723199], [-48.64152794246585, -2.0446605961493907], [-48.64144321940023, -2.044728239809732], [-48.64122829923961, -2.045095003621322], [-48.641018824365304, -2.0456030227907864]]]}}, {"type": "Feature", "properties": {"id": 298, "Parcela": "P-141", "ANO": 2007, "Ha": 23.86, "PLANTAS": 4834, "VARIEDADE": "AVeBr", "Rot_labels": 60}, "geometry": {"type": "Polygon", "coordinates": [[[-48.64397428197265, -2.0574291141391328], [-48.64164551222465, -2.061209314267236], [-48.64230087519603, -2.0615498825012213], [-48.641297558734195, -2.0632633238510487], [-48.64067616251287, -2.0628945060454456], [-48.63923731143944, -2.065212506522941], [-48.64118552393227, -2.066407654282281], [-48.6449942980843, -2.0601403406625076], [-48.64477113776544, -2.0600225663833527], [-48.64452530883418, -2.059940132580222], [-48.644573515203525, -2.0598411565544055], [-48.64429133836593, -2.0594869949615116], [-48.64428005969543, -2.0594671686428763], [-48.64433942288561, -2.0594700868722535], [-48.64449745031651, -2.0596627574950563], [-48.644680927258236, -2.059851221096783], [-48.64496616892539, -2.0598865478857316], [-48.6450567235719, -2.0599847870184553], [-48.64596131793908, -2.0586412864818184], [-48.64397428197265, -2.0574291141391328]]]}}, {"type": "Feature", "properties": {"id": 299, "Parcela": "P-142", "ANO": 2007, "Ha": 20.79, "PLANTAS": 4237, "VARIEDADE": "AVeBr", "Rot_labels": 60}, "geometry": {"type": "MultiPolygon", "coordinates": [[[[-48.641966840811165, -2.0561399735783352], [-48.639558048067464, -2.0600643271754984], [-48.640066472156754, -2.0603593973647674], [-48.64013979764409, -2.0604783635707986], [-48.640332076560846, -2.060450350928416], [-48.6408574211106, -2.06077374567192], [-48.64090836628953, -2.060734202614835], [-48.64158621853927, -2.0611597021394577], [-48.64389869464033, -2.0573710353030936], [-48.641966840811165, -2.0561399735783352]]], [[[-48.640600056387456, -2.0627444063412], [-48.64020756044575, -2.0624353586825768], [-48.639690646583894, -2.062145934927161], [-48.63964997929484, -2.062084449658021], [-48.63943698517049, -2.061965125362488], [-48.639375444554645, -2.061997862892024], [-48.63908043099274, -2.0618989345403747], [-48.639023020396905, -2.0619111598668853], [-48.63895329312494, -2.0619356778153697], [-48.638871334750974, -2.0619150371424126], [-48.638789377441285, -2.0617766997272873], [-48.63837922053794, -2.061937393097662], [-48.63815319797521, -2.062406405144088], [-48.63719572000958, -2.063952056347357], [-48.63915468410527, -2.0651533445413617], [-48.63949857718616, -2.0646490180682453], [-48.64002461647646, -2.063771618043582], [-48.64049225468406, -2.0629961089905566], [-48.640600056387456, -2.0627444063412]]]]}}, {"type": "Feature", "properties": {"id": 300, "Parcela": "P-143", "ANO": 2007, "Ha": 18.93, "PLANTAS": 3696, "VARIEDADE": "AVeBr", "Rot_labels": 60}, "geometry": {"type": "MultiPolygon", "coordinates": [[[[-48.64185669035827, -2.056070476563944], [-48.639911281714426, -2.0549070918365437], [-48.63870652195231, -2.0569259482278914], [-48.6374072041885, -2.0590922417752062], [-48.63790885097701, -2.0593910484015465], [-48.638171442337395, -2.059479104284268], [-48.63829393281443, -2.059555262666562], [-48.63841060243901, -2.0596197237990084], [-48.63852139902622, -2.0597075533253615], [-48.63866727740995, -2.059760369443419], [-48.63878982883661, -2.0597956179110013], [-48.638889131559885, -2.0597607002436673], [-48.639338191318984, -2.060088650013247], [-48.6394315688716, -2.0601121663969058], [-48.63953684034634, -2.0599895932194525], [-48.640556632409975, -2.0583371774040504], [-48.64185669035827, -2.056070476563944]]], [[[-48.638319989857706, -2.0618936957890375], [-48.638309811553434, -2.0618464884186274], [-48.63826885990228, -2.0618177016114507], [-48.638186864898906, -2.0618216828676887], [-48.63811298318936, -2.061883127567715], [-48.638022709813136, -2.061940444116427], [-48.63799816206595, -2.0619075781315472], [-48.6379489931976, -2.061891090050625], [-48.637875160405734, -2.061919705469374], [-48.637768525951216, -2.0619523755653195], [-48.63770295320408, -2.0619399666477802], [-48.63761282049727, -2.061902899059628], [-48.63754319724362, -2.061857654769322], [-48.637448903952425, -2.061861617616796], [-48.63742023843676, -2.0618410564827587], [-48.63732196803489, -2.061762940094379], [-48.63725224694781, -2.061783354289955], [-48.63720301083611, -2.061812006403989], [-48.637133332567046, -2.061803695006633], [-48.6370472810055, -2.0617789444967447], [-48.63694480722166, -2.0617705841093463], [-48.63686281841332, -2.0617704616418857], [-48.636759711293436, -2.061688771527098], [-48.63610438586896, -2.0613255630012044], [-48.636006690364525, -2.0613300909008867], [-48.635192932831615, -2.0627159114281692], [-48.637118259682836, -2.0639079644068437], [-48.63826844414291, -2.0620967503659973], [-48.63832188978886, -2.0619942384777707], [-48.638319989857706, -2.0618936957890375]]]]}}, {"type": "Feature", "properties": {"id": 301, "Parcela": "P-144", "ANO": 2007, "Ha": 19.57, "PLANTAS": 3855, "VARIEDADE": "AVeBr", "Rot_labels": 60}, "geometry": {"type": "MultiPolygon", "coordinates": [[[[-48.637947651701374, -2.053684696942811], [-48.63632392940168, -2.0563350486561442], [-48.636341383297975, -2.0563759846115195], [-48.6363470390269, -2.0564987228799416], [-48.636305797551074, -2.0567499653710235], [-48.63619871508818, -2.0568317938566856], [-48.63607161387657, -2.0567551966134365], [-48.63533198614426, -2.0579511485785393], [-48.635603184134126, -2.0580817293461013], [-48.63572196019743, -2.058053607367396], [-48.63575577464447, -2.0581272356591143], [-48.63573307439355, -2.058183800139014], [-48.63654660160838, -2.058620821102842], [-48.63663146219582, -2.058586988654803], [-48.63738288884637, -2.0589616588076876], [-48.63985974477805, -2.0548902578585584], [-48.637947651701374, -2.053684696942811]]], [[[-48.63604523392493, -2.0611811488218583], [-48.635181546242926, -2.060257305737907], [-48.635017934522836, -2.0600193484179106], [-48.63488809497976, -2.059883318535878], [-48.6344136568508, -2.0595486799214386], [-48.63422689777689, -2.0596672573465518], [-48.63412517035283, -2.059872533182856], [-48.63405135007004, -2.059892941160443], [-48.634014357321576, -2.0599585443612685], [-48.63395684907347, -2.060036427864746], [-48.63391576912591, -2.0600938176384944], [-48.63383774536771, -2.060183981429409], [-48.633784287558875, -2.060294700192541], [-48.633706178079095, -2.060442314981054], [-48.63362383445751, -2.0606802037959047], [-48.63355813340663, -2.0607539713309233], [-48.633336182553485, -2.061143486478526], [-48.63325164919614, -2.061516562684816], [-48.63511579820136, -2.0626399967758045], [-48.63604523392493, -2.0611811488218583]]]]}}, {"type": "Feature", "properties": {"id": 288, "Parcela": "O-144", "ANO": 2007, "Ha": 9.69, "PLANTAS": 1876, "VARIEDADE": "AVeBr", "Rot_labels": 60}, "geometry": {"type": "Polygon", "coordinates": [[[-48.633262822011865, -2.061607136587061], [-48.63274111224346, -2.0629103457240245], [-48.632471277362015, -2.0637632039361473], [-48.63241267638655, -2.0639092226923523], [-48.63237748083834, -2.064020210932376], [-48.6323480973175, -2.0641487406580765], [-48.6323070460071, -2.0642714086332714], [-48.63224852361069, -2.0643648291144414], [-48.63218978268387, -2.0646043557737714], [-48.63211952254359, -2.064738668457758], [-48.632072632897085, -2.0648613276376104], [-48.632019931206145, -2.0649664453149996], [-48.63202555087514, -2.065112560238054], [-48.63198451692771, -2.0652235396542475], [-48.63199021527169, -2.0653170563546035], [-48.63199008409609, -2.0654047200548318], [-48.631925644602845, -2.065550729917609], [-48.6318553055963, -2.0657376407309673], [-48.63179680928204, -2.0658135283650703], [-48.63172659269922, -2.065918619703975], [-48.63169726142109, -2.0660120838439964], [-48.63170876295969, -2.0661289862693937], [-48.63173191476308, -2.066263438950902], [-48.63185920908829, -2.0663366446760065], [-48.63197774843028, -2.066466998345813], [-48.63207939354177, -2.0665520481269994], [-48.63256605155508, -2.066755608163935], [-48.63264201026162, -2.0667148122672097], [-48.634122675053455, -2.0643208823354238], [-48.63502524111164, -2.062702119495211], [-48.633262822011865, -2.061607136587061]]]}}, {"type": "Feature", "properties": {"id": 287, "Parcela": "O-143", "ANO": 2007, "Ha": 16.48, "PLANTAS": 3305, "VARIEDADE": "AVeBr", "Rot_labels": 60}, "geometry": {"type": "Polygon", "coordinates": [[[-48.63513259974317, -2.06274755871042], [-48.63266987789973, -2.0667934763117874], [-48.63282237535926, -2.066901241684468], [-48.63287305817025, -2.067037153455987], [-48.632850264165974, -2.06715597554034], [-48.63276948971713, -2.0673578724225803], [-48.63272262604246, -2.0674629988414677], [-48.632716647749255, -2.0675564980775256], [-48.6329172480027, -2.0677333779730342], [-48.63305256309193, -2.067988273074996], [-48.63304279452271, -2.0680888154935366], [-48.63303101294094, -2.0681589289833604], [-48.63300750228585, -2.0682640904531793], [-48.63297230631731, -2.0683750786437303], [-48.632942677200845, -2.0686672473641075], [-48.63312337482037, -2.068860379352248], [-48.63320497060725, -2.068954010084552], [-48.63326899903213, -2.0690826800417828], [-48.633280439166334, -2.069240492380164], [-48.63329183549791, -2.0694275259821446], [-48.633621279673484, -2.069551238368092], [-48.636691068769025, -2.064622784209794], [-48.637079329781635, -2.063933860910402], [-48.63513259974317, -2.06274755871042]]]}}, {"type": "Feature", "properties": {"id": 305, "Parcela": "Q-112", "ANO": 2010, "Ha": 6.75, "PLANTAS": 1027, "VARIEDADE": "PB-121", "Rot_labels": 17}, "geometry": {"type": "Polygon", "coordinates": [[[-48.66241978610544, -2.053217168625991], [-48.66475175388184, -2.052494475733244], [-48.66316438266043, -2.050552429497029], [-48.66214618331669, -2.0508678901136532], [-48.661165649890954, -2.0511972246552985], [-48.66118717550932, -2.051303710358199], [-48.66153360557918, -2.052525547627082], [-48.66211558520468, -2.0524540438238956], [-48.66223917276363, -2.052519314963637], [-48.662350394157414, -2.0528582194073537], [-48.66241978610544, -2.053217168625991]]]}}, {"type": "Feature", "properties": {"id": 289, "Parcela": "P-113", "ANO": 2006, "Ha": 9.25, "PLANTAS": 1314, "VARIEDADE": "PB-121", "Rot_labels": -35}, "geometry": {"type": "Polygon", "coordinates": [[[-48.66101556509533, -2.076575786302257], [-48.65727935897263, -2.0738676054864995], [-48.65683054404734, -2.074557591216859], [-48.65686580820439, -2.0746094359615275], [-48.65644575612012, -2.075153287724888], [-48.656643423762695, -2.075306400260402], [-48.65700546860446, -2.0755425342273663], [-48.65824199018486, -2.076355869172264], [-48.65899939741767, -2.0768812489927515], [-48.65956372464269, -2.077257768021435], [-48.66054142683793, -2.0779306348219326], [-48.66091985221234, -2.0782028757406135], [-48.66100973522502, -2.0782390917907394], [-48.6610747283242, -2.077967462760456], [-48.661132805429304, -2.077507930984638], [-48.661170393313114, -2.077135538418526], [-48.6611057415869, -2.0767711884380535], [-48.66101556509533, -2.076575786302257]]]}}, {"type": "Feature", "properties": {"id": 290, "Parcela": "P-114", "ANO": 2006, "Ha": 7.08, "PLANTAS": 975, "VARIEDADE": "PB-121", "Rot_labels": -35}, "geometry": {"type": "Polygon", "coordinates": [[[-48.657993723230824, -2.0725612266065494], [-48.657837889736165, -2.0727930516164474], [-48.657786796499025, -2.0729316437206946], [-48.6577357200576, -2.0730589159895563], [-48.657342314389844, -2.0736776094047262], [-48.657317534214286, -2.073800684208922], [-48.657561406661046, -2.0739550468933334], [-48.65796804237061, -2.0742669483614806], [-48.66071347517326, -2.076300829530455], [-48.66100297148316, -2.0764894535013316], [-48.66105388000409, -2.07647537945857], [-48.6610647476219, -2.0764080287006363], [-48.66107111582081, -2.0762914571412985], [-48.66101760307246, -2.0761555389666486], [-48.6609873256721, -2.076091925871129], [-48.66101207538143, -2.0759893693527904], [-48.66101623589437, -2.0759483382007278], [-48.6610321967413, -2.075847094088261], [-48.66095750608037, -2.0756941645985174], [-48.66095539492826, -2.075509148053876], [-48.66096655897283, -2.075309302328335], [-48.660893388996314, -2.0750842109362995], [-48.660845511663595, -2.074967291614194], [-48.660899513808474, -2.0747672635700525], [-48.660868550392316, -2.074676658509173], [-48.659834928234424, -2.073942159062923], [-48.65887482391954, -2.073199279526945], [-48.657993723230824, -2.0725612266065494]]]}}, {"type": "Feature", "properties": {"id": 291, "Parcela": "P-115", "ANO": 2010, "Ha": 22.1, "PLANTAS": 3332, "VARIEDADE": "PB-121", "Rot_labels": -35}, "geometry": {"type": "Polygon", "coordinates": [[[-48.66214237412188, -2.073574864443166], [-48.662108486936845, -2.073549344341092], [-48.65905871970957, -2.0712030129665084], [-48.65886102216808, -2.0710697107594433], [-48.65871971526163, -2.070946577485953], [-48.65873622295147, -2.070872734923652], [-48.65873628991193, -2.070827594017301], [-48.65879383548544, -2.070725086351601], [-48.658834989019674, -2.0706184505859393], [-48.6588802055536, -2.070536443220207], [-48.65890436001905, -2.0704415230593733], [-48.65895421005862, -2.0703929226997246], [-48.6589994144004, -2.070319122755318], [-48.65904466741299, -2.0702124930474772], [-48.65934266547349, -2.069735629373013], [-48.65958096107838, -2.069383062471275], [-48.65963223192265, -2.06931464894518], [-48.65970915161209, -2.0691579141503658], [-48.65978021008934, -2.06904812613983], [-48.65973940935551, -2.068916746189161], [-48.659649292726286, -2.0688673676538514], [-48.65960015920601, -2.0688262574160583], [-48.65954574352838, -2.0687784561348495], [-48.65949494856605, -2.0687161214887646], [-48.6594187225912, -2.0686452591995645], [-48.659336720917516, -2.068656457336771], [-48.659193480498686, -2.0685241044040774], [-48.65870190861597, -2.068273047228624], [-48.65851470960074, -2.068200879276088], [-48.65843276782507, -2.068167927804652], [-48.65834673261685, -2.0681308665286777], [-48.65828105516499, -2.068188221186351], [-48.658161852854896, -2.0684014379495315], [-48.658108419206386, -2.0684957442957828], [-48.6580426930677, -2.068585928650275], [-48.65800575480451, -2.06861459986798], [-48.657931890441255, -2.0686637348634505], [-48.65786617036636, -2.068749815475013], [-48.657837364218636, -2.068823639737379], [-48.65775897168058, -2.068821082232125], [-48.65758941925695, -2.068772720990666], [-48.657462188873076, -2.0687810218518408], [-48.65737011021784, -2.0687613896974155], [-48.657234929538866, -2.068691425546885], [-48.65713651067242, -2.0687117979279184], [-48.65704215481502, -2.0687567986742166], [-48.656955906703104, -2.068863367295705], [-48.65693110265828, -2.0690028569984156], [-48.65692277580046, -2.0690890227944485], [-48.65691440023915, -2.0692080182964974], [-48.65686922030813, -2.069265403253548], [-48.65679532547705, -2.0693350566863202], [-48.65678699250219, -2.069425326184277], [-48.65677459044354, -2.069495071021547], [-48.65672928871538, -2.069634530216329], [-48.6566634832789, -2.069778062634736], [-48.65653341812906, -2.0697871073284566], [-48.65644859367424, -2.0697954710676374], [-48.65632255597513, -2.0697499649528335], [-48.65591193089231, -2.069472057646089], [-48.65576974846831, -2.0693264596874386], [-48.65570307288169, -2.069239690461282], [-48.65560993953221, -2.0691320135564197], [-48.655528080828034, -2.069046993088496], [-48.65539550728046, -2.068845868953286], [-48.65532779648514, -2.068752379671368], [-48.65525160872257, -2.068656047832964], [-48.65516696499345, -2.068542723685776], [-48.65510765559411, -2.0685030160958546], [-48.655037863419, -2.0685034923430052], [-48.65499682567306, -2.0685321573341264], [-48.65495153615097, -2.0686634089156684], [-48.65485290422547, -2.0688274108781575], [-48.654663924599774, -2.06909797501879], [-48.65461865327097, -2.069216915421217], [-48.65456933725698, -2.069298916356509], [-48.654363995992995, -2.0695448337044775], [-48.65428576392163, -2.0697745252974835], [-48.65444690507211, -2.0698802217114385], [-48.65566684565953, -2.070790453531575], [-48.65630788284144, -2.071266840613753], [-48.65860101183977, -2.072920120627691], [-48.659462256439085, -2.0736034236189114], [-48.66036027920562, -2.074269801896447], [-48.66090819463188, -2.074632852977479], [-48.66103264285392, -2.074594833538226], [-48.66123241807925, -2.0744014078147828], [-48.661281950954624, -2.0742414582259787], [-48.66144524539097, -2.07415974795432], [-48.66147447795262, -2.0740493066000503], [-48.661593257292864, -2.0740211835145597], [-48.66175307663813, -2.0739139814814185], [-48.66214237412188, -2.073574864443166]]]}}, {"type": "Feature", "properties": {"id": 309, "Parcela": "Q-122", "ANO": 2010, "Ha": 23.26, "PLANTAS": 3545, "VARIEDADE": "PB-121", "Rot_labels": 17}, "geometry": {"type": "Polygon", "coordinates": [[[-48.66149072170835, -2.052512553833564], [-48.66109123066896, -2.0511847105442946], [-48.65350621235389, -2.0534964162667113], [-48.653534890242454, -2.0536027287007284], [-48.65353481159176, -2.0536560768450265], [-48.65352646139666, -2.0537586573168114], [-48.6535263464358, -2.0538366276810787], [-48.65348934834856, -2.053906336123864], [-48.65342775949116, -2.053971904513569], [-48.65337020352833, -2.0540826196851616], [-48.65329202310199, -2.0542794823091652], [-48.653254976554685, -2.0543820203436214], [-48.653193302909145, -2.0545050405257372], [-48.653139852402035, -2.0546116580061256], [-48.653061635530634, -2.054833142768585], [-48.65303690549811, -2.0549233878445627], [-48.65301220573465, -2.0549931144076248], [-48.65297926463419, -2.0550915547562867], [-48.652930807530566, -2.0551445250699594], [-48.652872478540374, -2.0552268192873435], [-48.652871130862046, -2.055353853278586], [-48.653069484011404, -2.0559993758152246], [-48.65628238731047, -2.055058919184095], [-48.656250963663915, -2.054880944056642], [-48.656262944173086, -2.054824003872399], [-48.65630552481537, -2.0547052084573982], [-48.65655716426766, -2.054682940271689], [-48.656783502163755, -2.054564416048673], [-48.657340349050465, -2.0546190070991037], [-48.65756654116042, -2.0545995311314007], [-48.65806980798852, -2.0545634841029936], [-48.65835810756844, -2.0546035288480526], [-48.65995212129514, -2.054290233815221], [-48.65995370440395, -2.05427084724061], [-48.65996207840335, -2.0541518513750905], [-48.65999521225334, -2.053922091246603], [-48.66005841769923, -2.053749970949346], [-48.66010938764274, -2.0536934467063057], [-48.6601882683286, -2.053663840587003], [-48.66061512785424, -2.05331565204597], [-48.660619347958075, -2.053233583596943], [-48.66067696391854, -2.053081830306344], [-48.6606729850288, -2.052999749780786], [-48.66067587716454, -2.052958489502976], [-48.66065679811388, -2.0528560952819275], [-48.66066524428477, -2.0526878546510834], [-48.66083195474834, -2.052556863798138], [-48.661044024327836, -2.052528876257021], [-48.661338011618, -2.05254628874149], [-48.66149072170835, -2.052512553833564]]]}}, {"type": "Feature", "properties": {"id": 308, "Parcela": "Q-121", "ANO": 2009, "Ha": 11.79, "PLANTAS": 1906, "VARIEDADE": "PB-123", "Rot_labels": 17}, "geometry": {"type": "MultiPolygon", "coordinates": [[[[-48.65377143916496, -2.0582955067837387], [-48.660522611225964, -2.0562537612060234], [-48.66031355146678, -2.0561572339809002], [-48.66016089519426, -2.056154178857532], [-48.66005064877548, -2.056148356310039], [-48.65996577911302, -2.056187850653977], [-48.65993181291746, -2.0562161002144834], [-48.65989503634096, -2.056233025761323], [-48.659807266331484, -2.056279407656714], [-48.65972935178013, -2.0562957076312003], [-48.65962272264948, -2.056324276424979], [-48.65941147428603, -2.0563257011993734], [-48.65929473298693, -2.056344311111389], [-48.65918817952158, -2.0562970720475726], [-48.65900152382392, -2.0563449059897843], [-48.65887138398328, -2.0564098030991644], [-48.65876118350775, -2.0563728509094013], [-48.65861700434592, -2.056372638092947], [-48.65847276266404, -2.056414874624241], [-48.65827374807969, -2.0564864345848277], [-48.65810008851226, -2.0564362301805756], [-48.65786774244136, -2.056436621063137], [-48.65769515533254, -2.0565297549531016], [-48.6574689837569, -2.0565350808508542], [-48.65725979948367, -2.056523452039687], [-48.65715232608912, -2.0565544228602897], [-48.65709299580481, -2.0565288655724037], [-48.65701667825804, -2.0565202629544443], [-48.656988428725214, -2.056506071420829], [-48.65693766300549, -2.05642392757519], [-48.656912336464664, -2.0563446512721173], [-48.65678792573804, -2.056320091344389], [-48.656765422239786, -2.0562821751282128], [-48.65676342243929, -2.056205859823793], [-48.65654697847978, -2.0556433302791772], [-48.65641801127924, -2.0555808751027946], [-48.65636881749358, -2.0555808024466966], [-48.65632366270486, -2.0556217729603725], [-48.65626620341907, -2.0556668290158804], [-48.656245790695074, -2.055609346779685], [-48.65625409853649, -2.0555354920840787], [-48.6562665481933, -2.0554329174619084], [-48.656285237781105, -2.0552687962462284], [-48.65624972627392, -2.055160749480348], [-48.656136615672686, -2.0551803921545506], [-48.65308491569786, -2.0560786373166366], [-48.65377143916496, -2.0582955067837387]]], [[[-48.66225465334644, -2.054971507773646], [-48.66217833971394, -2.0549600754927195], [-48.66215824672386, -2.0551666337820493], [-48.66216081168285, -2.0553449257338796], [-48.662092521503745, -2.0556448020447253], [-48.662081005251515, -2.0557862836193457], [-48.66243451114421, -2.05570190532219], [-48.66239520288974, -2.055517899265686], [-48.662324809573775, -2.055325357516055], [-48.662285468017274, -2.055163991203047], [-48.66225465334644, -2.054971507773646]]]]}}, {"type": "Feature", "properties": {"id": 306, "Parcela": "Q-113", "ANO": 2009, "Ha": 4.5, "PLANTAS": 668, "VARIEDADE": "PB-123", "Rot_labels": 17}, "geometry": {"type": "Polygon", "coordinates": [[[-48.663091638214496, -2.0505169479680694], [-48.66210718813331, -2.0493263297850266], [-48.66168841994285, -2.0487914341551714], [-48.661536058711384, -2.0485874525504992], [-48.66044440473335, -2.0488716755954646], [-48.66079899625848, -2.049973054291868], [-48.660877663308256, -2.050307106210596], [-48.66096205914075, -2.0505902271535854], [-48.66114081806024, -2.0511069593327322], [-48.663091638214496, -2.0505169479680694]]]}}, {"type": "Feature", "properties": {"id": 307, "Parcela": "Q-114", "ANO": 2009, "Ha": 1.08, "PLANTAS": 164, "VARIEDADE": "PB-123", "Rot_labels": 17}, "geometry": {"type": "Polygon", "coordinates": [[[-48.66014959184531, -2.047895988583494], [-48.66043317960691, -2.0488150597498453], [-48.66090262890329, -2.048705380788177], [-48.661377769684506, -2.0485702402493042], [-48.66139490194959, -2.0484542366664815], [-48.660833189284936, -2.047861948220921], [-48.66075137541855, -2.047745799373587], [-48.660550822118935, -2.047632306124718], [-48.660403833123326, -2.047620770377059], [-48.6603508269746, -2.047650060256854], [-48.66034657110919, -2.0477567510468138], [-48.66018864281402, -2.047849681635672], [-48.66014959184531, -2.047895988583494]]]}}, {"type": "Feature", "properties": {"id": 311, "Parcela": "Q-124", "ANO": 2009, "Ha": 14.57, "PLANTAS": 2161, "VARIEDADE": "PB-123", "Rot_labels": 17}, "geometry": {"type": "Polygon", "coordinates": [[[-48.66008122811266, -2.047841033938956], [-48.65963718784723, -2.047874717095826], [-48.65952995182314, -2.0478439972685676], [-48.65927597711306, -2.047531384569715], [-48.658410707878225, -2.0473203347479783], [-48.65493058842242, -2.0476976210777837], [-48.654975390623875, -2.0483479952061283], [-48.65498759250848, -2.0484136726403306], [-48.65494231148551, -2.0485408211651004], [-48.65490117212825, -2.0486392497663886], [-48.6548640115735, -2.048819758545941], [-48.65489199058616, -2.0489540648185405], [-48.65481849520201, -2.0491069516234934], [-48.654806106316435, -2.049168489111884], [-48.6547567981422, -2.0492463870658506], [-48.65477282185842, -2.049500841064715], [-48.65478087594617, -2.0495993421166774], [-48.65476435136045, -2.0496854957995576], [-48.65473967009192, -2.0497429114478085], [-48.654731410811706, -2.049783936433708], [-48.65469024114747, -2.0499028835121123], [-48.65465319507691, -2.0500054217983665], [-48.65462848360445, -2.050083355967835], [-48.6546078051801, -2.0502064369498383], [-48.65455429480958, -2.050354091815173], [-48.654508028368355, -2.0505269543805102], [-48.65458663509778, -2.0506064517130254], [-48.660371856681834, -2.0488630790768476], [-48.66033723481283, -2.048696060126239], [-48.66022753664949, -2.048316683333833], [-48.66008122811266, -2.047841033938956]]]}}, {"type": "Feature", "properties": {"id": 345, "Parcela": "P-132(2)", "ANO": 2003, "Ha": 15.7, "PLANTAS": 2424, "VARIEDADE": "PB-132", "Rot_labels": -35}, "geometry": {"type": "Polygon", "coordinates": [[[-48.648935740855194, -2.0711787358585143], [-48.6441682146268, -2.0676646150144364], [-48.64379390948149, -2.0680142951917433], [-48.6434325965254, -2.0685330132176203], [-48.64338918391639, -2.0686353984404], [-48.64308201493161, -2.0685522987763423], [-48.64298358056719, -2.0684706449386323], [-48.642934380736996, -2.0684746750802865], [-48.64292606547761, -2.068552632592915], [-48.642917774700344, -2.0686141754166862], [-48.64290133394332, -2.0686428766077865], [-48.64286025347417, -2.0687002667305023], [-48.64282335819029, -2.0687002115738684], [-48.642749567625515, -2.0687001012580164], [-48.6427122747013, -2.0687073224039896], [-48.6423493197711, -2.0691442907097], [-48.647898779676986, -2.0726940364647195], [-48.648935740855194, -2.0711787358585143]]]}}, {"type": "Feature", "properties": {"id": 351, "Parcela": "P-134(2)", "ANO": 2007, "Ha": 9.68, "PLANTAS": 2020, "VARIEDADE": "AVeBr", "Rot_labels": 61}, "geometry": {"type": "MultiPolygon", "coordinates": [[[[-48.64607803612702, -2.0586862016973404], [-48.645347449910176, -2.0598543792249018], [-48.645224210313984, -2.0600265508550035], [-48.64521558496394, -2.060091853385901], [-48.64551212827313, -2.0602903899938623], [-48.64560258459709, -2.0602961843923033], [-48.64596130577032, -2.0605061332425247], [-48.64618433830908, -2.0607102204690735], [-48.6463087441967, -2.060699085709439], [-48.64639259707451, -2.060668815524844], [-48.64644462615604, -2.060574770437176], [-48.646848146158504, -2.0603268344822223], [-48.64689654779775, -2.0601931847638797], [-48.64693359515013, -2.060090647502032], [-48.64699111547668, -2.060004555430061], [-48.64700254492948, -2.059904904019509], [-48.64723752788378, -2.0596760279822557], [-48.6474419039873, -2.0595335884337], [-48.64607803612702, -2.0586862016973404]]], [[[-48.645143335251554, -2.060199991001225], [-48.64407562561726, -2.0619002260843433], [-48.6440550917132, -2.0619248176103464], [-48.64417804939392, -2.0620061756343286], [-48.64486147421541, -2.062488282397223], [-48.64661794276822, -2.063798329180376], [-48.6466656792024, -2.0638287128601283], [-48.646698725001244, -2.063660510682825], [-48.64670714954224, -2.063508686611406], [-48.64673186222339, -2.063430753247661], [-48.64673606533698, -2.0633609967345428], [-48.646699541934844, -2.0631106171364983], [-48.64668736542839, -2.0630285251676375], [-48.64665474641393, -2.062909469544824], [-48.64665488660092, -2.0628150848346736], [-48.6466386106102, -2.062732986769714], [-48.646610036202006, -2.062650870404053], [-48.646589636357255, -2.062585180974025], [-48.64657745983047, -2.062503089015467], [-48.64656525282997, -2.0624415154721674], [-48.64661867392154, -2.062355417433825], [-48.64662756746135, -2.0618876097753165], [-48.64659916359345, -2.061690590306834], [-48.64656234756637, -2.0616371875480675], [-48.64653784822095, -2.06157149203684], [-48.64648872769956, -2.0615221746713734], [-48.646472360284655, -2.061501631867482], [-48.64650522303511, -2.0614565401408504], [-48.646662608839364, -2.061324321019719], [-48.6468912490399, -2.061001604370241], [-48.64692022539307, -2.060812877580152], [-48.646866968845245, -2.060788176247367], [-48.64682601679081, -2.0607593895152863], [-48.64681787265189, -2.0607224441740843], [-48.64681793353465, -2.0606814073387567], [-48.64677706671722, -2.060595169041789], [-48.64671556863035, -2.060599181308903], [-48.646666350679716, -2.060615522906511], [-48.64662941286283, -2.060644193834798], [-48.64659238980098, -2.0607303163208472], [-48.646510921629826, -2.060668964484727], [-48.646415997053246, -2.0608080241817026], [-48.64638061391169, -2.0608470568891026], [-48.64634382898593, -2.0608696416990346], [-48.64628444465758, -2.0608808731434327], [-48.645143335251554, -2.060199991001225]]]]}}, {"type": "Feature", "properties": {"id": 295, "Parcela": "P-132(1)", "ANO": 2002, "Ha": 22.06, "PLANTAS": 3335, "VARIEDADE": "PB-123", "Rot_labels": 60}, "geometry": {"type": "MultiPolygon", "coordinates": [[[[-48.643885068345625, -2.0621409991083888], [-48.640412615732814, -2.067778374168295], [-48.64035462101606, -2.067896302635585], [-48.640407776956074, -2.0679865588719286], [-48.64073608078699, -2.068213444174402], [-48.64105524760723, -2.0684063567104323], [-48.64124979164797, -2.0682821308553447], [-48.641711468755005, -2.0681724540487063], [-48.64222841655703, -2.0679666420193534], [-48.642285146652355, -2.068116684423384], [-48.64241640324752, -2.0680676364756243], [-48.64250268193806, -2.0679405513631774], [-48.642609298843304, -2.0679201923101274], [-48.642714952711124, -2.067774933878536], [-48.642856321106485, -2.067763825400666], [-48.64314477950672, -2.067696338029675], [-48.64339695466959, -2.0675479341831062], [-48.643553544801016, -2.0672904889528776], [-48.644284082881654, -2.066733478649342], [-48.64440268961923, -2.066634314330212], [-48.64452632729129, -2.0663853115529176], [-48.64468486860138, -2.0662327316020406], [-48.644821618267045, -2.066109667611523], [-48.644936623497095, -2.0659621064406757], [-48.644996398167606, -2.065859644796445], [-48.64512092655025, -2.065766442627305], [-48.64518300734561, -2.065683423169074], [-48.645265180055674, -2.0655604350691554], [-48.64539654644728, -2.065437520297856], [-48.645758254910675, -2.064929731431465], [-48.64591115029105, -2.064771482765738], [-48.646032960918774, -2.064604697920118], [-48.64610917257914, -2.0645193559685677], [-48.64612564979521, -2.064466032539894], [-48.64615763220111, -2.0644152777891693], [-48.646489076297854, -2.0639573213715057], [-48.646517460160474, -2.0638809552804234], [-48.64624034373398, -2.063608868472058], [-48.64505193989901, -2.0627298180940654], [-48.64474176072365, -2.062512394397045], [-48.64446454959471, -2.062304452954132], [-48.644091777881144, -2.062037883911155], [-48.64398430054535, -2.062071683045015], [-48.643885068345625, -2.0621409991083888]]], [[[-48.64175754336344, -2.0687692186857354], [-48.64226316907822, -2.0690693244620997], [-48.6424991849038, -2.0689142458772323], [-48.64265480938575, -2.0686784528667377], [-48.642792854978744, -2.0686613890705448], [-48.642821763696894, -2.0685578112309133], [-48.642643573982966, -2.068499977605794], [-48.64232712402102, -2.068603125522403], [-48.64222923974697, -2.0686835732827444], [-48.642114317769014, -2.068620077485829], [-48.64180946401895, -2.0686599186399635], [-48.64175754336344, -2.0687692186857354]]]]}}, {"type": "Feature", "properties": {"id": 315, "Parcela": "Q-142", "ANO": 2007, "Ha": 7.48, "PLANTAS": 1494, "VARIEDADE": "AVeBr", "Rot_labels": 58}, "geometry": {"type": "MultiPolygon", "coordinates": [[[[-48.6486471465125, -2.049522161604638], [-48.64739310673248, -2.04873924460291], [-48.64735190395355, -2.0488922878976163], [-48.647351795015894, -2.048966154229678], [-48.64737621007699, -2.0490893011359237], [-48.647359618634226, -2.0492205948251496], [-48.64735944914733, -2.0493354980090053], [-48.647285513953726, -2.0494338773735654], [-48.64711285313419, -2.0497619175958364], [-48.646759162603864, -2.050532888744917], [-48.646258243074286, -2.051065627425666], [-48.64617200934678, -2.0511639883648134], [-48.6460263034079, -2.05128277969836], [-48.64597293793108, -2.051331944976283], [-48.64591539419039, -2.051434452030482], [-48.64571619536693, -2.051688585825533], [-48.645699567144874, -2.0518445013908306], [-48.645664374625156, -2.0519797974663567], [-48.645584443130225, -2.0520741374652034], [-48.645534752378694, -2.052410566335782], [-48.645518221131965, -2.05250082299533], [-48.645452435892786, -2.0526320435592122], [-48.64541123515097, -2.0527715079150193], [-48.645378208998665, -2.05292739912902], [-48.64534513426645, -2.0531161197682577], [-48.64595072131902, -2.053338591819798], [-48.64636344825772, -2.053350523145829], [-48.6486471465125, -2.049522161604638]]], [[[-48.643358321352615, -2.056971502616582], [-48.64337974285482, -2.0568915660304286], [-48.64321482721683, -2.0567687027097152], [-48.643135146914666, -2.056629972387485], [-48.642023107060446, -2.0559299292421414], [-48.641929693498085, -2.0560737334115062], [-48.643358321352615, -2.056971502616582]]]]}}, {"type": "Feature", "properties": {"id": 323, "Parcela": "R-143", "ANO": 2010, "Ha": 1.55, "PLANTAS": 244, "VARIEDADE": "PB-141", "Rot_labels": 336}, "geometry": {"type": "Polygon", "coordinates": [[[-48.6450308995188, -2.046866579414908], [-48.64489775244004, -2.0476485509090843], [-48.645083147262724, -2.0478599642532496], [-48.64557464449348, -2.048132364837206], [-48.64599602216272, -2.048028280033595], [-48.64611205445417, -2.047943553380761], [-48.64616035972275, -2.0477766584024666], [-48.646471738841704, -2.047499784488152], [-48.64642950070283, -2.04738652452589], [-48.646406997335745, -2.0473100829292057], [-48.6450308995188, -2.046866579414908]]]}}, {"type": "Feature", "properties": {"id": 314, "Parcela": "Q141", "ANO": 2007, "Ha": 12.65, "PLANTAS": 2485, "VARIEDADE": "AVeBr", "Rot_labels": 60}, "geometry": {"type": "MultiPolygon", "coordinates": [[[[-48.64871581366838, -2.049710938853468], [-48.64651738136454, -2.0532491748916266], [-48.646623537562846, -2.053348078548584], [-48.646674407052664, -2.0533594736686815], [-48.646722516471485, -2.0533255856649126], [-48.64678184190181, -2.053353972946875], [-48.64683265282861, -2.053404987134708], [-48.646900425837785, -2.0534560264522774], [-48.64698518185117, -2.053492941229434], [-48.64711798455599, -2.0535384170007513], [-48.64719707819522, -2.053580983270668], [-48.64729029436353, -2.053632060283224], [-48.6474259073955, -2.0536888599792773], [-48.64755589988202, -2.053723011819035], [-48.64767173639452, -2.053771292395654], [-48.64774516350495, -2.053822340100539], [-48.647858152113095, -2.0538847661699466], [-48.64793724582097, -2.0539273324454377], [-48.6480051067582, -2.053918943124798], [-48.64806444482389, -2.0539388406019192], [-48.648140678073474, -2.054004042180415], [-48.648270704119, -2.0540155545159506], [-48.64835820781677, -2.0541062422759326], [-48.64838054791143, -2.054293051599479], [-48.64840873025236, -2.0543525221437324], [-48.648516085831425, -2.054400790179432], [-48.64913663270648, -2.053433868085133], [-48.65004347966884, -2.0519438281823863], [-48.65054790317759, -2.0511210591074622], [-48.65068960027576, -2.0508863827878185], [-48.650732109809326, -2.0508156968859783], [-48.65071525616714, -2.0507420933501312], [-48.65061924607691, -2.0506683729000654], [-48.64947531491408, -2.049981836104022], [-48.64880093755973, -2.0495931374140004], [-48.64871581366838, -2.049710938853468]]], [[[-48.646408626989086, -2.0578796780785447], [-48.64630735101199, -2.0579381713246683], [-48.64613153837228, -2.0579805601431644], [-48.646051612764865, -2.0580070976324913], [-48.64600356257658, -2.0580869948404823], [-48.64602481022144, -2.058124345067519], [-48.64604600254994, -2.0581990138819544], [-48.646003270182405, -2.0582842502203524], [-48.64592323391099, -2.0583854248496762], [-48.64590710651633, -2.0584866944105618], [-48.645965602724466, -2.05854542493303], [-48.64604021843158, -2.0585082171156324], [-48.64613095361788, -2.058375070939346], [-48.64620040162115, -2.0582312306451302], [-48.64628050898367, -2.0580820749247395], [-48.646408626989086, -2.0578796780785447]]], [[[-48.645619737867534, -2.0583369928273965], [-48.645662478152445, -2.0582464252993895], [-48.645737093828274, -2.0582092174883515], [-48.645769166813764, -2.0581292965743443], [-48.6457105797321, -2.0581318751621294], [-48.64568126050589, -2.0581504909371655], [-48.645625304681424, -2.0581743983766594], [-48.64558002799842, -2.0581796623496054], [-48.645580079373616, -2.0581450093880616], [-48.645556168877164, -2.0581076552107636], [-48.645369961699735, -2.0579767632946684], [-48.645359357648516, -2.057944760126601], [-48.64522628931894, -2.057893915699778], [-48.645138422576665, -2.0578884539233075], [-48.64496285510796, -2.057765574685845], [-48.644808602469844, -2.057634730277819], [-48.64430046535969, -2.057316766959507], [-48.644209856790745, -2.0573646134109738], [-48.64418852619905, -2.0573832410248416], [-48.644148618795334, -2.0573591911845917], [-48.64413280761826, -2.057247211838493], [-48.64406634271699, -2.0571751414633166], [-48.64398654373595, -2.0571163793558584], [-48.64390401865604, -2.057100263041627], [-48.643845376350264, -2.0571401601276147], [-48.64381068796179, -2.057188089649107], [-48.6437893257513, -2.0572280421267544], [-48.645619737867534, -2.0583369928273965]]]]}}, {"type": "Feature", "properties": {"id": 321, "Parcela": "R-141", "ANO": 2007, "Ha": 5.05, "PLANTAS": 975, "VARIEDADE": "AVeBr", "Rot_labels": 333}, "geometry": {"type": "Polygon", "coordinates": [[[-48.651612034412246, -2.048886970756732], [-48.651306139261486, -2.048798791071527], [-48.65021893372044, -2.0484660830102017], [-48.64980072370385, -2.048338118231903], [-48.649644527239204, -2.0483407176417447], [-48.64953993205148, -2.0483377333118886], [-48.64914886241162, -2.0489767234938565], [-48.64891519634291, -2.0493316413120466], [-48.64882856349373, -2.0495507290704253], [-48.648890703481904, -2.049587610145366], [-48.650732293346174, -2.0506911794544855], [-48.65081144145763, -2.0506969562495745], [-48.65163679634518, -2.0493497040461026], [-48.65176874155886, -2.049112201855764], [-48.65177510706164, -2.0490145590492306], [-48.65172151041825, -2.048935241392196], [-48.651612034412246, -2.048886970756732]]]}}, {"type": "Feature", "properties": {"id": 286, "Parcela": "O-142", "ANO": 2007, "Ha": 17.5, "PLANTAS": 3513, "VARIEDADE": "AVeBr", "Rot_labels": 60}, "geometry": {"type": "MultiPolygon", "coordinates": [[[[-48.639134517407605, -2.0652062963332947], [-48.63716855616522, -2.064013293857735], [-48.63367589009077, -2.0697329416288555], [-48.63432143830916, -2.070180530441846], [-48.63446317923409, -2.0699203910987016], [-48.63447967170346, -2.0695412764800962], [-48.63450916602451, -2.069416735300654], [-48.63457142819513, -2.069371550101545], [-48.63470720126698, -2.0693208153754314], [-48.63541920288299, -2.069593555617077], [-48.636136587961715, -2.0700474186521105], [-48.63689523410744, -2.0688883139495178], [-48.637676039279484, -2.0676132440800363], [-48.639134517407605, -2.0652062963332947]]], [[[-48.634144026010304, -2.070568738289463], [-48.63401728118194, -2.0703428469250356], [-48.63392301834345, -2.0703262907458053], [-48.63383699747256, -2.070281021361858], [-48.63382892157037, -2.070198936149803], [-48.633714432093456, -2.0700017888259756], [-48.633575222924215, -2.0698866774752247], [-48.63356304756449, -2.069804586123866], [-48.633497394847005, -2.0698455240674822], [-48.63346453773726, -2.069886511256073], [-48.63343982417459, -2.069964443549274], [-48.63347662083041, -2.0700301572614297], [-48.63347647321454, -2.0701286447147993], [-48.63347231840483, -2.0701655713526055], [-48.633574232642964, -2.0705473641886756], [-48.63382799891776, -2.0708144828906487], [-48.633893620953096, -2.0707940631951742], [-48.633975726928355, -2.070716217090679], [-48.63400040362233, -2.070662906644893], [-48.634144026010304, -2.070568738289463]]]]}}, {"type": "Feature", "properties": {"id": 285, "Parcela": "O-141", "ANO": 2007, "Ha": 13.66, "PLANTAS": 2751, "VARIEDADE": "AVeBr", "Rot_labels": 60}, "geometry": {"type": "Polygon", "coordinates": [[[-48.63917716727854, -2.06524252076308], [-48.63590966142524, -2.0705578783405585], [-48.63661855323834, -2.0710202188266917], [-48.6368194922617, -2.070873364524099], [-48.63729676233314, -2.07040521975529], [-48.63741591700243, -2.0702248371951346], [-48.63747670019026, -2.0699800954350382], [-48.63766352929921, -2.0698162401017997], [-48.63786434957413, -2.069748623008194], [-48.63797473471962, -2.0696610608791426], [-48.638557909879864, -2.0691214194913834], [-48.63868796568349, -2.0691131245364036], [-48.639007575961266, -2.0690088960566366], [-48.63953102806248, -2.068706877915566], [-48.63980001945794, -2.068681326047071], [-48.639820590352194, -2.0686321127755223], [-48.63990276970567, -2.06850502194325], [-48.64000965002461, -2.068308205624667], [-48.640071246203455, -2.0682385353644146], [-48.64006726316826, -2.068160559623519], [-48.64031368455193, -2.067857256498543], [-48.640519190779, -2.06750054427307], [-48.64078629904988, -2.0670700578732912], [-48.64092196711051, -2.0668117291647388], [-48.641131697567765, -2.066431181105234], [-48.63917716727854, -2.06524252076308]]]}}, {"type": "Feature", "properties": {"id": 313, "Parcela": "Q-134", "ANO": 2007, "Ha": 29.59, "PLANTAS": 5929, "VARIEDADE": "AVeBr", "Rot_labels": 60}, "geometry": {"type": "Polygon", "coordinates": [[[-48.650856005117774, -2.050830972940267], [-48.64608846099459, -2.0586413929324614], [-48.64750923692962, -2.0594641860309677], [-48.647560186996095, -2.0594395402421117], [-48.64766139630877, -2.059187342232783], [-48.6476895640101, -2.059080836987527], [-48.64770784062178, -2.0589840984116305], [-48.64774751960697, -2.0589162387269218], [-48.64780698775893, -2.058848408418588], [-48.64793146594359, -2.0587884569572514], [-48.648053199899266, -2.058672610039323], [-48.64814966424096, -2.0585824310492122], [-48.6481945594113, -2.0584585016340844], [-48.64844095395537, -2.058368259206567], [-48.64854561779461, -2.058325257883857], [-48.6486277481907, -2.058226331727813], [-48.648721761870696, -2.058112229532961], [-48.64882279642914, -2.0579777935357617], [-48.64907504243283, -2.0578716205257477], [-48.64933302318367, -2.057675731982727], [-48.649827717997006, -2.057342338622603], [-48.650028566625316, -2.0572549079988494], [-48.650082443364056, -2.0571446199380783], [-48.650207891748344, -2.057026529973236], [-48.65032034461763, -2.056853487960599], [-48.65044354736843, -2.0567745303339158], [-48.65053326999008, -2.0567129779851028], [-48.65065103558806, -2.0566290361535198], [-48.65077451089725, -2.0564722019642545], [-48.65083835980192, -2.0564014637245354], [-48.651013961655124, -2.056180987812058], [-48.65127449966671, -2.0558757391019977], [-48.651447190745564, -2.0557118576830025], [-48.65157735936382, -2.0556271518608895], [-48.65165381864813, -2.0555395365790403], [-48.65174719411246, -2.0554830757647915], [-48.65182645115572, -2.055415274246238], [-48.65193122246846, -2.055299401312429], [-48.65209531954793, -2.055211915625549], [-48.652160258694074, -2.0550779218820763], [-48.652244586157, -2.0548761672924765], [-48.65227277806665, -2.0547528382862543], [-48.652323386092846, -2.054623934664705], [-48.652351594521406, -2.0544893901503936], [-48.65235739508021, -2.0543548124979845], [-48.652402376268604, -2.05424272381161], [-48.65242493304578, -2.0541418174843717], [-48.65245340001704, -2.053941797185396], [-48.65253839445694, -2.0538174049606654], [-48.65262908049314, -2.0536675515632017], [-48.652739536267546, -2.0535366443655025], [-48.65281330454614, -2.0533508691961564], [-48.652885658598464, -2.0532172178783727], [-48.65290823179913, -2.0531050959935286], [-48.652987893582484, -2.052858007954825], [-48.65321487300353, -2.0523036724588666], [-48.65197211970998, -2.0515306754776548], [-48.650856005117774, -2.050830972940267]]]}}, {"type": "Feature", "properties": {"id": 320, "Parcela": "R-134", "ANO": 2007, "Ha": 6.89, "PLANTAS": 1430, "VARIEDADE": "AVeBr", "Rot_labels": 334}, "geometry": {"type": "Polygon", "coordinates": [[[-48.65192622116642, -2.049103925386611], [-48.65088764368429, -2.05078338221158], [-48.65320794617942, -2.052208151322642], [-48.65325409955172, -2.052191541530772], [-48.653344094421286, -2.0519449328093646], [-48.65352386922885, -2.05159751680888], [-48.65372591960705, -2.0513398578072572], [-48.653737354724896, -2.051182857258026], [-48.65373751985817, -2.0510707021998775], [-48.653762585063234, -2.0508810142714795], [-48.65375714348589, -2.0507366785931502], [-48.65373816379146, -2.050633297472936], [-48.65386155539235, -2.0505325396975547], [-48.65388432635872, -2.050285831592899], [-48.65397437023475, -2.050005576078029], [-48.653873749596215, -2.0498596258075428], [-48.65367227732448, -2.0497247423849476], [-48.65345953518907, -2.049634704470235], [-48.65324679310444, -2.0495446665546413], [-48.653056359835695, -2.049521954683612], [-48.652876965427176, -2.0496114143080617], [-48.652753722565265, -2.0496112325364586], [-48.65253000785191, -2.0493641611048714], [-48.65248145081295, -2.049294351048786], [-48.65240520049126, -2.049240469513874], [-48.65225829975334, -2.0491695040715903], [-48.65215090645367, -2.049146706064141], [-48.65192622116642, -2.049103925386611]]]}}, {"type": "Feature", "properties": {"id": 324, "Parcela": "S-134", "ANO": 2009, "Ha": 8.07, "PLANTAS": 1221, "VARIEDADE": "PB-141", "Rot_labels": 60}, "geometry": {"type": "Polygon", "coordinates": [[[-48.65561657803281, -2.0435470829244466], [-48.655588411598, -2.0434762926132355], [-48.655492413442694, -2.0433940828470702], [-48.65541327367602, -2.0433826467787233], [-48.65534802631639, -2.0434829587213974], [-48.655291891859434, -2.043561385061271], [-48.65530019611492, -2.0436286905157384], [-48.65524033637007, -2.0437163276736543], [-48.655227153061105, -2.0437771891416667], [-48.65512422137684, -2.043857654912701], [-48.655078856381074, -2.04394814686675], [-48.655019515461376, -2.044026429838981], [-48.654966190144755, -2.044099252485318], [-48.65485217654329, -2.0443015582785002], [-48.65474732383398, -2.044474031471668], [-48.65469632965494, -2.044547535360256], [-48.654628315261895, -2.0446606335984665], [-48.65458295848379, -2.044745465581095], [-48.65451212120288, -2.044855729689361], [-48.6544526168787, -2.0449490307170057], [-48.65439904930368, -2.0450152889312623], [-48.6543477723406, -2.045115843887678], [-48.654143745498914, -2.045443818553363], [-48.65350335377569, -2.0465028328251273], [-48.65340502320089, -2.046704567548935], [-48.65336572721565, -2.0467605873225962], [-48.65291792768571, -2.0474707116701776], [-48.652054531755745, -2.048895211933626], [-48.65194225353167, -2.049057671311045], [-48.65199407267001, -2.049101903010141], [-48.65205063381645, -2.04908783668773], [-48.65213539847797, -2.0491190911711676], [-48.65219334189758, -2.0491262515124036], [-48.65225271757211, -2.0491206791856116], [-48.6522978873572, -2.0491631950706224], [-48.6523656899401, -2.04919442453391], [-48.652422180295204, -2.04922846726448], [-48.65247303744567, -2.0492483519309843], [-48.65255067004362, -2.0493234601403914], [-48.65265586594187, -2.049490521345023], [-48.65271459147007, -2.049555097210299], [-48.65275375145418, -2.0495916054152046], [-48.65285737098797, -2.049602973766486], [-48.65288258800955, -2.049597403196566], [-48.65295827208837, -2.0495582604841656], [-48.65305077439196, -2.0495107309222025], [-48.65319359521302, -2.0495305687016683], [-48.65328041305538, -2.0495391083665755], [-48.65350992799407, -2.0496516020669953], [-48.653708690013765, -2.049724796073184], [-48.65383458955533, -2.0498231175932995], [-48.65392236125389, -2.0498872285313263], [-48.654001434573644, -2.0499439442041774], [-48.65395820593077, -2.0497111184599293], [-48.65395539043447, -2.0495793578806865], [-48.65398119725681, -2.0491728328853647], [-48.654003790633766, -2.0490466914465117], [-48.65403465497163, -2.0490102864519066], [-48.65401242859978, -2.0488868828408275], [-48.654029419994636, -2.0487607331394524], [-48.65404639076169, -2.048648602820229], [-48.65403248483321, -2.048581289135631], [-48.65402143759285, -2.0484747253007516], [-48.65411143564733, -2.0482253122830776], [-48.65416478605305, -2.048135666604016], [-48.65420140066532, -2.047998330247241], [-48.65426044777526, -2.0478442036183737], [-48.654271820618376, -2.047729261139813], [-48.654274724603994, -2.047659168326182], [-48.654325212175195, -2.0476115766496585], [-48.65431694933887, -2.0475162324369593], [-48.654314440874415, -2.04731715300178], [-48.65431464273022, -2.047179762998464], [-48.654370756930895, -2.0471153562824473], [-48.65437319606928, -2.047054400563242], [-48.65441296099597, -2.0469864397534834], [-48.65439627460341, -2.0469051025592075], [-48.65439636109426, -2.046846221125764], [-48.65443008807994, -2.0467677620194578], [-48.654432983772445, -2.046703276951332], [-48.6544611293916, -2.0466107902046637], [-48.65448082267236, -2.046551937623161], [-48.65451450433926, -2.04650432116144], [-48.65455379618252, -2.046451105184034], [-48.65456787103901, -2.0464034598645324], [-48.65461832970911, -2.046375495270795], [-48.65462128301412, -2.0462717558974957], [-48.65462990412224, -2.046123162713796], [-48.654621674103716, -2.046005387464902], [-48.65469174367121, -2.045974647819588], [-48.65472551997438, -2.0458625421279337], [-48.654750860424826, -2.045772855098175], [-48.654759374462074, -2.0456971627383442], [-48.654762315360294, -2.0456018349884735], [-48.654779310487854, -2.0454728812928438], [-48.65478224313934, -2.045383161298248], [-48.6547823295516, -2.0453242798484337], [-48.65482160486082, -2.0452822793354932], [-48.654841265144704, -2.0452458577449972], [-48.654841372121076, -2.0451729568992985], [-48.654849836747594, -2.0451309110748266], [-48.654891871875, -2.045116953458992], [-48.65490481039895, -2.045037424259803], [-48.654961338235616, -2.0450459972411905], [-48.655009505439665, -2.0449724891921055], [-48.655085996755275, -2.0448622333400635], [-48.65520345419248, -2.0446575743557798], [-48.65522213762774, -2.0445596280849823], [-48.65525419242702, -2.044438945858942], [-48.65526264468283, -2.0444053116539562], [-48.65530466334464, -2.0444025695196557], [-48.65534690404516, -2.0442484178802016], [-48.65535266222328, -2.044141878682953], [-48.65534710962085, -2.044108223895113], [-48.65540042260204, -2.0440438128558593], [-48.65541805649449, -2.0439769448299994], [-48.65547754825551, -2.043892133513975], [-48.65551443634413, -2.04379879911051], [-48.6555577825026, -2.043699166056217], [-48.65555222577575, -2.04366831514603], [-48.65561657803281, -2.0435470829244466]]]}}, {"type": "Feature", "properties": {"id": 316, "Parcela": "Q-143", "ANO": 2007, "Ha": 1.21, "PLANTAS": 245, "VARIEDADE": "AVeBr", "Rot_labels": 60}, "geometry": {"type": "Polygon", "coordinates": [[[-48.64190758489059, -2.056064892356238], [-48.64199825901295, -2.0559235306332906], [-48.641681970016215, -2.055696666162876], [-48.641433655198355, -2.055385004898358], [-48.64130007007123, -2.0553015496710847], [-48.64116301820056, -2.0548752155511134], [-48.64025953779963, -2.05440982892808], [-48.64011168379143, -2.0546642383468297], [-48.63998130584184, -2.0548904385993203], [-48.64190758489059, -2.056064892356238]]]}}, {"type": "Feature", "properties": {"id": 317, "Parcela": "Q-144", "ANO": 2007, "Ha": 1.17, "PLANTAS": 231, "VARIEDADE": "AVeBr", "Rot_labels": 60}, "geometry": {"type": "Polygon", "coordinates": [[[-48.6401574195408, -2.054324715185241], [-48.6399088575588, -2.054180019522412], [-48.639629081120134, -2.0541145153803155], [-48.63952454091447, -2.054074741033373], [-48.63927023275968, -2.053992295177748], [-48.63876180139755, -2.0537028870809264], [-48.638431437483064, -2.0534363831587505], [-48.638225138183074, -2.0533879677573545], [-48.63812049736839, -2.0534161113931795], [-48.63802185981541, -2.0535152941362464], [-48.63797716260491, -2.0536463047346456], [-48.6399079045754, -2.0548224112474576], [-48.6401574195408, -2.054324715185241]]]}}, {"type": "Feature", "properties": {"id": 318, "Parcela": "Q-151", "ANO": 2007, "Ha": 1.82, "PLANTAS": 363, "VARIEDADE": "AVeBr", "Rot_labels": 60}, "geometry": {"type": "Polygon", "coordinates": [[[-48.63647224438766, -2.0515869472333645], [-48.63594806718998, -2.05238420466466], [-48.637868647035745, -2.053582702268701], [-48.63805566124165, -2.053291498421695], [-48.63787500652718, -2.0531072849027754], [-48.63759548896742, -2.0528677409581326], [-48.637332988045216, -2.0525914333967465], [-48.63712157954544, -2.0524185847973686], [-48.637112894175026, -2.0523137739854094], [-48.63707926417744, -2.0521156295906717], [-48.63683654184961, -2.0518464263907834], [-48.63647224438766, -2.0515869472333645]]]}}, {"type": "Feature", "properties": {"id": 312, "Parcela": "Q-131", "ANO": 2009, "Ha": 11.47, "PLANTAS": 1714, "VARIEDADE": "PB-123", "Rot_labels": 17}, "geometry": {"type": "Polygon", "coordinates": [[[-48.653690138890134, -2.0583109511593127], [-48.652761840379945, -2.055179649590053], [-48.652489944395306, -2.0555188416156693], [-48.652365120604955, -2.055812971870314], [-48.6522402298446, -2.0561523811775966], [-48.65212685609376, -2.0563503099299765], [-48.65187191342388, -2.056695186465098], [-48.65171887749094, -2.0569496553588937], [-48.65160023427861, -2.05688722076838], [-48.65119837791157, -2.0571696204857886], [-48.65103992206809, -2.0572656039956603], [-48.650632244117965, -2.057661192625269], [-48.650179685221715, -2.0578189988534334], [-48.6497664618464, -2.058141000038299], [-48.64937025916573, -2.0584234069423792], [-48.649245476136606, -2.0586892366446228], [-48.64867950913445, -2.0590676092781637], [-48.64805675821707, -2.05961003373789], [-48.64786396671266, -2.0599832997562983], [-48.64796563899837, -2.060051369398929], [-48.653690138890134, -2.0583109511593127]]]}}, {"type": "Feature", "properties": {"id": 304, "Parcela": "Q-111", "ANO": 2009, "Ha": 10.27, "PLANTAS": 1563, "VARIEDADE": "PB-123", "Rot_labels": 17}, "geometry": {"type": "MultiPolygon", "coordinates": [[[[-48.66641344575862, -2.054564842142681], [-48.66253014247575, -2.0557197355367074], [-48.66257749381811, -2.0558704329777178], [-48.66404845055843, -2.0553989396393604], [-48.66445892810129, -2.0552703310065317], [-48.6645466328404, -2.0551920094433376], [-48.66512638743951, -2.055016420277007], [-48.666459467711746, -2.0546179794050032], [-48.66641344575862, -2.054564842142681]]], [[[-48.66249913033228, -2.0556481614401263], [-48.66600885577707, -2.0546080874920345], [-48.66617501810696, -2.0544698893231472], [-48.66636167148751, -2.0545047743039597], [-48.666389432898015, -2.054435593875066], [-48.66482024443641, -2.052537259656533], [-48.662370884530205, -2.0533090707403736], [-48.66241003092413, -2.053603445381763], [-48.662256372749034, -2.054282412318604], [-48.66222742029435, -2.05474648495844], [-48.66249913033228, -2.0556481614401263]]]]}}, {"type": "Feature", "properties": {"id": 319, "Parcela": "Q-152", "ANO": 2007, "Ha": 0.33, "PLANTAS": 57, "VARIEDADE": "AVeBr", "Rot_labels": 60}, "geometry": {"type": "Polygon", "coordinates": [[[-48.63644116010895, -2.0515784112667914], [-48.63622941309227, -2.0513913218628095], [-48.63600861414342, -2.0515890878433005], [-48.6359771477291, -2.05183807381068], [-48.635719261757956, -2.052262177857373], [-48.63592264529466, -2.052370017260949], [-48.63644116010895, -2.0515784112667914]]]}}, {"type": "Feature", "properties": {"id": 302, "Parcela": "P-151", "ANO": 2007, "Ha": 12.33, "PLANTAS": 2464, "VARIEDADE": "AVeBr", "Rot_labels": 60}, "geometry": {"type": "MultiPolygon", "coordinates": [[[[-48.635899907555036, -2.0524520510458806], [-48.63508663240123, -2.0537497723872375], [-48.6355160153264, -2.0539654853762053], [-48.63561780381826, -2.0539543172620536], [-48.63580940009462, -2.05438474994863], [-48.6364645897102, -2.0548385124193933], [-48.63644425825517, -2.0552035416523102], [-48.636551393868025, -2.0553989656026075], [-48.63662169862003, -2.055648103181104], [-48.637843117981014, -2.0536406776926883], [-48.635899907555036, -2.0524520510458806]]], [[[-48.63596157779837, -2.056609291828368], [-48.63593423379497, -2.055986669194621], [-48.63597954988263, -2.0559301383670974], [-48.635873748025894, -2.054837632562067], [-48.63482867815756, -2.0542191542043473], [-48.633230331074174, -2.0568542506221035], [-48.635258612719724, -2.057864726662304], [-48.63595571332277, -2.056750778970019], [-48.63596157779837, -2.056609291828368]]]]}}, {"type": "Feature", "properties": {"id": 303, "Parcela": "P-152", "ANO": 2007, "Ha": 4.41, "PLANTAS": 869, "VARIEDADE": "AVeBr", "Rot_labels": 60}, "geometry": {"type": "MultiPolygon", "coordinates": [[[[-48.6358843633172, -2.052449198004671], [-48.63569232974997, -2.0523130763013775], [-48.63556783303453, -2.0523864689289573], [-48.635222402603105, -2.0527481842375876], [-48.63516844184413, -2.052915068975413], [-48.634944929025366, -2.053036422653013], [-48.634653055470565, -2.053502924105789], [-48.63507322732956, -2.053734187889235], [-48.6358843633172, -2.052449198004671]]], [[[-48.63480957914952, -2.0542304454164273], [-48.634216437332434, -2.053875822515057], [-48.63404676757542, -2.053909528714803], [-48.634024025448994, -2.0539943922434745], [-48.63352592853496, -2.0543615386971483], [-48.63342951629357, -2.05455948886668], [-48.63319709699973, -2.0549666497133936], [-48.63311207258846, -2.055110848432033], [-48.633063811632034, -2.0552466122233866], [-48.6328514758224, -2.055455708964356], [-48.63281732025801, -2.0556113031315086], [-48.632760426570144, -2.0558489307877386], [-48.6327066252999, -2.0559082786440883], [-48.632508339958015, -2.056173994362345], [-48.63243747557028, -2.0563012345704377], [-48.6323440964254, -2.0563605233079394], [-48.63234394888188, -2.056459569946779], [-48.63245969945025, -2.056564449417229], [-48.632578492015554, -2.0565250079899777], [-48.632677398709035, -2.0565506248180725], [-48.63320277633949, -2.0568485496731936], [-48.63480957914952, -2.0542304454164273]]]]}}, {"type": "Feature", "properties": {"id": 367, "Parcela": "P-121", "ANO": 2020, "Ha": 4.14, "PLANTAS": 567, "VARIEDADE": "PB-141", "Rot_labels": 17}, "geometry": {"type": "Polygon", "coordinates": [[[-48.65885761841013, -2.062866346430626], [-48.65832598173481, -2.0629674378773366], [-48.65811653717732, -2.0631312655197616], [-48.65798055413284, -2.063323501543427], [-48.65772026439314, -2.0634589540855535], [-48.65755024780741, -2.0637247185561813], [-48.65707466656174, -2.0641541676863193], [-48.65682020669167, -2.0641707701513097], [-48.656740906833456, -2.0642668712039516], [-48.65649202571062, -2.0643344211367483], [-48.656361704841075, -2.06452100516005], [-48.65630964465837, -2.0653133165124617], [-48.656405722571854, -2.0653417586803453], [-48.65657560560879, -2.0651665532613053], [-48.657011248444924, -2.0649804221612977], [-48.65737905872674, -2.064782870390268], [-48.65763923990813, -2.064720997032785], [-48.65801246147517, -2.0646875908134463], [-48.658629446134945, -2.0642243912559675], [-48.65886724522939, -2.0640040063672034], [-48.65950665361595, -2.063671017513659], [-48.65976118076422, -2.06360913513225], [-48.659885797069684, -2.0634565014411126], [-48.65938856120524, -2.063235027963656], [-48.65906646921305, -2.0631043726838363], [-48.65885761841013, -2.062866346430626]]]}}, {"type": "Feature", "properties": {"id": 373, "Parcela": "PP-134", "ANO": 2020, "Ha": 9.25, "PLANTAS": 1420, "VARIEDADE": "PB-141", "Rot_labels": -35}, "geometry": {"type": "Polygon", "coordinates": [[[-48.65138192193527, -2.067329409914745], [-48.65081114446754, -2.0671361237176185], [-48.65062455947409, -2.0671358459251636], [-48.65023446935131, -2.0671069656091543], [-48.64982199853975, -2.066919574902306], [-48.64966382713734, -2.0668231211853962], [-48.64952266007804, -2.0666983933448315], [-48.64929665656152, -2.066590518840185], [-48.649172510698804, -2.066426197147596], [-48.649059731896614, -2.066222273180377], [-48.64905430491984, -2.0660694480973625], [-48.64904886110662, -2.0659279427682926], [-48.6489132725425, -2.065854162320518], [-48.64870948178431, -2.0660179955912694], [-48.64838147796276, -2.066062786152249], [-48.64835331694885, -2.065989165686254], [-48.6479802657192, -2.0659093715986407], [-48.647861521731286, -2.065914854587783], [-48.647748423411926, -2.0659260058617477], [-48.64760141748854, -2.06592578683988], [-48.64757336591965, -2.0657785880895525], [-48.64724576635288, -2.0655517047214564], [-48.64699700408848, -2.06554001431302], [-48.64679367642028, -2.065392554461796], [-48.646736933734786, -2.065528307018276], [-48.646618055196654, -2.0656243478047207], [-48.64653315156951, -2.0656864799324985], [-48.64651585260744, -2.0659128492926433], [-48.64641097867696, -2.0660966390031477], [-48.64636280821343, -2.066171088915832], [-48.65039158598862, -2.069180607545914], [-48.65151345563651, -2.067595620953604], [-48.65138192193527, -2.067329409914745]]]}}, {"type": "Feature", "properties": {"id": 372, "Parcela": "PP-132", "ANO": 2020, "Ha": 14.09, "PLANTAS": 1949, "VARIEDADE": "PB-141", "Rot_labels": 17}, "geometry": {"type": "MultiPolygon", "coordinates": [[[[-48.651766360166846, -2.0662922729609305], [-48.651043533840046, -2.064106137891631], [-48.64826815193416, -2.064919320430429], [-48.64883882665726, -2.0651805247885573], [-48.64948130509162, -2.0653569376679553], [-48.649956102148415, -2.0654557490562486], [-48.650177497665496, -2.065493811122828], [-48.650363830277314, -2.0656638851999376], [-48.6506406283024, -2.0658340939101714], [-48.650731076869235, -2.0658455482809446], [-48.650798707398295, -2.065992806202915], [-48.65090583249527, -2.0661967218690007], [-48.65095088029243, -2.066321306627151], [-48.65108078986124, -2.066412058294034], [-48.65127297849421, -2.066446303661136], [-48.65134087800737, -2.0664124453031842], [-48.651766360166846, -2.0662922729609305]]], [[[-48.651172653698644, -2.0640786416228454], [-48.65117706514641, -2.064212474443974], [-48.65183324576704, -2.066264684249651], [-48.65526657551975, -2.0652353594432604], [-48.655283957062416, -2.064952389534889], [-48.65526738040636, -2.064692008876831], [-48.6550414176124, -2.0645558355718663], [-48.65495109454942, -2.0644594829899066], [-48.65483789521193, -2.0645385537473233], [-48.65463433930648, -2.0645439114982005], [-48.654368705766686, -2.0644699383114196], [-48.65410291295872, -2.064503503151036], [-48.65402391497483, -2.0643958475804873], [-48.653967642390555, -2.064214646943618], [-48.6540585942106, -2.0638865072370445], [-48.65407018744332, -2.0636940875293783], [-48.6542398940422, -2.0636377403035193], [-48.65445474957622, -2.063638059151576], [-48.65475333173676, -2.063734720707638], [-48.654940984937035, -2.0636501004482852], [-48.65523622794732, -2.0634562147409], [-48.655056168165444, -2.062867316661387], [-48.651172653698644, -2.0640786416228454]]]]}}, {"type": "Feature", "properties": {"id": 371, "Parcela": "PP-131", "ANO": 2020, "Ha": 8.37, "PLANTAS": 1293, "VARIEDADE": "PB-141", "Rot_labels": 14}, "geometry": {"type": "MultiPolygon", "coordinates": [[[[-48.65559955802066, -2.0675545324815574], [-48.65550707647786, -2.067007269914482], [-48.65550180836202, -2.066746905990481], [-48.65555855920497, -2.0666054924088613], [-48.655411443314115, -2.0666788527721875], [-48.655298294025485, -2.066723963997293], [-48.655123251656256, -2.0665652263592857], [-48.65494262235015, -2.0663612011386667], [-48.654835194356544, -2.066361041541175], [-48.65476740384304, -2.0663213214411225], [-48.65478454237199, -2.066202488746298], [-48.655005203463006, -2.0661009381031845], [-48.655101289684346, -2.0661237204771945], [-48.65547475423397, -2.0659261781202996], [-48.655616593286524, -2.065598113630988], [-48.655486624347205, -2.0655469814362553], [-48.65536804749331, -2.065439267008212], [-48.65527781664154, -2.0652806554453624], [-48.651830831178046, -2.0663385158732566], [-48.65191570792703, -2.066613216852772], [-48.65200055039712, -2.066910991318001], [-48.65225599238973, -2.0669854567441828], [-48.65243699070747, -2.0669404467908477], [-48.652538638424474, -2.0670254965448525], [-48.65258907155298, -2.0673312063473848], [-48.65336710671728, -2.068200216028453], [-48.65559955802066, -2.0675545324815574]]], [[[-48.65179158481438, -2.0663799897994286], [-48.65161639928021, -2.0663843438838367], [-48.65145034804758, -2.066446395284089], [-48.65132352263133, -2.0664808168244733], [-48.651104545914535, -2.0664827983277525], [-48.651092962753175, -2.066522006028036], [-48.65118966577151, -2.066593677765161], [-48.65125193455539, -2.06657069693317], [-48.651371755945135, -2.066596256079347], [-48.65143632971717, -2.066573278667004], [-48.651537759229385, -2.066566507537316], [-48.65162520125467, -2.0666658536954823], [-48.651648206545225, -2.066695883477448], [-48.6516756881808, -2.0668159065792415], [-48.651719404059506, -2.0668690406841264], [-48.651776994383546, -2.066892199881274], [-48.651839194678615, -2.0669153659376676], [-48.6518737077628, -2.0669569496011517], [-48.651915159783684, -2.066982392136525], [-48.651933627064274, -2.066963960809704], [-48.65194297033817, -2.066880910087795], [-48.65179158481438, -2.0663799897994286]]]]}}, {"type": "Feature", "properties": {"id": 369, "Parcela": "PP-124", "ANO": 2020, "Ha": 10.34, "PLANTAS": 1583, "VARIEDADE": "PB-141", "Rot_labels": -35}, "geometry": {"type": "MultiPolygon", "coordinates": [[[[-48.65259876587381, -2.0684179222177193], [-48.65232126074702, -2.068723143833896], [-48.65216871772285, -2.0686436780749986], [-48.65198241832795, -2.0684509640367232], [-48.65175645618055, -2.068314789971304], [-48.651756658023984, -2.0681789526730143], [-48.65166652883732, -2.0679524224923655], [-48.65153494748486, -2.0677182840934023], [-48.65047067599545, -2.069226004585684], [-48.653196739086304, -2.0712374453205875], [-48.65344284462068, -2.071135933724352], [-48.65371528548959, -2.07043451104395], [-48.65386313351499, -2.069868740372007], [-48.653682588729836, -2.0696081158092543], [-48.65314073597651, -2.068973399623104], [-48.65259876587381, -2.0684179222177193]]], [[[-48.65598232345173, -2.0712104643874074], [-48.654519511732275, -2.070127243406126], [-48.65429327980468, -2.0701721859122943], [-48.654281794979845, -2.0702910269294326], [-48.65437460000177, -2.072521169886724], [-48.654431191758924, -2.072487294763163], [-48.65505805911552, -2.072986301246902], [-48.6553470256731, -2.072579218007439], [-48.65510987205552, -2.072363787961502], [-48.65598232345173, -2.0712104643874074]]]]}}, {"type": "Feature", "properties": {"id": 368, "Parcela": "P-122", "ANO": 2020, "Ha": 2.04, "PLANTAS": 231, "VARIEDADE": "PB-141", "Rot_labels": 17}, "geometry": {"type": "Polygon", "coordinates": [[[-48.65513156445216, -2.062861768559396], [-48.65531543556035, -2.0634223727428482], [-48.655534183489976, -2.0633396850939203], [-48.65567746528801, -2.0633097113631296], [-48.65607323540198, -2.063321618049212], [-48.656212518944024, -2.0634463427535534], [-48.65647257965131, -2.0634655947191205], [-48.65651017875519, -2.0635297962119292], [-48.65661952488094, -2.0635073186421735], [-48.656826987085736, -2.0634095208982646], [-48.656936238338965, -2.063451188921986], [-48.65703810149177, -2.0633909674097106], [-48.65724183336887, -2.0632667510658305], [-48.657298580859624, -2.063127223740256], [-48.65729871476898, -2.0630366651802055], [-48.65706560887074, -2.0626325787036186], [-48.65696778857167, -2.062507915509888], [-48.65690015137055, -2.0623644306413778], [-48.65680408469163, -2.062328442154965], [-48.65513156445216, -2.062861768559396]]]}}, {"type": "Feature", "properties": {"id": 370, "Parcela": "P-125", "ANO": 2020, "Ha": 1.73, "PLANTAS": 269, "VARIEDADE": "PB-141", "Rot_labels": 12}, "geometry": {"type": "Polygon", "coordinates": [[[-48.655569332808405, -2.0676016535276056], [-48.653393453322934, -2.0682266681269454], [-48.65356664701147, -2.068360876953935], [-48.65401836497738, -2.068772835730883], [-48.65420641511931, -2.0690561110166144], [-48.6543435502576, -2.0693581769586618], [-48.6544568398469, -2.0692187344065816], [-48.65486868006867, -2.068562797287061], [-48.655569332808405, -2.0676016535276056]]]}}, {"type": "Feature", "properties": {"id": 322, "Parcela": "R-142", "ANO": 2007, "Ha": 2.73, "PLANTAS": 529, "VARIEDADE": "AVeBr", "Rot_labels": 336}, "geometry": {"type": "Polygon", "coordinates": [[[-48.649418011495264, -2.0482215255973477], [-48.64769999187618, -2.0476756400138227], [-48.647462573560375, -2.04764133010001], [-48.64740595840438, -2.0476921854245487], [-48.647434069946335, -2.047799764702959], [-48.647445219457346, -2.0479073189314683], [-48.647439507049164, -2.0479469296688113], [-48.64742798210867, -2.0480940695795287], [-48.64738259149986, -2.048201540283852], [-48.64730305984659, -2.048456117460049], [-48.64735386248722, -2.0485127913401335], [-48.64738197397556, -2.048620370632151], [-48.64867556681459, -2.049420325625061], [-48.648760352074746, -2.049437430544781], [-48.64945186057216, -2.0482725145726404], [-48.649418011495264, -2.0482215255973477]]]}}]}