{"type": "FeatureCollection", "features": [{"type": "Feature", "properties": {"id": 376, "Parcela": "P-091", "ANO": 2021, "Ha": 13.86, "PLANTAS": 1725, "VARIEDADE": "PB-143", "Rot_labels": 20}, "geometry": {"type": "Polygon", "coordinates": [[[-48.672836464181444, -2.089982039419051], [-48.67320382286975, -2.09009578687163], [-48.67367884852026, -2.0900512151071142], [-48.67470816098069, -2.089894269224458], [-48.67508135966344, -2.089883505181831], [-48.67527357124616, -2.0899064314607787], [-48.675533617312816, -2.089940778742165], [-48.675737137518524, -2.0899637218211895], [-48.675872755991264, -2.0900205237548275], [-48.675883879482996, -2.090145060271877], [-48.67600818943136, -2.0902018453757325], [-48.67630214453471, -2.090247563097656], [-48.676720544312055, -2.090259506053128], [-48.67524529423241, -2.0861028725349584], [-48.672167698844916, -2.0872302904362185], [-48.67319498928103, -2.088431737521645], [-48.673098496603, -2.0886806331815433], [-48.67285462270407, -2.089178348533771], [-48.67275807087357, -2.089466863869926], [-48.672837196839616, -2.089489621766897], [-48.672939032476485, -2.089450153669266], [-48.67296727852263, -2.089467175731338], [-48.67301790585524, -2.0896427107714177], [-48.67301777954775, -2.089727610377601], [-48.67284798325721, -2.089840556954285], [-48.672836464181444, -2.089982039419051]]]}}, {"type": "Feature", "properties": {"id": 377, "Parcela": "P-092", "ANO": 2021, "Ha": 12.47, "PLANTAS": 1718, "VARIEDADE": "PB-141", "Rot_labels": 20}, "geometry": {"type": "Polygon", "coordinates": [[[-48.67746300669588, -2.0852684875501106], [-48.67533404156429, -2.0860703590850855], [-48.676829082016695, -2.090227022208695], [-48.67748972824872, -2.090124810896877], [-48.67803311083747, -2.089740739011483], [-48.67835023794552, -2.0894129302738644], [-48.678569538238186, -2.0893068413528093], [-48.67885694287488, -2.0894405527667366], [-48.67903989264985, -2.089527155932598], [-48.67746300669588, -2.0852684875501106]]]}}, {"type": "Feature", "properties": {"id": 378, "Parcela": "P-093", "ANO": 2021, "Ha": 15.67, "PLANTAS": 2496, "VARIEDADE": "PB-141", "Rot_labels": 20}, "geometry": {"type": "MultiPolygon", "coordinates": [[[[-48.67969844808817, -2.0844365738981043], [-48.67759594061317, -2.085229064884627], [-48.67913903579843, -2.089397123080047], [-48.679274453163735, -2.0895897647764894], [-48.67944234901408, -2.0897453109156805], [-48.679534164128206, -2.089850511431479], [-48.67998729644643, -2.089319143676914], [-48.68071183429444, -2.088788178554366], [-48.6812684219956, -2.088628500175036], [-48.68110851150251, -2.0882445077080907], [-48.68038940971087, -2.086181873299905], [-48.67969844808817, -2.0844365738981043]]], [[[-48.68178579560321, -2.0897381303091245], [-48.681083305913255, -2.0899433740302746], [-48.680958709980594, -2.090079029345547], [-48.68090193199667, -2.0902374254816194], [-48.68072099453726, -2.090237156585362], [-48.68065299188046, -2.0903389358257716], [-48.680562170512616, -2.090576521535068], [-48.68031312957706, -2.0907459517786577], [-48.67996222729954, -2.09097183058493], [-48.67983749676, -2.091198045631797], [-48.67984860369874, -2.091333902483983], [-48.68223537844284, -2.0911876247479975], [-48.68195392210959, -2.0903382031711435], [-48.68178579560321, -2.0897381303091245]]]]}}, {"type": "Feature", "properties": {"id": 379, "Parcela": "P-094", "ANO": 2021, "Ha": 18.99, "PLANTAS": 2886, "VARIEDADE": "PB-141", "Rot_labels": 20}, "geometry": {"type": "MultiPolygon", "coordinates": [[[[-48.68203929785829, -2.0835602886588536], [-48.67983630435867, -2.0843720673166635], [-48.68123338142263, -2.0882089949289635], [-48.6813798792215, -2.0882231685750012], [-48.68151569957514, -2.0881441298853862], [-48.68165145286086, -2.0881103712372684], [-48.68191148322809, -2.0881560372980488], [-48.68210349449588, -2.0883148028598164], [-48.682419950600355, -2.0884397929584857], [-48.68266862229748, -2.0885194022745064], [-48.682917394621704, -2.088531091415018], [-48.68339259031142, -2.088373315543469], [-48.683739946140726, -2.0882606300980617], [-48.68203929785829, -2.0835602886588536]]], [[[-48.68406409498943, -2.0892912363158422], [-48.683668243393754, -2.089324609245574], [-48.683475854593695, -2.0894205442783087], [-48.68320995147046, -2.089522030189107], [-48.682989483986, -2.089487742823229], [-48.682774662461256, -2.089459123842764], [-48.68239584952301, -2.089441581446316], [-48.68215831866155, -2.0894751889408], [-48.68203378152203, -2.089571224416178], [-48.68185267622767, -2.0896841559243278], [-48.68183334791473, -2.089803316323946], [-48.682311916147185, -2.0911850727841266], [-48.682969921039486, -2.09124232195054], [-48.6847791162806, -2.091369529121238], [-48.68481882225683, -2.0912846875532995], [-48.68406409498943, -2.0892912363158422]]]]}}, {"type": "Feature", "properties": {"id": 380, "Parcela": "Q-091", "ANO": 2021, "Ha": 5.33, "PLANTAS": 840, "VARIEDADE": "PB-141", "Rot_labels": 20}, "geometry": {"type": "Polygon", "coordinates": [[[-48.68419704657494, -2.089240493245575], [-48.684940448731425, -2.091245247838969], [-48.68490628808251, -2.091403678092667], [-48.6860970633891, -2.09162650835005], [-48.68637450509163, -2.091296373647607], [-48.68660870746028, -2.0910892418198976], [-48.68694860331147, -2.0906595826384966], [-48.68702234395298, -2.0905012107642316], [-48.68700006157701, -2.0902747760345473], [-48.6865880330381, -2.089776081684181], [-48.686226424714086, -2.0895944244438196], [-48.68593810491634, -2.0895600368404765], [-48.685751554443925, -2.0895314601070143], [-48.68552555780818, -2.089412264291864], [-48.685412706060475, -2.08925361597156], [-48.684615306090116, -2.0893486541984085], [-48.68419704657494, -2.089240493245575]]]}}]}