{"type": "FeatureCollection", "features": [{"type": "Feature", "geometry": {"type": "Polygon", "coordinates": [[[-48.66511234587093, -2.11029727125011], [-48.66492519157036, -2.1104300154183764], [-48.66491663986487, -2.110489600106329], [-48.66479615304357, -2.110560260469236], [-48.66473869341646, -2.110642582226128], [-48.66469848098156, -2.110632437124901], [-48.66470370848187, -2.1105704528231284], [-48.66463193869768, -2.1104902711226363], [-48.664534471029135, -2.1104255486463366], [-48.66445751232443, -2.1103815212253836], [-48.664365137208314, -2.1103452195338415], [-48.664336964396696, -2.1102986828245456], [-48.664298502405885, -2.1102650456074983], [-48.664290923379, -2.1101823779117135], [-48.664321969140516, -2.110125440111865], [-48.66436157207925, -2.1100517124632696], [-48.66445766105959, -2.1099326624592423], [-48.66451195780085, -2.1099220658281936], [-48.664576930882795, -2.1099562948095656], [-48.66457593611527, -2.1100690642026287], [-48.66457386601682, -2.110115567390228], [-48.66456247682518, -2.1101695906656066], [-48.66450583229103, -2.1102377667443846], [-48.66478535750874, -2.110479949136364], [-48.664840525983315, -2.110455429338026], [-48.66489699936067, -2.110418620901699], [-48.66491963446007, -2.110373247396669], [-48.66497329538986, -2.1103307587405356], [-48.66501236850053, -2.1101937998700833], [-48.664439914620516, -2.109751702565432], [-48.66348100733265, -2.109016323108781], [-48.66247982505162, -2.108270056757946], [-48.66197335789091, -2.1078825843836944], [-48.66186316118949, -2.107745518721098], [-48.66177086350665, -2.1076575571710636], [-48.66171707010643, -2.107574819804869], [-48.66163497675714, -2.107530784730147], [-48.66155544702538, -2.1074893365320295], [-48.66149919780362, -2.10758969936629], [-48.66141988202944, -2.1078109415183053], [-48.66132907916762, -2.1081683890362317], [-48.66130056496915, -2.108372680068474], [-48.66127218637843, -2.1084861561293833], [-48.66122697560573, -2.108537171312361], [-48.661130462837804, -2.1089400176643363], [-48.66109089384573, -2.1089910413545736], [-48.66085840903724, -2.109773970349659], [-48.66094008937779, -2.1098081103784794], [-48.66335557077155, -2.111631238783331], [-48.66402736812202, -2.1121264700154088], [-48.66447882698757, -2.112488957164668], [-48.665729325125675, -2.110801386301858], [-48.66517902701289, -2.1103464491484254], [-48.66511234587093, -2.11029727125011]]]}, "properties": {"id": 265, "Parcela": "M-101", "ANO": 2003, "Ha": 12.85, "PLANTAS": 2920, "VARIEDADE": "PB-123", "Rot_labels": 321, "auxiliary_": null, "auxiliar_1": null, "auxiliar_2": null}}, {"type": "Feature", "geometry": {"type": "Polygon", "coordinates": [[[-48.65718682642817, -2.102134774622204], [-48.65704404829487, -2.1025540866857444], [-48.656987672935244, -2.1025256218918678], [-48.65690848488208, -2.102661724631664], [-48.65686870449452, -2.102854646181147], [-48.656834709859474, -2.1029510856447446], [-48.65680067285496, -2.1030759046892378], [-48.65672702481203, -2.103280126896857], [-48.65659128333158, -2.1035069589635467], [-48.65659682340893, -2.103575078486389], [-48.65664186436818, -2.1036375817763853], [-48.656703822174904, -2.1037057865643694], [-48.65675453881317, -2.1037455947182004], [-48.65682212992823, -2.1038194839553994], [-48.65690664637365, -2.1038933987753388], [-48.65696871437352, -2.103887816644009], [-48.65699694867291, -2.1038708315192025], [-48.65713234090424, -2.103944405908082], [-48.65730271934739, -2.1040745265941796], [-48.657506785121406, -2.104244487895318], [-48.65767033824489, -2.1043741717711537], [-48.657804551674325, -2.1045205303609875], [-48.65793820898639, -2.104543922200855], [-48.65799425540414, -2.1047350804101885], [-48.65819133340956, -2.1048318591384376], [-48.65829846256968, -2.1050363646969057], [-48.65848585852726, -2.105180152392164], [-48.66200830715744, -2.106687992302549], [-48.66208594797978, -2.1065119585268777], [-48.66242967322393, -2.1060422311391624], [-48.66271498024024, -2.1057184710660435], [-48.662833678122794, -2.105571075338231], [-48.6628845474269, -2.105508716578902], [-48.66289586487548, -2.105486029832923], [-48.66293192604762, -2.105432427119006], [-48.66295811083193, -2.105361252721945], [-48.66296225154696, -2.1053187035529723], [-48.66301505836141, -2.105296029340984], [-48.663076724068006, -2.1052706163459898], [-48.663048574251015, -2.1052308422010575], [-48.663101960145724, -2.1051596372270245], [-48.66330299669008, -2.1048679647023456], [-48.66332491394036, -2.1047883269481114], [-48.66327228937958, -2.1047356374965838], [-48.66303559871186, -2.104629377418304], [-48.66240443267802, -2.1043401337133743], [-48.66113912971257, -2.1037940010945517], [-48.66011493075764, -2.1033364846794833], [-48.65908634036076, -2.102883374248278], [-48.65723367026684, -2.102095131814465], [-48.65718682642817, -2.102134774622204]]]}, "properties": {"id": 277, "Parcela": "N-112", "ANO": 1993, "Ha": 17.32, "PLANTAS": 2603, "VARIEDADE": "PB-121", "Rot_labels": -30, "auxiliary_": null, "auxiliar_1": null, "auxiliar_2": null}}, {"type": "Feature", "geometry": {"type": "Polygon", "coordinates": [[[-48.66397107269459, -2.1037312456944552], [-48.66407766912717, -2.103697046922256], [-48.664076761001446, -2.1036356490036465], [-48.66408440017129, -2.1035683469477697], [-48.6641448757174, -2.1034584609507028], [-48.66382802606876, -2.103128754630083], [-48.66354982227974, -2.102941584517419], [-48.66365572935145, -2.1028932631710773], [-48.66367555166336, -2.1028422094045975], [-48.663715078037626, -2.102819565103247], [-48.66384168406653, -2.1028217001155407], [-48.66404445865799, -2.1028683854320627], [-48.66413178799811, -2.103044760756876], [-48.66426284915283, -2.1032397759257906], [-48.66433001486083, -2.103298712239644], [-48.664390146645545, -2.103288176231788], [-48.66479143014296, -2.102776750179561], [-48.6647161384131, -2.1026054711535953], [-48.66466049901808, -2.1024697824850627], [-48.66455799295995, -2.1023417721338107], [-48.66453761697077, -2.1022319660664115], [-48.664496692139046, -2.102128586450278], [-48.66441461586374, -2.1020742209593686], [-48.66438130106652, -2.1020328436128293], [-48.664332551119855, -2.1020121066373427], [-48.66413853591028, -2.102038616129246], [-48.66407126521885, -2.102050281898113], [-48.66403760799785, -2.1020708235354997], [-48.6639922808219, -2.1020736970590557], [-48.663925380016536, -2.1020824216182694], [-48.663884407197884, -2.1021066294326225], [-48.66355974343542, -2.1021693883905055], [-48.66335229120795, -2.1020646436708708], [-48.663147745574136, -2.1019716703537354], [-48.66284238376674, -2.101835889765482], [-48.66212202403669, -2.101553867316032], [-48.66152299741683, -2.1012823237347362], [-48.660322003854645, -2.100750999141234], [-48.65959011628353, -2.10044528351473], [-48.65922156704634, -2.1002731228242624], [-48.65908299506619, -2.1002225589772903], [-48.65895893234645, -2.1003275394321475], [-48.65886391369798, -2.1003999773308806], [-48.65879620400219, -2.100405551196162], [-48.6587341952581, -2.100371402085759], [-48.658683292515576, -2.10045646441506], [-48.65863242358462, -2.100518823036586], [-48.65861548982028, -2.1005244734426936], [-48.658592897375826, -2.1005414671916363], [-48.65854767866346, -2.100598158385295], [-48.65849679280896, -2.1006718688398087], [-48.65845724122651, -2.1007115407574917], [-48.658428973181586, -2.1007512296877344], [-48.65838936239545, -2.100830633067033], [-48.65836108588724, -2.100875997915473], [-48.658332800918764, -2.100927038685232], [-48.65829326623932, -2.10095535873963], [-48.658236789332626, -2.1009950051094672], [-48.658180295506725, -2.101046003320141], [-48.6581463941342, -2.1010800077973184], [-48.65810119230189, -2.1011253470964797], [-48.658033355708675, -2.101216059727004], [-48.65790896603109, -2.101397501977279], [-48.65781286978507, -2.101522227537166], [-48.65772809937361, -2.101618590496027], [-48.65766592988394, -2.10169228381321], [-48.657591293729254, -2.101743397863705], [-48.65752984507419, -2.1017727225576115], [-48.657526864007814, -2.1018109607273407], [-48.65750636503653, -2.1018315219929518], [-48.65745952340443, -2.10186969395721], [-48.65739803525916, -2.1019254942694476], [-48.657400284218554, -2.1020154110398277], [-48.657383333511355, -2.1020324132486747], [-48.65732691581106, -2.102032328078722], [-48.657339321966084, -2.1020813180380156], [-48.658642592500264, -2.102653983754721], [-48.66007151560713, -2.1032827322537915], [-48.662035928104345, -2.1041286310953065], [-48.6625490019035, -2.1043507669651405], [-48.66311165918559, -2.104605958058639], [-48.663351273924754, -2.104712222535678], [-48.66342067886437, -2.1047119140440462], [-48.66388380417322, -2.1041141378196184], [-48.663959329530805, -2.104023236112808], [-48.66399343562043, -2.103901933480548], [-48.6639363832571, -2.103858598903608], [-48.66391443434725, -2.103795629684412], [-48.66397107269459, -2.1037312456944552]]]}, "properties": {"id": 278, "Parcela": "N-113", "ANO": 1993, "Ha": 19.39, "PLANTAS": 2761, "VARIEDADE": "PB-121", "Rot_labels": -30, "auxiliary_": null, "auxiliar_1": null, "auxiliar_2": null}}, {"type": "Feature", "geometry": {"type": "Polygon", "coordinates": [[[-48.66580219719527, -2.0992318105670993], [-48.66587860105317, -2.09918357327666], [-48.66587589212558, -2.0991039305189347], [-48.66538134134896, -2.0989723526613004], [-48.66519480676117, -2.0989350973377126], [-48.6650224035467, -2.0989007074704213], [-48.664544710289164, -2.098840260728082], [-48.66444010716904, -2.098840103536183], [-48.66423233140103, -2.0988284143388523], [-48.663887409141516, -2.0988378507372216], [-48.663849253715384, -2.098830682797149], [-48.663778639327624, -2.098787913131883], [-48.663705134474384, -2.098787802639988], [-48.663634418715574, -2.0988132944463875], [-48.66352700122976, -2.0988046002618463], [-48.66345630237481, -2.0988187151455238], [-48.66338276796323, -2.0988385142290715], [-48.66328097091393, -2.0988525823460824], [-48.66323574139707, -2.0988496701077426], [-48.663182013654655, -2.0988581220240476], [-48.66307458775247, -2.0988551162612663], [-48.66298125091832, -2.0988834182407445], [-48.66290772074768, -2.098900373065121], [-48.66281159061841, -2.09890591696606], [-48.66280098156761, -2.098910878418427], [-48.66273526715503, -2.0989001137181837], [-48.66280260950167, -2.098962798398738], [-48.662729532641045, -2.0989541455112692], [-48.662658901433254, -2.098922752727131], [-48.66246948099773, -2.098925312061898], [-48.66237897340829, -2.098952196127751], [-48.662304038159384, -2.0989634603357925], [-48.66228135155444, -2.099010356030461], [-48.66225169652001, -2.0989904017997496], [-48.662220625819565, -2.0989718675554405], [-48.66219800473659, -2.098974677757708], [-48.662171151448185, -2.098971793130172], [-48.66208496273788, -2.0989460653904843], [-48.6619776003299, -2.0989003961783634], [-48.661918231097495, -2.098900306861633], [-48.661875849870626, -2.0988831777162065], [-48.66180238739103, -2.0988546248869047], [-48.661788268772526, -2.098843226723223], [-48.66176006958585, -2.098794832378712], [-48.66169508843344, -2.098766292311024], [-48.661596224300396, -2.098709258963489], [-48.6615169977074, -2.0987546474441143], [-48.661477443604305, -2.0987375225507923], [-48.66141526420722, -2.0987260520742397], [-48.66139822441279, -2.0986797262013006], [-48.66131930285758, -2.098637037836534], [-48.66124302646443, -2.098580737204625], [-48.661183691101705, -2.0985578940894993], [-48.66112156246542, -2.0985122929371385], [-48.66104310058615, -2.0984804460927102], [-48.660892829234356, -2.098335606565818], [-48.66082024225488, -2.098477360339842], [-48.66079758655893, -2.098536923685732], [-48.66078619330339, -2.0986106938453], [-48.66075789160742, -2.098673086662832], [-48.66072677746137, -2.0987297992979497], [-48.66068715000931, -2.0988205547929697], [-48.66064476919161, -2.09886589856935], [-48.66054154947836, -2.0988185967225608], [-48.66045946619102, -2.09888389040353], [-48.66040569200498, -2.0989236286409447], [-48.66038300326087, -2.0989719463554195], [-48.660385061972924, -2.098990378413479], [-48.660345451373615, -2.099069782005784], [-48.66032000852127, -2.099106637339482], [-48.66029457411072, -2.0991378167395913], [-48.66026069392904, -2.099157631532481], [-48.660229588191086, -2.0992086681947453], [-48.660161806712786, -2.0992624875988564], [-48.66009965855756, -2.0993219914218257], [-48.66004590126862, -2.099429753393456], [-48.65999786597543, -2.0994836025114845], [-48.65991604762031, -2.0994919931970366], [-48.65986522100044, -2.099525972299786], [-48.65980590215829, -2.099579804405591], [-48.659780446610625, -2.0996251736012077], [-48.659718268861006, -2.099704543129221], [-48.659681542436005, -2.099741381425702], [-48.659613786267926, -2.0997781729714773], [-48.659506537702875, -2.099814905009797], [-48.65945854040555, -2.0998432123991475], [-48.65941901421311, -2.099865856608017], [-48.659382253981384, -2.0999253985973887], [-48.659171015246784, -2.1001663731198343], [-48.66037650901544, -2.100720928333012], [-48.66097236199577, -2.100966820316403], [-48.662445375275, -2.101635987996156], [-48.662813577723036, -2.101789513744809], [-48.663076575813555, -2.1019016964887345], [-48.66324312409701, -2.101984316438876], [-48.6635324300198, -2.1021024223052303], [-48.66365815107755, -2.1021114368679403], [-48.66417490519041, -2.10195141828757], [-48.66422135299153, -2.1019235257917437], [-48.6642326872289, -2.10188948708897], [-48.66429486516068, -2.1018101172226284], [-48.66432883409825, -2.101730704894725], [-48.664408038669116, -2.10158324910073], [-48.66451543559885, -2.1014187537679945], [-48.66457566848709, -2.1014719368001447], [-48.66467347788226, -2.1016048149887787], [-48.66484656996793, -2.1018098604575344], [-48.66504240869966, -2.1019277169122232], [-48.66510659151243, -2.1018595517865877], [-48.665351743703006, -2.1017689049930377], [-48.66555313836471, -2.1017098430256893], [-48.6655899364414, -2.1016500746853723], [-48.665561821013185, -2.1015647930617374], [-48.66543108000951, -2.1014302799034934], [-48.66532592536843, -2.1013552144649994], [-48.66503360706189, -2.1011042228935386], [-48.66472330129134, -2.1008635363520702], [-48.664631007074306, -2.1007729922373413], [-48.66449508908792, -2.100666884467277], [-48.66438218997285, -2.100620220512469], [-48.664282139681724, -2.100565826859583], [-48.66415025406597, -2.1004136133983096], [-48.664184163858316, -2.100373932679551], [-48.664636072215956, -2.099994322841501], [-48.66483461369405, -2.099708899613548], [-48.665053480342664, -2.0995499513037754], [-48.66517812672665, -2.0993794843815716], [-48.665356311113044, -2.0992944175982338], [-48.665544959332365, -2.099211514460333], [-48.66580219719527, -2.0992318105670993]]]}, "properties": {"id": 279, "Parcela": "N-114", "ANO": 1993, "Ha": 16.71, "PLANTAS": 2599, "VARIEDADE": "PB-121", "Rot_labels": -30, "auxiliary_": null, "auxiliar_1": null, "auxiliar_2": null}}, {"type": "Feature", "geometry": {"type": "Polygon", "coordinates": [[[-48.66692237074023, -2.117339060960305], [-48.66692912366466, -2.117281883610988], [-48.666990008350275, -2.1171066561492924], [-48.667029501394175, -2.117106715948269], [-48.66706338654017, -2.1170840633715136], [-48.667125591382344, -2.1169876660456164], [-48.667170989480056, -2.1168117796657078], [-48.66728959594344, -2.1167268196357427], [-48.66742711736027, -2.1165532201751613], [-48.667671211422096, -2.116237945314557], [-48.66686470946624, -2.1158719461638684], [-48.665269190671474, -2.1151811589594454], [-48.662978185588074, -2.114195142738643], [-48.65997723723408, -2.112879135004133], [-48.659918541458325, -2.1129383049266606], [-48.65971169254554, -2.1135538310061164], [-48.65964346340978, -2.113905635886804], [-48.65947363881082, -2.1142856663110607], [-48.65948471827194, -2.1144219056867213], [-48.659371447854596, -2.114711206768689], [-48.65931476580425, -2.1148870748853095], [-48.659354190491484, -2.1149325422327774], [-48.6591985636692, -2.115250158638799], [-48.659189896628234, -2.1153863680205074], [-48.6590538712818, -2.1158005050362103], [-48.65923292568227, -2.1158250765510815], [-48.65945424520208, -2.1159316595338495], [-48.659521930119105, -2.115943114174544], [-48.65963619993606, -2.1159904266652965], [-48.65970801683848, -2.1160058320320094], [-48.65975873371455, -2.116045640614852], [-48.659803868357265, -2.116045709133832], [-48.65986880048693, -2.1160117520544315], [-48.65992240639115, -2.116006157486349], [-48.660023865711146, -2.1160687468629336], [-48.66046362221841, -2.1162737483241383], [-48.66051441574798, -2.1162624735300666], [-48.66054109082306, -2.1161638821043223], [-48.66061276843152, -2.116126067851816], [-48.660676730740406, -2.1162058032989646], [-48.6606892275048, -2.1163194982970657], [-48.660795878000165, -2.1162900390113895], [-48.66099169817719, -2.1163521129421796], [-48.661131996302636, -2.116390568605019], [-48.66129278941897, -2.116411404854352], [-48.661538288071746, -2.1164941463995377], [-48.66175168812037, -2.116532712951529], [-48.6619679240975, -2.116630118841308], [-48.66237422061934, -2.1167307547998226], [-48.66336786896935, -2.1170911559363], [-48.663604604742524, -2.1171680005911306], [-48.663839157431525, -2.1172382229727726], [-48.66416578125044, -2.117333589876073], [-48.664422461309485, -2.1174376479404162], [-48.66470944443464, -2.1174785602306923], [-48.66549858557071, -2.117720980632629], [-48.666243905703006, -2.117936858647078], [-48.66648360590871, -2.11798723179146], [-48.66658010957547, -2.117981494479912], [-48.66672345147907, -2.117940526969333], [-48.66679672977386, -2.11782296746906], [-48.666882419049514, -2.1176455028457943], [-48.66692237074023, -2.117339060960305]]]}, "properties": {"id": 268, "Parcela": "M-104", "ANO": 2010, "Ha": 25.48, "PLANTAS": 3935, "VARIEDADE": "PB-121", "Rot_labels": 339, "auxiliary_": null, "auxiliar_1": null, "auxiliar_2": null}}, {"type": "Feature", "geometry": {"type": "Polygon", "coordinates": [[[-48.668103485311136, -2.1153706572374498], [-48.66778397978353, -2.1151320123309683], [-48.66750224442434, -2.1149082072047927], [-48.66673121876945, -2.1143178623008256], [-48.66665304069785, -2.1141878799827065], [-48.66418568353034, -2.112337780564679], [-48.66090251712164, -2.1098533249215814], [-48.66080864651009, -2.110039245537567], [-48.660757691991044, -2.110158363296498], [-48.660797108307754, -2.110209506456045], [-48.660683949535574, -2.110425021139521], [-48.660516875123236, -2.110853302092779], [-48.66050825533483, -2.1109582940199902], [-48.66050257106805, -2.1109866651373874], [-48.66047988493882, -2.1110660940141264], [-48.66044590668117, -2.11115118173422], [-48.66039209289575, -2.111295836827376], [-48.660349558473186, -2.1114433469612006], [-48.66034097684696, -2.1115227971805144], [-48.66030978123432, -2.1116334308393974], [-48.66021915115417, -2.1118745211657144], [-48.6602077188528, -2.1119738328573234], [-48.66020762964906, -2.112033430127896], [-48.660204736525785, -2.112081671263769], [-48.660170766672906, -2.1121610830048847], [-48.66014528503025, -2.1122234797727972], [-48.66009151356888, -2.1123397551309036], [-48.66004617932554, -2.112473071091656], [-48.66002621625081, -2.1126177773771806], [-48.66002900316524, -2.112640485371263], [-48.659991086469425, -2.1128352046140355], [-48.660105054460836, -2.112882445329145], [-48.660403115174, -2.113012334026646], [-48.66063398415212, -2.113100936396553], [-48.660861880674865, -2.1132218935116307], [-48.66131191385315, -2.1134049640030472], [-48.66166548823332, -2.1135643543198306], [-48.66280221167731, -2.114060290912111], [-48.66361749969569, -2.1144145363754845], [-48.664181471984364, -2.114665439755166], [-48.66493459825462, -2.11496910174134], [-48.66598447530419, -2.115438910338281], [-48.66625625647438, -2.1155452251150786], [-48.66664781953633, -2.11572232346376], [-48.666972194825846, -2.115855193687647], [-48.667439731638424, -2.116067708160035], [-48.66762091057684, -2.1161444681779176], [-48.66769429233959, -2.1161582880342458], [-48.66786608011098, -2.1160494132410954], [-48.667976452737534, -2.115811189278153], [-48.66808118343676, -2.1155729567364374], [-48.668103485311136, -2.1153706572374498]]]}, "properties": {"id": 267, "Parcela": "M-103", "ANO": 2010, "Ha": 21.43, "PLANTAS": 3227, "VARIEDADE": "PB-121", "Rot_labels": 332, "auxiliary_": null, "auxiliar_1": null, "auxiliar_2": null}}, {"type": "Feature", "geometry": {"type": "Polygon", "coordinates": [[[-48.66519399972415, -2.105564044888081], [-48.6634756597716, -2.1048113080986077], [-48.663287181535665, -2.1050694373068306], [-48.662738750607105, -2.105857567806359], [-48.662618188905974, -2.1060150213970865], [-48.66220172104789, -2.106566251374442], [-48.66215078392435, -2.106674017552227], [-48.66211499134353, -2.1067644373810905], [-48.66281484232953, -2.107074378209902], [-48.663785002796466, -2.107496513792727], [-48.66454185242169, -2.1078212494091546], [-48.66462954362575, -2.107841974054112], [-48.66471146565713, -2.107809738333825], [-48.66469411425053, -2.107680274768171], [-48.66480160638757, -2.1072342619627773], [-48.66487535606432, -2.1069619270084035], [-48.66500016954524, -2.1064966862790127], [-48.66509080219675, -2.10625275650686], [-48.66523263376413, -2.105725105665928], [-48.66519399972415, -2.105564044888081]]]}, "properties": {"id": 273, "Parcela": "N-102", "ANO": 1999, "Ha": 6.79, "PLANTAS": 1046, "VARIEDADE": "PB-141", "Rot_labels": -30, "auxiliary_": null, "auxiliar_1": null, "auxiliar_2": null}}, {"type": "Feature", "geometry": {"type": "Polygon", "coordinates": [[[-48.64773743250803, -2.1019789488014413], [-48.647558944584404, -2.1020838497575456], [-48.64752591961074, -2.102236401498333], [-48.64745209064725, -2.102261035800583], [-48.647394610454484, -2.102318689867472], [-48.64736158543829, -2.1024712415806732], [-48.647345094549706, -2.1025330821628945], [-48.647328566579546, -2.102619668922456], [-48.64706145301963, -2.103048198476849], [-48.64704899364101, -2.1031554132399304], [-48.647081610767756, -2.1032750695044857], [-48.647106078246715, -2.1033617184341913], [-48.64715100638687, -2.1034731446421113], [-48.64717951158518, -2.10360104342538], [-48.64714228171323, -2.1038237030200864], [-48.647109281220075, -2.1039597572118125], [-48.64704762712886, -2.104066897305422], [-48.64714734869373, -2.104094278611669], [-48.647424198407656, -2.1042312204148006], [-48.64757107897157, -2.10431676935873], [-48.64762515099995, -2.104410096721284], [-48.64788731189011, -2.104584604229048], [-48.64900731118039, -2.105216296935277], [-48.649621678709956, -2.105565642008271], [-48.649763033378726, -2.1055658564597994], [-48.64984773534817, -2.105639934312667], [-48.64986147693721, -2.1057704100083554], [-48.65011295545612, -2.1058706338541895], [-48.65125723287012, -2.1064583599258944], [-48.65186631630468, -2.1068032722720837], [-48.65312459994703, -2.1073599623271595], [-48.65327143892245, -2.107473953473711], [-48.6536950189442, -2.1077988360112925], [-48.654064556996545, -2.107834852806283], [-48.65409333438548, -2.1077812793293593], [-48.654113931134226, -2.1077153202720575], [-48.65413460817253, -2.107595744231605], [-48.65414701191881, -2.1075256483586897], [-48.65409791574068, -2.1074595836671035], [-48.65404885662124, -2.10736877268114], [-48.65408995743398, -2.1072987203022318], [-48.6541269401324, -2.1072410348547996], [-48.65419280514855, -2.1070596613900174], [-48.65423807960882, -2.1069401226005313], [-48.65421774222581, -2.1068328575735125], [-48.654230164446105, -2.1067503885378804], [-48.65425893559816, -2.106700939411943], [-48.65429184336757, -2.1066267501919778], [-48.65432068241363, -2.1065319328387946], [-48.654353639548525, -2.10642474853922], [-48.65446452882343, -2.106290873711573], [-48.6544153893998, -2.1062536797459432], [-48.65427411125963, -2.1061482937445013], [-48.65425058700543, -2.1060576389025405], [-48.654117149222955, -2.106010943001786], [-48.653937644267366, -2.105866023757188], [-48.65374903668589, -2.1057084206563084], [-48.65336833575084, -2.1054208875297693], [-48.65274771740967, -2.10494984387138], [-48.651998789281095, -2.1044372782568983], [-48.65104108941415, -2.1037583536279794], [-48.64974181672524, -2.102847907476055], [-48.64958271305671, -2.1027960067935947], [-48.649505744134984, -2.102759728442641], [-48.649403170475, -2.102676917649827], [-48.64905434743381, -2.102443920900807], [-48.64894154276923, -2.1023352648310047], [-48.648843854483715, -2.1022858294224958], [-48.64861324392263, -2.1021126311562544], [-48.64837183568087, -2.1021587589347175], [-48.647964592155915, -2.1020647583338086], [-48.64787992446904, -2.101967927128424], [-48.64773743250803, -2.1019789488014413]], [[-48.65515368333788, -2.1066282897004194], [-48.65438020225595, -2.1085306401792736], [-48.654287969853044, -2.1086751448494967], [-48.65417262946373, -2.1088890438127605], [-48.65417818971068, -2.109016339410064], [-48.65403379080825, -2.109432696524929], [-48.654085384887374, -2.1095427046128163], [-48.65416590734096, -2.10953704099384], [-48.65431564106022, -2.1093984094061473], [-48.65450580504121, -2.109144123462206], [-48.65470154656819, -2.109005561529419], [-48.65476508476084, -2.1088205128293738], [-48.6549036023481, -2.108490933195313], [-48.65497833914384, -2.108508403833846], [-48.655249163883376, -2.10815588146322], [-48.6559865714178, -2.107300702149938], [-48.655929217394025, -2.1071964711215094], [-48.65515368333788, -2.1066282897004194]], [[-48.65596056803517, -2.105460782262581], [-48.65556020472048, -2.1059085748915307], [-48.65535861334765, -2.106113665133531], [-48.65521433261661, -2.106451915111327], [-48.65518828442593, -2.1065646984681785], [-48.6552599812139, -2.1066920943022613], [-48.65558458262527, -2.1069124456958077], [-48.655969495917034, -2.1071820676436395], [-48.65607591075168, -2.1071677643049145], [-48.65619402661802, -2.107020405532738], [-48.656413018295694, -2.1067169831067165], [-48.65658590251044, -2.1064800273701256], [-48.6568196173654, -2.1059451953380006], [-48.656374288204816, -2.1056957326383063], [-48.65614734075091, -2.1055507445599666], [-48.65602956246363, -2.105472458225193], [-48.65596056803517, -2.105460782262581]]]}, "properties": {"id": 276, "Parcela": "N-111(2)", "ANO": 2006, "Ha": 25.64, "PLANTAS": 3999, "VARIEDADE": "PB-121", "Rot_labels": -30, "auxiliary_": null, "auxiliar_1": null, "auxiliar_2": null}}, {"type": "Feature", "geometry": {"type": "Polygon", "coordinates": [[[-48.66067612647232, -2.1099359380797615], [-48.66073987387529, -2.109799928943782], [-48.660758945005846, -2.109709287680981], [-48.660674169282835, -2.10969445066801], [-48.66052812466115, -2.109588326704363], [-48.66027991395003, -2.109364378193338], [-48.660031646150834, -2.1091786723697767], [-48.659514686382444, -2.1087778124187886], [-48.65897426416725, -2.1084239850340167], [-48.658864098838336, -2.1085638922219196], [-48.65881470629463, -2.1086957984752743], [-48.65880633440514, -2.1088112691803573], [-48.65878980031196, -2.1089019810919156], [-48.65874038304832, -2.1090503849102498], [-48.65876486961841, -2.109124661287451], [-48.658764659876304, -2.1092648907784106], [-48.65873170266341, -2.1093720754407226], [-48.65863291734195, -2.109635887842983], [-48.65862457004158, -2.109734860939707], [-48.658591637461626, -2.1098255479915733], [-48.658550394577915, -2.1099904617507312], [-48.65841886164322, -2.1102212292141136], [-48.65831201269416, -2.11039429235348], [-48.65826248406119, -2.1106169351642965], [-48.65822929204439, -2.110880846758183], [-48.65813045688567, -2.1111776540800133], [-48.65811388552383, -2.1112931122782364], [-48.65811370021607, -2.1114168441207], [-48.658072605329274, -2.1114827722895138], [-48.65800683867233, -2.111598155895772], [-48.65798211747922, -2.1116806064907854], [-48.6579326503566, -2.1118620052473736], [-48.65793385667748, -2.111958387111487], [-48.65982067449518, -2.1127583102029974], [-48.65993235788853, -2.112467199897668], [-48.660064138263714, -2.112071456253432], [-48.66008685899489, -2.1119560071992867], [-48.660124045641524, -2.111762216264333], [-48.66022892521961, -2.1115355325645058], [-48.66023738365009, -2.11136232013944], [-48.6603855743555, -2.110958352298582], [-48.660418593341134, -2.110809923497288], [-48.66055854758283, -2.1104306895274867], [-48.66067612647232, -2.1099359380797615]]]}, "properties": {"id": 270, "Parcela": "M-112", "ANO": 2010, "Ha": 8.83, "PLANTAS": 1356, "VARIEDADE": "PB-121", "Rot_labels": 332, "auxiliary_": null, "auxiliar_1": null, "auxiliar_2": null}}, {"type": "Feature", "geometry": {"type": "Polygon", "coordinates": [[[-48.6596241595868, -2.1060986458295967], [-48.65959137513787, -2.106090347471894], [-48.65950492646038, -2.106329432527393], [-48.65936917785279, -2.106638557964313], [-48.659364831853956, -2.106803527715285], [-48.65934389645478, -2.1070963290298783], [-48.65925337257965, -2.107318910171117], [-48.65922026767383, -2.1075250804875], [-48.65914614209053, -2.10774768637661], [-48.65898966690716, -2.1082093832561486], [-48.65898608351924, -2.1083416340124574], [-48.6590765840341, -2.108438848591749], [-48.65943881048507, -2.1086776781933017], [-48.66073569764271, -2.1096121747494654], [-48.66092131200843, -2.109187993280769], [-48.66097024826335, -2.109084747233484], [-48.661137328775375, -2.108567330716741], [-48.66115861485757, -2.1084547796425057], [-48.661176644989894, -2.108416061871271], [-48.66121548102885, -2.1081991484139655], [-48.66128764779053, -2.1080132813434616], [-48.66134177669366, -2.107871298029091], [-48.66145063553808, -2.1074047195828385], [-48.66111471430975, -2.1072392354989513], [-48.660811688541614, -2.107007810530642], [-48.66049210439839, -2.106883595277772], [-48.660402110241186, -2.106751478132351], [-48.66018925127886, -2.106536687134828], [-48.660041850471885, -2.106412732100269], [-48.65988622586943, -2.106305262289426], [-48.6596241595868, -2.1060986458295967]]]}, "properties": {"id": 269, "Parcela": "M-111", "ANO": 2010, "Ha": 6.05, "PLANTAS": 1308, "VARIEDADE": "PB-121", "Rot_labels": 327, "auxiliary_": null, "auxiliar_1": null, "auxiliar_2": null}}, {"type": "Feature", "geometry": {"type": "Polygon", "coordinates": [[[-48.66494106095792, -2.107013228929783], [-48.664837949885396, -2.1074423840434093], [-48.66473842538777, -2.107655434894207], [-48.664738223728364, -2.107790700191932], [-48.66470435864092, -2.1079597310878277], [-48.66464416518168, -2.1082527156972146], [-48.664651489048794, -2.10835041856867], [-48.66462138106946, -2.108504425599334], [-48.66452922400696, -2.1087801645778734], [-48.66448035725454, -2.1088369169728445], [-48.664437737975284, -2.1089324893429153], [-48.66438902888837, -2.109037622343381], [-48.66434040388339, -2.1090863948111958], [-48.664325358247055, -2.109157762246398], [-48.66429161628332, -2.109244130949194], [-48.664216842204496, -2.1092966212844373], [-48.66417467826481, -2.1094276303198574], [-48.664206816646335, -2.1094453294107565], [-48.66453687614847, -2.1096870521138844], [-48.66472672101491, -2.109834426791423], [-48.66520279541794, -2.110202865765474], [-48.66533421611831, -2.110311909376655], [-48.665436431258456, -2.1103973748036053], [-48.66570510773327, -2.1106242961630683], [-48.665801527457894, -2.110674451726301], [-48.66594200141033, -2.1105952363327503], [-48.66605914861927, -2.1104718592635052], [-48.66610875131086, -2.110389118275812], [-48.666138696868806, -2.1103440749140714], [-48.66618803597932, -2.1103190822733127], [-48.66624657007094, -2.1102838695075987], [-48.66628453851417, -2.110220301511604], [-48.666254789124544, -2.110133836816602], [-48.66628867815331, -2.110012333436417], [-48.66624531610456, -2.1098211251470462], [-48.666214272479266, -2.1097542800967775], [-48.666178657995616, -2.1097564492502525], [-48.66613758221097, -2.1097538042366133], [-48.666094742537254, -2.1097653718141434], [-48.66608888874633, -2.1096943214822947], [-48.66609409303971, -2.10964783514082], [-48.666102464268974, -2.1095963013064565], [-48.66612129508207, -2.1094911230481737], [-48.66613292104949, -2.1094360868441], [-48.66612275128524, -2.1093689132088933], [-48.66605093512352, -2.1093197276143725], [-48.666063853387826, -2.109265503881808], [-48.66605629731245, -2.1091673380641778], [-48.66601778131929, -2.1091698629495017], [-48.665984369467374, -2.1091930596228456], [-48.665931151668325, -2.1092691505752486], [-48.66588680152873, -2.1091954953828713], [-48.66581917540285, -2.1092238930009417], [-48.665770679253654, -2.1091862459991066], [-48.66573543216269, -2.109120359623247], [-48.665678490461424, -2.1090189049412666], [-48.66560292220669, -2.1089793368867054], [-48.66561795097962, -2.108919241486834], [-48.665722771375926, -2.1087540749414027], [-48.66573787855853, -2.1086413763242735], [-48.66575298012878, -2.108532435076477], [-48.66577638629558, -2.1084158768226153], [-48.66585831279863, -2.108380699294443], [-48.665966265917554, -2.108262225440156], [-48.66601504206783, -2.1081120037697882], [-48.66606758656973, -2.107939243482421], [-48.66611996868157, -2.1078754469997114], [-48.66615493429303, -2.1077515482110454], [-48.66612778534483, -2.1076425011315423], [-48.6660942898829, -2.1075635456097035], [-48.66605077117743, -2.1074555902717416], [-48.665870055221156, -2.1073074173523647], [-48.6656131247946, -2.10714575076302], [-48.665594518082436, -2.107100634142916], [-48.665564701440246, -2.107059258000156], [-48.66550119903097, -2.10706667700171], [-48.66542645310475, -2.1071003807024504], [-48.66537047063913, -2.1070739946204484], [-48.66532195773043, -2.107047619803191], [-48.66502251429825, -2.1069051017047298], [-48.66494106095792, -2.107013228929783]]]}, "properties": {"id": 272, "Parcela": "N-101(2)", "ANO": 2010, "Ha": 5.52, "PLANTAS": 825, "VARIEDADE": "PB-141", "Rot_labels": -30, "auxiliary_": null, "auxiliar_1": null, "auxiliar_2": null}}, {"type": "Feature", "geometry": {"type": "Polygon", "coordinates": [[[-48.66211982274387, -2.10682025928594], [-48.661994949734094, -2.106867349981161], [-48.66187419011743, -2.1069581829938837], [-48.66174383321832, -2.1071849996427856], [-48.661758805430956, -2.1073757840446254], [-48.661856502294455, -2.1075494950344185], [-48.66201993777863, -2.1077586063910156], [-48.66224772234865, -2.1079545771027433], [-48.66293699044501, -2.1084983720272215], [-48.663456858846324, -2.108911003128758], [-48.663786887300525, -2.1091733179883447], [-48.66397411892398, -2.109274663892063], [-48.664078359714395, -2.109309814532465], [-48.66411640329455, -2.1092892796947456], [-48.66418334694172, -2.109217665790977], [-48.664313855428986, -2.108952830360957], [-48.66432152457259, -2.10886561872235], [-48.664400625617645, -2.1087746234739684], [-48.66452798919937, -2.10851931412392], [-48.664535626878596, -2.1084066043362744], [-48.66455602018673, -2.108338841075919], [-48.66455080134557, -2.1082488173960465], [-48.66459583159733, -2.1081061050230585], [-48.66463333624801, -2.108000955057348], [-48.664554907629025, -2.1078904004331913], [-48.66351571881835, -2.1074310611176053], [-48.66211982274387, -2.10682025928594]]]}, "properties": {"id": 348, "Parcela": "N-101(1)", "ANO": 1999, "Ha": 4.31, "PLANTAS": 569, "VARIEDADE": "PB-141", "Rot_labels": -30, "auxiliary_": null, "auxiliar_1": null, "auxiliar_2": null}}, {"type": "Feature", "geometry": {"type": "Polygon", "coordinates": [[[-48.659057137775335, -2.105617876245917], [-48.65914283522988, -2.105753270804605], [-48.65940401021228, -2.105926504179767], [-48.659542050424214, -2.106024404228406], [-48.659758419639104, -2.106190055203068], [-48.660306801244154, -2.106611708732245], [-48.660482004135616, -2.106833658074639], [-48.66049688709343, -2.1068712542281824], [-48.66078056647241, -2.1069806465110132], [-48.660993234919516, -2.1071237478070524], [-48.661123783442996, -2.107236666095352], [-48.66145593087263, -2.1074024921470067], [-48.6615696890108, -2.1072306170591197], [-48.66160191948629, -2.107186539464279], [-48.661634119227024, -2.1071630540861253], [-48.661680437500856, -2.1071210285991713], [-48.6617216264758, -2.1070497007885214], [-48.66177399731834, -2.106993419340329], [-48.66178361923244, -2.106913230935504], [-48.66186113693602, -2.106864303674835], [-48.661883923645355, -2.1067505688655253], [-48.66170801077167, -2.1066336502636784], [-48.6613953256393, -2.106506682714786], [-48.65910144710701, -2.1054971392763777], [-48.659057137775335, -2.105617876245917]]]}, "properties": {"id": 349, "Parcela": "N-111(1)", "ANO": 1993, "Ha": 1.94, "PLANTAS": 223, "VARIEDADE": "PB-121", "Rot_labels": -30, "auxiliary_": null, "auxiliar_1": null, "auxiliar_2": null}}, {"type": "Feature", "geometry": {"type": "Polygon", "coordinates": [[[-48.665077662496614, -2.1029288842491614], [-48.665000694078515, -2.102892607068412], [-48.664908221346536, -2.1029234632794322], [-48.663790878812904, -2.104418904681244], [-48.66353321202311, -2.104769125638718], [-48.66413516457302, -2.1050406747261343], [-48.66521929831252, -2.1055071066375803], [-48.66525729139, -2.105520401813973], [-48.665501056906365, -2.1048029796033916], [-48.665771021844364, -2.1039409431250498], [-48.66584695526524, -2.1035551166720587], [-48.66580608414737, -2.1034155756978383], [-48.6656367580957, -2.103332666343823], [-48.665523722983316, -2.10337898933888], [-48.66546212055244, -2.1033685647972415], [-48.66543138080417, -2.103322025384109], [-48.66531849937366, -2.1032650305121856], [-48.665077662496614, -2.1029288842491614]]]}, "properties": {"id": 274, "Parcela": "N-103", "ANO": 1999, "Ha": 4.06, "PLANTAS": 582, "VARIEDADE": "PB-141", "Rot_labels": -30, "auxiliary_": null, "auxiliar_1": null, "auxiliar_2": null}}, {"type": "Feature", "geometry": {"type": "Polygon", "coordinates": [[[-48.66738793524067, -2.099419067551702], [-48.6677335564995, -2.098938909384103], [-48.66773085167798, -2.098856422287896], [-48.66742511384054, -2.099131854922918], [-48.667283859196864, -2.0990633810823005], [-48.667165196202475, -2.0990120066048834], [-48.667069255617534, -2.0988895602046678], [-48.66712029557024, -2.098787244129948], [-48.66719391026601, -2.098713404344179], [-48.66727036050636, -2.098633880319253], [-48.667377896370624, -2.0985629356576423], [-48.667490934657096, -2.0985943919528127], [-48.667643501997645, -2.0986600384709915], [-48.66775929574943, -2.0987398510214623], [-48.667806772871955, -2.098709967595354], [-48.66783298212331, -2.098617659147892], [-48.667844365589, -2.0985446989959446], [-48.6678954358959, -2.0984442540314374], [-48.66777686560512, -2.098330306428759], [-48.66777939710875, -2.0982815844716667], [-48.66779115717404, -2.098225090886361], [-48.667881692365924, -2.098179718815257], [-48.66799458314632, -2.098310723345323], [-48.66808015688223, -2.098206887907689], [-48.66808769879589, -2.098158053186746], [-48.66809154492089, -2.0980829112113653], [-48.66796467992553, -2.0980038157985454], [-48.66773812061634, -2.097767088246652], [-48.66756310483702, -2.0976260376348264], [-48.66726085657909, -2.097445229782297], [-48.66722603813669, -2.0974353426035246], [-48.667117835934604, -2.0973637899903324], [-48.66705440629625, -2.097322363615416], [-48.667002175368175, -2.097284711424227], [-48.666934988707105, -2.0972583089524974], [-48.6668752325852, -2.0972582193145977], [-48.666881006924996, -2.097177182190653], [-48.666597438271275, -2.0969926450268894], [-48.6665095294342, -2.0969532144275296], [-48.66645867935756, -2.0969275399853693], [-48.66643623950843, -2.0968080482391716], [-48.66634593212067, -2.0966998316551226], [-48.666116998998, -2.096697411264329], [-48.66607736079196, -2.096696584529332], [-48.66598701550907, -2.0966139660549747], [-48.66576714081647, -2.0964938083427413], [-48.6656198074169, -2.0964000972456054], [-48.66550674413168, -2.096385706424243], [-48.66538500557651, -2.0965021375269703], [-48.665294445323696, -2.096564574869776], [-48.66517003566964, -2.0965757651253623], [-48.665090859760426, -2.096587023254198], [-48.66500044289911, -2.096552756712271], [-48.664819117281915, -2.0966273369738038], [-48.664759974218875, -2.0966633210330405], [-48.66474718035483, -2.0967440221606886], [-48.66470883318059, -2.0968338984635158], [-48.66442024878183, -2.096981365493275], [-48.664202523515776, -2.097006636691357], [-48.66411207717871, -2.096992279695723], [-48.6640441928462, -2.0970149316361715], [-48.66396219408025, -2.0970233411991956], [-48.66388869774028, -2.0970175423516766], [-48.66379542431922, -2.0970031810943195], [-48.66374204217546, -2.0970731620917853], [-48.663667046091234, -2.0972759477189835], [-48.66368922594612, -2.097430033429271], [-48.663703953020644, -2.0975728358207504], [-48.66372994568534, -2.097674324009909], [-48.663722325593206, -2.0977757617001327], [-48.66374510105074, -2.09782209144901], [-48.66376364229783, -2.0978890964426675], [-48.66375939420824, -2.0979636861746274], [-48.66388954913043, -2.0983486455579317], [-48.6639543741648, -2.098482422019417], [-48.66404746818917, -2.098617663093003], [-48.66423672832536, -2.098723184231362], [-48.664409127187696, -2.098760418374303], [-48.664762473890434, -2.0987893916895435], [-48.66508747779905, -2.0988666743922755], [-48.66586519552531, -2.099053121166757], [-48.66613867453416, -2.099198185107809], [-48.666364561012976, -2.099389088430792], [-48.66646907568429, -2.09944897444281], [-48.66657084765992, -2.0994519715318236], [-48.666737812129966, -2.0993412968930905], [-48.66701246017087, -2.099060129418455], [-48.66722424927608, -2.099225413372608], [-48.66738793524067, -2.099419067551702]], [[-48.66366314203988, -2.097422784603256], [-48.66362321365984, -2.0974120082790098], [-48.66362030415873, -2.0975781071879185], [-48.6635750101041, -2.097594113647644], [-48.66350572959256, -2.097623479490179], [-48.663401790927836, -2.097679584097111], [-48.66332977586813, -2.0977571693375423], [-48.663239016707685, -2.0979043825922585], [-48.66331888539339, -2.0979178980464126], [-48.66337194952731, -2.098049252941285], [-48.663409238824805, -2.0980439508135222], [-48.66348638888336, -2.0980949693712607], [-48.66357151189806, -2.098156716253061], [-48.66368599503638, -2.098172962811456], [-48.66372866593932, -2.0981301615706585], [-48.663752727983535, -2.0980658996797565], [-48.66372099527204, -2.097915823216827], [-48.66371312572669, -2.097835438832417], [-48.663691913573466, -2.0977737879988005], [-48.663670753119064, -2.0976773091361602], [-48.66365754175184, -2.0976076330709246], [-48.66367896864931, -2.0975246136192642], [-48.66366314203988, -2.097422784603256]]]}, "properties": {"id": 280, "Parcela": "O-111", "ANO": 2002, "Ha": 10.35, "PLANTAS": 1512, "VARIEDADE": "PB-141", "Rot_labels": 326, "auxiliary_": null, "auxiliar_1": null, "auxiliar_2": null}}, {"type": "Feature", "geometry": {"type": "Polygon", "coordinates": [[[-48.65793356415805, -2.1120919248931087], [-48.65696988454947, -2.114389327855238], [-48.65696970625365, -2.11450814530649], [-48.65703627437471, -2.1146322301261], [-48.65708227948976, -2.114771781685837], [-48.657087305886506, -2.1148441131572437], [-48.65709741294472, -2.11495261426535], [-48.657161293408365, -2.115156767851674], [-48.65727157829953, -2.115234425223657], [-48.657440891762526, -2.115327670239972], [-48.657571693197795, -2.115420856757473], [-48.657658940687426, -2.1154519852341607], [-48.65774107650252, -2.115467607972906], [-48.65781294243854, -2.1154832151094256], [-48.65784887928486, -2.1154884356873684], [-48.65791042107226, -2.1155401890788803], [-48.65797204039234, -2.115540282674593], [-48.6580388334209, -2.115514554166982], [-48.65808248431843, -2.1155120374696588], [-48.65826464305402, -2.1156001360007206], [-48.658313390146645, -2.11562345700316], [-48.658387796465064, -2.115657148961287], [-48.65844940030779, -2.1156675745062072], [-48.65854180995404, -2.1156806298297517], [-48.65860337892501, -2.115714302290264], [-48.658649535309344, -2.1157531173394823], [-48.65873810732873, -2.1157571263406014], [-48.658872758244094, -2.115851610218586], [-48.658916475056614, -2.1158051826488165], [-48.65896284846639, -2.1156993501637054], [-48.65901441493111, -2.1155547805888752], [-48.659065934881504, -2.115441206904497], [-48.65909176846018, -2.115335343210878], [-48.659097015754135, -2.115260444238187], [-48.6590996413364, -2.1152217032556044], [-48.659166713277486, -2.115009999229834], [-48.659200202752444, -2.1149351431143364], [-48.65923369996703, -2.114855121009956], [-48.659262104829295, -2.114746678193023], [-48.659267332719395, -2.1146846941695157], [-48.659270012496265, -2.1146097912878905], [-48.659347342577874, -2.1144058517568394], [-48.65937565059684, -2.114361983732744], [-48.65939635298852, -2.114253529206418], [-48.659393944249146, -2.1141476226156817], [-48.659538214296006, -2.1138198006277173], [-48.65960522013572, -2.1136520073261185], [-48.65958479646703, -2.1135744863888277], [-48.65959775379369, -2.1134944330737917], [-48.65979613394341, -2.1130375430213064], [-48.65978089933859, -2.1129238679616678], [-48.65978060679581, -2.1127995846045455], [-48.659730946191544, -2.112767150100452], [-48.65958483118488, -2.112708093658917], [-48.65947378291462, -2.112663799110533], [-48.65909391049385, -2.1124926019119825], [-48.658383795821855, -2.112203234177969], [-48.65810328013574, -2.1120733720534735], [-48.65798931680789, -2.112023189586221], [-48.65793356415805, -2.1120919248931087]]]}, "properties": {"id": 271, "Parcela": "M-113", "ANO": 2010, "Ha": 8.48, "PLANTAS": 986, "VARIEDADE": "PB-121", "Rot_labels": 339, "auxiliary_": null, "auxiliar_1": null, "auxiliar_2": null}}, {"type": "Feature", "geometry": {"type": "Polygon", "coordinates": [[[-48.65503502502899, -2.1002622708105356], [-48.65496731477175, -2.100168309427219], [-48.65484310082374, -2.1000486647915992], [-48.65461146159086, -2.099926013754386], [-48.65435724386966, -2.0997777306919576], [-48.65420188957734, -2.09968648122459], [-48.654038062526574, -2.0995895305383554], [-48.653922151781, -2.0995893555067116], [-48.65381190795814, -2.0995806563815416], [-48.65375810835396, -2.0996374594184255], [-48.65375516667622, -2.099714248758554], [-48.653786099159475, -2.099825219830498], [-48.653828416403016, -2.099885012244483], [-48.65379720379779, -2.0999617588866135], [-48.65375467432976, -2.1000441768586082], [-48.653779969589, -2.1001437625650663], [-48.653779833750676, -2.1002347772146273], [-48.653754228604505, -2.10034281867199], [-48.653762565538095, -2.100439534548685], [-48.653807709863116, -2.1004993312517883], [-48.653881142101206, -2.100547793837857], [-48.65412135162387, -2.100610729457296], [-48.65427676960972, -2.100659315897691], [-48.65443215366215, -2.10073065600626], [-48.65451976812071, -2.100747853646958], [-48.65464691946774, -2.100793553164253], [-48.65480796201992, -2.100862057600031], [-48.654904193613596, -2.1007882533199576], [-48.65504016579557, -2.100606428802339], [-48.65509132083669, -2.1004273203874875], [-48.655034931685435, -2.100324843438556], [-48.65503502502899, -2.1002622708105356]]]}, "properties": {"id": 347, "Parcela": "COPAR6-AAM", "ANO": 2007, "Ha": 1.35, "PLANTAS": 308, "VARIEDADE": "AAM", "Rot_labels": -30, "auxiliary_": null, "auxiliar_1": null, "auxiliar_2": null}}, {"type": "Feature", "geometry": {"type": "Polygon", "coordinates": [[[-48.666071268970455, -2.1013973918617714], [-48.66591563798351, -2.1014910177376747], [-48.66559824833774, -2.101996814845642], [-48.66572219349792, -2.102298490568534], [-48.665874612795335, -2.102463685713522], [-48.6659874777915, -2.1026117559366595], [-48.665998583338656, -2.1027482961177326], [-48.665970185280415, -2.1028335805595293], [-48.665947297687545, -2.1030155774119277], [-48.66600935905311, -2.10310668644911], [-48.665980834096736, -2.10327729786229], [-48.66602594964028, -2.103357004452191], [-48.66635360834138, -2.1035509058396453], [-48.66630260170145, -2.103630467787502], [-48.66625724930111, -2.1037100382379452], [-48.666228834257495, -2.10380669961212], [-48.66621733964838, -2.103931828845636], [-48.66620571811603, -2.1041422850677867], [-48.66618851845501, -2.104301536579044], [-48.66612046437579, -2.1044379576009806], [-48.66602983559237, -2.1045459022222097], [-48.66592821144497, -2.1044433565924607], [-48.665866158583796, -2.104346559034747], [-48.66579797752761, -2.1045683069743775], [-48.665763891212805, -2.1046763367026164], [-48.66579196776747, -2.1048072139611778], [-48.66589368500784, -2.1048471865038083], [-48.66605759901714, -2.104887252718609], [-48.666153619713846, -2.1049556590706646], [-48.66624977584738, -2.1049330499672863], [-48.66635746899224, -2.1047568692851595], [-48.66644240124057, -2.1046773584550977], [-48.66656132668194, -2.1045523909468864], [-48.666651947003594, -2.104450134721813], [-48.6667199080061, -2.1043762867748113], [-48.6667993636054, -2.104177309532396], [-48.66706544327998, -2.1039558591687286], [-48.66728632270266, -2.103711586741386], [-48.667371381661205, -2.103546748680408], [-48.667637444253295, -2.1033366749502576], [-48.66776209134374, -2.10316620785047], [-48.66779054007168, -2.103046792438089], [-48.66737850660111, -2.102556963246957], [-48.66720322493153, -2.1025566996941043], [-48.66703930248507, -2.10252232230934], [-48.66696599166619, -2.1023913769819065], [-48.66702592317619, -2.1020131830295083], [-48.66660234502374, -2.1016826143014016], [-48.6664407385858, -2.1019923934854683], [-48.66640709202116, -2.1018046230575473], [-48.66627739941158, -2.1015655119144574], [-48.666071268970455, -2.1013973918617714]]]}, "properties": {"id": 275, "Parcela": "N-104", "ANO": 1999, "Ha": 4.53, "PLANTAS": 667, "VARIEDADE": "PB-141", "Rot_labels": 323, "auxiliary_": null, "auxiliar_1": null, "auxiliar_2": null}}, {"type": "Feature", "geometry": {"type": "Polygon", "coordinates": [[[-48.66609969226219, -2.1012950419836627], [-48.66616741637461, -2.1013804709851294], [-48.666188488794745, -2.1014686740897814], [-48.666211075119335, -2.1014893287850835], [-48.666290838793735, -2.1015584215217022], [-48.66635794698022, -2.1015826984575807], [-48.66643991445251, -2.1015956207735313], [-48.666524660466195, -2.101641256025344], [-48.66661224628347, -2.1016783628265157], [-48.66704006089953, -2.102011782163098], [-48.66698296496653, -2.102384291901597], [-48.667044984197986, -2.102503843285421], [-48.66720042104786, -2.1025410521497765], [-48.66737569849024, -2.1025441599364525], [-48.667801884489286, -2.1030226334328623], [-48.66796600142875, -2.1029261759279296], [-48.66804808101836, -2.102863725976295], [-48.66809910446238, -2.1027727868952835], [-48.66818402383737, -2.1027018084597517], [-48.66825765159772, -2.102619436064903], [-48.66829456472543, -2.1025114102853912], [-48.66841349826694, -2.102380753807065], [-48.66852109794939, -2.102267145732144], [-48.66924880893923, -2.1015002926928013], [-48.66933518079061, -2.1014030069646976], [-48.66906852270461, -2.101062008192454], [-48.66866365840527, -2.1005032173019105], [-48.6679793290837, -2.0996610049012667], [-48.667826816479796, -2.0995583832174955], [-48.66790064214856, -2.0993423315694995], [-48.66771995117077, -2.0991770942862393], [-48.66609969226219, -2.1012950419836627]], [[-48.6684832625427, -2.100138883223133], [-48.66856269190209, -2.0999569708168857], [-48.668528943586296, -2.099837461904701], [-48.66843302390991, -2.099700794225416], [-48.66839357074183, -2.0996154076934253], [-48.66833158495591, -2.0994731024720497], [-48.668247058116975, -2.099279567047441], [-48.66826430757338, -2.0990861843589763], [-48.66820211938056, -2.0990804025576497], [-48.66807748154935, -2.099245181644516], [-48.66806556573356, -2.099654734799896], [-48.668144573249236, -2.0997572461551144], [-48.6684832625427, -2.100138883223133]], [[-48.67035277068161, -2.1024761048858056], [-48.67011002576124, -2.1022140696113376], [-48.66993499696528, -2.102043151968266], [-48.66990091952172, -2.1021454936904074], [-48.66985550823359, -2.102264883867675], [-48.66977058465804, -2.1023387067467554], [-48.669651777743624, -2.1023840362563364], [-48.66961214730069, -2.102418107689301], [-48.669549815410775, -2.102509029945202], [-48.66948184613969, -2.1025885667374973], [-48.669470343436686, -2.1027193847773025], [-48.669492791594784, -2.1028331883456413], [-48.66950398189604, -2.1029128440493072], [-48.66949820942025, -2.102992474267896], [-48.6696113199145, -2.1029755787322397], [-48.6697074338654, -2.102981411623709], [-48.66978647528215, -2.1030611692763665], [-48.669752423069035, -2.103146445516659], [-48.669820172857655, -2.103214809226734], [-48.6699897246763, -2.103266260405679], [-48.67004052858945, -2.103323221674776], [-48.670125283407145, -2.103363168468713], [-48.670221380530926, -2.1033803783219116], [-48.670311899386576, -2.103346383331978], [-48.670413811190514, -2.103255520486677], [-48.67056110058244, -2.1030680213343413], [-48.670595211846376, -2.1029429256369627], [-48.67057279735675, -2.102806368057693], [-48.67052212843211, -2.102658391063082], [-48.670584527833114, -2.1025219608397867], [-48.67069221192145, -2.1023514676045734], [-48.670794148912556, -2.1022435391815306], [-48.67082825163692, -2.102124131921935], [-48.67081138165197, -2.102061533126155], [-48.670721023165115, -2.10198744703373], [-48.670647500924794, -2.1019987136707186], [-48.67055683030184, -2.1021351014865535], [-48.67052283724966, -2.1021805584277433], [-48.670522997555054, -2.1020724772359856], [-48.67054571583045, -2.1020042493812143], [-48.67050622882321, -2.1019416166464477], [-48.67041580287856, -2.10191303842689], [-48.67022360875273, -2.1018786189369463], [-48.6701274357642, -2.1019126055262545], [-48.67004806521785, -2.102054698727853], [-48.67030217770958, -2.102276931572822], [-48.67035277068161, -2.1024761048858056]]]}, "properties": {"id": 23, "Parcela": "ADM", "ANO": 1982, "Ha": 9.32, "PLANTAS": 1192, "VARIEDADE": "PB-121", "Rot_labels": 324, "auxiliary_": null, "auxiliar_1": null, "auxiliar_2": null}}, {"type": "Feature", "geometry": {"type": "Polygon", "coordinates": [[[-48.66573789987274, -2.1108361142218377], [-48.6645018224935, -2.1124947777681884], [-48.66674510302116, -2.1141731674591866], [-48.66675073304644, -2.1142541776205723], [-48.66828456284902, -2.1153963066003416], [-48.66834228093847, -2.1152575337526076], [-48.66857862764892, -2.1148875973608474], [-48.668843565374075, -2.1146276349824435], [-48.66895342294809, -2.1142343638050227], [-48.66880977594235, -2.1141473591618833], [-48.668781184733426, -2.1140373849969185], [-48.66874684245973, -2.11392740214728], [-48.66861480125166, -2.113770984986623], [-48.66854028792399, -2.113603083072303], [-48.6684832522793, -2.113284775755252], [-48.66843750285514, -2.11311113148132], [-48.66842634608955, -2.1128796810720494], [-48.66573789987274, -2.1108361142218377]]]}, "properties": {"id": 266, "Parcela": "M-102", "ANO": 1999, "Ha": 11.18, "PLANTAS": 742, "VARIEDADE": "PB-141", "Rot_labels": 325, "auxiliary_": null, "auxiliar_1": null, "auxiliar_2": null}}]}