{"type": "FeatureCollection", "features": [{"type": "Feature", "properties": {"id": 258, "Parcela": "LM-081", "ANO": 2010, "Ha": 9.05, "PLANTAS": 1466, "VARIEDADE": "PB-121", "Rot_labels": 55}, "geometry": {"type": "Polygon", "coordinates": [[[-48.67987974496182, -2.1089611605982745], [-48.675809383040495, -2.114477804058447], [-48.6758488171251, -2.114517595514674], [-48.675955936995884, -2.1145688409589436], [-48.676063056880025, -2.1146200864035363], [-48.676181460560656, -2.1146713488472497], [-48.67631103821546, -2.114796416233132], [-48.676744451299605, -2.115070120330322], [-48.680801347743824, -2.1094218200862778], [-48.679970912336614, -2.108914294869948], [-48.67987974496182, -2.1089611605982745]]]}}, {"type": "Feature", "properties": {"id": 257, "Parcela": "LM-064", "ANO": 2003, "Ha": 9.83, "PLANTAS": 1564, "VARIEDADE": "PB-123", "Rot_labels": 55}, "geometry": {"type": "Polygon", "coordinates": [[[-48.69319055707495, -2.120348831715546], [-48.69276070672506, -2.121063372474274], [-48.692574142701346, -2.1213185158805787], [-48.69247794288274, -2.121511358011257], [-48.69247779980342, -2.1216078510385046], [-48.69233658191313, -2.1217211605425628], [-48.69226310988062, -2.1218061913444184], [-48.69215018606066, -2.12186278255041], [-48.69202601195439, -2.121896652563998], [-48.69199770101259, -2.121964722914016], [-48.69190733669073, -2.1220270240201593], [-48.691799995895025, -2.122123356043451], [-48.69176598400035, -2.122231150303927], [-48.691726338534245, -2.122333260027852], [-48.69168102580638, -2.122452389442693], [-48.69165262216264, -2.1225828963855697], [-48.69165816306148, -2.1226510175445754], [-48.6916976569396, -2.1226510768664704], [-48.69166370395757, -2.122719138704038], [-48.691590231816726, -2.1228041693803985], [-48.69157308681935, -2.12295172142784], [-48.69155006388517, -2.1232581945786126], [-48.69154971837723, -2.1234909128976494], [-48.69154937283133, -2.123723631215944], [-48.69154915368501, -2.1238712086856846], [-48.69155995717081, -2.1241947608690617], [-48.691548479292884, -2.1243252932060384], [-48.691514306972856, -2.124540932456376], [-48.69149716177091, -2.124688484470928], [-48.69148000811761, -2.12484171253761], [-48.69146847113359, -2.125011977253159], [-48.691456984733726, -2.125148185629141], [-48.69145674012641, -2.1253127912546264], [-48.691462019390116, -2.1255568701510903], [-48.69149004375627, -2.1256817858210115], [-48.691529419596776, -2.125761310020195], [-48.69157448805171, -2.1258067863714993], [-48.69478362465652, -2.12156511954996], [-48.694481108458795, -2.1213384043980397], [-48.69432331776356, -2.121213294043952], [-48.69397391818925, -2.120940318348287], [-48.69359760318735, -2.120613346673631], [-48.69319055707495, -2.120348831715546]]]}}, {"type": "Feature", "properties": {"id": 256, "Parcela": "LM-063", "ANO": 2003, "Ha": 25.25, "PLANTAS": 3982, "VARIEDADE": "PB-123", "Rot_labels": 55}, "geometry": {"type": "Polygon", "coordinates": [[[-48.69115360174401, -2.1301593811080646], [-48.691215792149826, -2.1301651634494583], [-48.69303440707573, -2.127790075432272], [-48.69551021263727, -2.1245512994442173], [-48.696025837740386, -2.1238296213197296], [-48.69609961240926, -2.123750329314815], [-48.69610535535459, -2.123682224879515], [-48.69613098829771, -2.123517656786763], [-48.69615367406083, -2.1234382255826367], [-48.69616507581141, -2.1233587774537783], [-48.69616520616558, -2.1232707982896883], [-48.69619636332341, -2.123185703693927], [-48.696255743098774, -2.1230921372784812], [-48.696312398554504, -2.1229332917525867], [-48.69629284912829, -2.122799874369372], [-48.696273224029554, -2.1227175416696134], [-48.69625070646822, -2.1226834513846615], [-48.69620000412541, -2.1226322905850403], [-48.696163427804, -2.122566960744121], [-48.696146602686504, -2.122498822469708], [-48.6960704903356, -2.1224618138047604], [-48.69600561995423, -2.122453202428225], [-48.695929495004414, -2.12242470787374], [-48.69586744563083, -2.1224161007229276], [-48.695811067685405, -2.122387635770673], [-48.6957490939878, -2.1223279439558853], [-48.695712488264164, -2.122282480389407], [-48.695656160775115, -2.1222199590010122], [-48.695537817572145, -2.1221261261743276], [-48.69488966509246, -2.1216682296909575], [-48.69460712401937, -2.1219658003428346], [-48.69403900595403, -2.1227056765971284], [-48.69336627875652, -2.1236014870768107], [-48.69275579786087, -2.124372516309699], [-48.69197566006014, -2.1254100648663927], [-48.691557368021876, -2.1259373102062775], [-48.69134824296707, -2.126186742576301], [-48.69099208832474, -2.1266629962170143], [-48.69054551790304, -2.127235606476902], [-48.69028546241453, -2.127587130765497], [-48.69017807018704, -2.1277175184404236], [-48.6901271570386, -2.1278082587452545], [-48.6901157800984, -2.1278706782986525], [-48.69008749406924, -2.127921720245857], [-48.69001971406946, -2.1279727026777424], [-48.68996887695483, -2.1280123585089195], [-48.689934915114456, -2.1280860961415176], [-48.689884027281515, -2.12815980826043], [-48.68982183009281, -2.128250531512745], [-48.68971443775511, -2.1283809190609233], [-48.6895109877376, -2.1286076547996293], [-48.689426205602814, -2.1287096960601577], [-48.68937106718751, -2.1287961728387073], [-48.68941962161004, -2.1288597716018853], [-48.689639890223994, -2.129030760891975], [-48.690328917782196, -2.129577902890712], [-48.69115360174401, -2.1301593811080646]]]}}, {"type": "Feature", "properties": {"id": 255, "Parcela": "LM-062", "ANO": 2003, "Ha": 16.07, "PLANTAS": 2530, "VARIEDADE": "PB-123", "Rot_labels": 55}, "geometry": {"type": "Polygon", "coordinates": [[[-48.69598917268724, -2.124033968005811], [-48.69124231940656, -2.1302690199977836], [-48.693445064371446, -2.131944784155821], [-48.69390356549422, -2.131272094731795], [-48.69397144297999, -2.1311558373922415], [-48.69399129144568, -2.131087754352679], [-48.694013969366175, -2.1310139994946504], [-48.69404222594296, -2.1309828236279276], [-48.694195084258766, -2.1306311369641167], [-48.69424063003695, -2.1303559156983796], [-48.694650850021134, -2.129567558067991], [-48.694781084851705, -2.129252731525439], [-48.69487741684048, -2.128971910402989], [-48.694886002202885, -2.1288896201264165], [-48.69492843544871, -2.1288102188069256], [-48.69496238878868, -2.12874215689111], [-48.694985015910056, -2.1287024583482697], [-48.694990704323295, -2.128671248449831], [-48.694996413823915, -2.128625848376067], [-48.69501634645446, -2.1285010045352672], [-48.69503638871312, -2.1283023717778877], [-48.69506775713565, -2.128075375630151], [-48.69509907913836, -2.127879597858773], [-48.695118906293544, -2.1278257048781506], [-48.69518133942219, -2.127576051068368], [-48.695209663302194, -2.127499466516804], [-48.69525777637293, -2.1273945312874303], [-48.69532295033058, -2.1271988043454346], [-48.69533148077749, -2.127153408492574], [-48.69533442820474, -2.1270682716597813], [-48.69533453776505, -2.1269944827303338], [-48.69534878184851, -2.126900848745642], [-48.695416713520245, -2.1267476965406678], [-48.69547050643316, -2.126617227415201], [-48.69550467865728, -2.1264015875292337], [-48.69549356733472, -2.1262852110984873], [-48.695513398613315, -2.1262284800382756], [-48.6955417181752, -2.126154733470628], [-48.695587235393845, -2.125897958980229], [-48.69560562667043, -2.125861092045497], [-48.69562684737221, -2.1258185532731666], [-48.695648110179555, -2.1257476341350086], [-48.69566522779012, -2.125618528892894], [-48.69567953701248, -2.125480905302203], [-48.695716458455685, -2.1253135162063446], [-48.695812894545845, -2.1249617436387873], [-48.695824380579666, -2.124825534809066], [-48.69586398404901, -2.1247518051253627], [-48.69606245985901, -2.1240738105617267], [-48.69603995073151, -2.124034044183196], [-48.69598917268724, -2.124033968005811]]]}}, {"type": "Feature", "properties": {"id": 264, "Parcela": "LM-094", "ANO": 1999, "Ha": 20.65, "PLANTAS": 3268, "VARIEDADE": "PB-141", "Rot_labels": 56}, "geometry": {"type": "Polygon", "coordinates": [[[-48.669711089881275, -2.1140826376974986], [-48.66977305721717, -2.114145167085352], [-48.669806798297344, -2.1142190058113144], [-48.66982354602402, -2.114338226732635], [-48.66982341050014, -2.114429042244022], [-48.669840132800246, -2.1145652910773336], [-48.66980041948613, -2.1147128066251355], [-48.6697607739286, -2.114814914409891], [-48.66978869519559, -2.115007939982314], [-48.66973779976807, -2.115087326831632], [-48.669658567884746, -2.1152518105786746], [-48.66961893921912, -2.1153425663964143], [-48.669534167127495, -2.1154389299629144], [-48.6694944875848, -2.115563741572128], [-48.66943794175908, -2.1156487958142156], [-48.66936441097857, -2.1157735562341715], [-48.66924002705894, -2.1159493235738727], [-48.66912706251051, -2.116034292469803], [-48.669087459198565, -2.1161080203173808], [-48.66903087091248, -2.116221454327822], [-48.668985625715756, -2.116295173630202], [-48.66894601389952, -2.116374577424843], [-48.66888382611929, -2.116459623046657], [-48.66880472120653, -2.1165389670916244], [-48.66873124118794, -2.116629671587655], [-48.66865207687054, -2.1167487473581152], [-48.668589812688026, -2.1168848766116626], [-48.66842701361212, -2.116910593264489], [-48.66827978909563, -2.117052582652299], [-48.66823400157857, -2.1171340811645623], [-48.6681153950312, -2.1172190412897143], [-48.66802487897554, -2.117383507557648], [-48.667940123611, -2.1174685188775557], [-48.66776495400424, -2.1176498848518563], [-48.667414240925716, -2.1182623588170815], [-48.66704670376295, -2.1188066952474753], [-48.666339684587406, -2.1199975769466004], [-48.66633947194422, -2.120139475819001], [-48.66627148876669, -2.120326679630788], [-48.66625823943151, -2.120444832490318], [-48.66626374452622, -2.1205443892073057], [-48.66622963534576, -2.120666639734308], [-48.66618618002932, -2.1207806275915075], [-48.66618039349681, -2.1208771102522346], [-48.66616895657301, -2.120979260304789], [-48.666157536661295, -2.1210700584473123], [-48.66614974157201, -2.121155727585003], [-48.6661409999443, -2.1213292128819154], [-48.66612945673076, -2.1214856284915626], [-48.66615668550585, -2.1216376538533077], [-48.66621384483984, -2.1217701804669082], [-48.666167611707, -2.121876061052586], [-48.66616749251418, -2.1219555244094455], [-48.666167322230955, -2.122069043490516], [-48.666153796193306, -2.1222223232718465], [-48.6661960584726, -2.1223190915612293], [-48.66620064557084, -2.122421004043725], [-48.66621177604444, -2.1225231883535116], [-48.66617777998778, -2.12261962816716], [-48.66620581053745, -2.1227388660442745], [-48.66625611689519, -2.1228027033730057], [-48.66636062786228, -2.122865435353658], [-48.666431225740304, -2.1229195831153205], [-48.66650013694248, -2.1228417082039868], [-48.66683817967653, -2.1223966238970378], [-48.66730743549185, -2.1217434388381244], [-48.66813275763241, -2.1206719315888125], [-48.669806090021964, -2.1184703153084348], [-48.67069745474227, -2.1172290274857626], [-48.67183052545228, -2.1157517298840514], [-48.67189153845993, -2.1155982324852407], [-48.67188463180386, -2.1154901405349897], [-48.67125064827551, -2.115011349305824], [-48.67018041778183, -2.1141649915740435], [-48.670115389078525, -2.114167737625888], [-48.669875408083534, -2.1139483682396834], [-48.669711089881275, -2.1140826376974986]]]}}, {"type": "Feature", "properties": {"id": 259, "Parcela": "LM--082", "ANO": 2010, "Ha": 25.15, "PLANTAS": 3998, "VARIEDADE": "PB-121", "Rot_labels": 55}, "geometry": {"type": "Polygon", "coordinates": [[[-48.67874290634575, -2.1057837612942665], [-48.67385606373127, -2.11251447019122], [-48.676120455641986, -2.1139617559802977], [-48.679652660756005, -2.1090460758746388], [-48.67931939317551, -2.1088180345965855], [-48.67908777695046, -2.10867547382229], [-48.67940149702209, -2.1080749838208], [-48.67950350497987, -2.1077686316244004], [-48.679424905448954, -2.107507416782389], [-48.67904134183541, -2.1074500814658945], [-48.678906088161156, -2.107347710299916], [-48.67886112133442, -2.1072341224874096], [-48.6789179268648, -2.1069731107694536], [-48.67903555733323, -2.1067114302992334], [-48.67939215792357, -2.1064559808480827], [-48.679455059567736, -2.106269789023032], [-48.67874290634575, -2.1057837612942665]], [[-48.674306709544034, -2.1129579809304007], [-48.67434705322047, -2.1129001830727594], [-48.67381269379935, -2.112569583931944], [-48.673703276932535, -2.1126677787224586], [-48.672688967432705, -2.1140895708760175], [-48.67269452881281, -2.1142168681070657], [-48.67277489732171, -2.114315348899662], [-48.67301045876779, -2.114471922369769], [-48.67318319811328, -2.114333322314739], [-48.67340202366322, -2.1141427189672584], [-48.674306709544034, -2.1129579809304007]]]}}, {"type": "Feature", "properties": {"id": 260, "Parcela": "LM-083", "ANO": 2010, "Ha": 39.13, "PLANTAS": 6187, "VARIEDADE": "PB-121", "Rot_labels": 55}, "geometry": {"type": "Polygon", "coordinates": [[[-48.67261123102543, -2.114055601185454], [-48.67343352068126, -2.1129232754233547], [-48.67850098085997, -2.1059836287514853], [-48.678552976107916, -2.1058245949503953], [-48.67889880696941, -2.1053072767028898], [-48.67925913501589, -2.1047089774527645], [-48.67688054091923, -2.1031200843442024], [-48.675335795813325, -2.105455260506116], [-48.67549637081033, -2.105762152468748], [-48.67579497127773, -2.106069251611838], [-48.67528998711525, -2.10643276253772], [-48.674942682643675, -2.1061392826523457], [-48.67478636490723, -2.1062219357307], [-48.674673359397694, -2.106335286110981], [-48.67452071771697, -2.106545068972913], [-48.67446413071721, -2.106658504021158], [-48.674272012809, -2.106856875494829], [-48.674192807793005, -2.107004332524702], [-48.67414185416007, -2.107123451979266], [-48.67404574880818, -2.107253855579841], [-48.673926958025085, -2.1074636890558676], [-48.673768741623824, -2.1076280552393194], [-48.67354816126242, -2.107996663537402], [-48.673333315359386, -2.1083028443453666], [-48.67318625597734, -2.1085523670259154], [-48.67296020207697, -2.108807446798674], [-48.67259845658663, -2.1092553060613124], [-48.672355257397044, -2.10965793553022], [-48.67230432871004, -2.1097600267284213], [-48.67169374960614, -2.110604829907855], [-48.67141664788607, -2.1110414635790997], [-48.6712300608321, -2.1113136298157933], [-48.670845628096124, -2.111840917065043], [-48.6707380944753, -2.112067794353464], [-48.67070973293127, -2.112169919327379], [-48.670630594630744, -2.1122719677074135], [-48.67055714047495, -2.1123456447194835], [-48.6704845859113, -2.112576227381509], [-48.671967407114415, -2.1135398205445], [-48.671982485327305, -2.113721383985953], [-48.672057575050715, -2.113741898370986], [-48.67215365164515, -2.113773330061279], [-48.67231472312188, -2.113824769547767], [-48.6723739958697, -2.113890276739608], [-48.67261123102543, -2.114055601185454]]]}}, {"type": "Feature", "properties": {"id": 263, "Parcela": "LM-093", "ANO": 1996, "Ha": 26.83, "PLANTAS": 4002, "VARIEDADE": "PB-141", "Rot_labels": 55}, "geometry": {"type": "Polygon", "coordinates": [[[-48.67203470405342, -2.1156247901935425], [-48.667437184832636, -2.1216646991401094], [-48.666827163210456, -2.122486940508574], [-48.66646508336144, -2.1229651423638223], [-48.66650459530211, -2.123010710201033], [-48.666611912122995, -2.123087667650687], [-48.66672202624385, -2.123184539031791], [-48.6666552174384, -2.1233266116399103], [-48.66671893446852, -2.1233608772073604], [-48.666789519576206, -2.12342355769164], [-48.66687996310459, -2.1234407604972763], [-48.66696470963948, -2.123486397051106], [-48.667063523701955, -2.1235775628191544], [-48.66713974609234, -2.123651628838126], [-48.66737968781438, -2.123896597973058], [-48.667484194667956, -2.123962174243394], [-48.66767489800516, -2.1240492132362525], [-48.66775965742836, -2.1240863171022397], [-48.66779346389505, -2.124166007218641], [-48.66785126106645, -2.1242725170531274], [-48.66792543582804, -2.1243204902021935], [-48.668009435563945, -2.124343162087416], [-48.66807100944058, -2.1243770720720407], [-48.668076493281, -2.1244559855085354], [-48.66812661263912, -2.1244708471001563], [-48.66817178753139, -2.1245107351050314], [-48.66822207537888, -2.1245069313172436], [-48.67328165621345, -2.1178105122217676], [-48.673891896718324, -2.1169959221727974], [-48.6728062828242, -2.116177048627948], [-48.67203470405342, -2.1156247901935425]]]}}, {"type": "Feature", "properties": {"id": 262, "Parcela": "LM-092", "ANO": 1996, "Ha": 27.07, "PLANTAS": 4025, "VARIEDADE": "PB-141", "Rot_labels": 55}, "geometry": {"type": "Polygon", "coordinates": [[[-48.67393214895393, -2.1170689477127027], [-48.673847244962595, -2.117128548880364], [-48.671584045527474, -2.1201269954392865], [-48.668260851214754, -2.124574465944903], [-48.66830310488743, -2.124642320292944], [-48.66839082843054, -2.124671767486623], [-48.6684303148639, -2.1247344008050364], [-48.6684670210786, -2.1247657432266744], [-48.6685101848274, -2.124777900713036], [-48.66859133958228, -2.12481712840691], [-48.668633648925734, -2.1248826102638416], [-48.668715517271124, -2.1249623734195855], [-48.66878045676281, -2.125019356918981], [-48.66885706720174, -2.1250827759142292], [-48.66894149435585, -2.1250935518237672], [-48.66900262407313, -2.1251506299520724], [-48.669061503899236, -2.1251904383811295], [-48.66913138268898, -2.125212822397497], [-48.669256377955826, -2.125324413816379], [-48.66927603584465, -2.125412615262452], [-48.66930138221087, -2.1254780713893227], [-48.669386246367075, -2.1254454914457566], [-48.66948507141006, -2.125529546754401], [-48.66955428159361, -2.1255666270448708], [-48.6696390028124, -2.1256293291010757], [-48.66967641694401, -2.1256599615574294], [-48.669738529346134, -2.125716940793964], [-48.669823259119774, -2.125773954378012], [-48.66988536726644, -2.125833777859267], [-48.66998139080592, -2.1259007634600873], [-48.67003080229712, -2.1259435021882505], [-48.67008448228638, -2.1259677597965956], [-48.6701836018448, -2.125855562556129], [-48.67003394736649, -2.1257316105995523], [-48.67006085456107, -2.1256989426183597], [-48.670235503727746, -2.125808711285884], [-48.674091881005765, -2.120701065378173], [-48.67545638186374, -2.1188628933498337], [-48.67576945392132, -2.11845379283238], [-48.67393214895393, -2.1170689477127027]]]}}, {"type": "Feature", "properties": {"id": 261, "Parcela": "LM-091", "ANO": 1996, "Ha": 28.38, "PLANTAS": 4334, "VARIEDADE": "PB-141", "Rot_labels": 55}, "geometry": {"type": "Polygon", "coordinates": [[[-48.67586022818897, -2.1185259843967588], [-48.675788165979355, -2.118544837345103], [-48.67559475813933, -2.118814367362959], [-48.67027082903022, -2.125857591158589], [-48.67033480919513, -2.1259259502280115], [-48.67036302118306, -2.125965812522098], [-48.670361093733824, -2.125994252067279], [-48.6703440880314, -2.1260226687182997], [-48.67022927850663, -2.1259144130104777], [-48.670136801902835, -2.1259958076679726], [-48.670957619639346, -2.1266284769720314], [-48.672072131952284, -2.1274834440058226], [-48.67225999974963, -2.1272465647410623], [-48.672955965045794, -2.126390934050278], [-48.67325346784809, -2.126002494416742], [-48.6735341130124, -2.125647845609502], [-48.67360715349339, -2.12550705380467], [-48.673921487967824, -2.1251017308721116], [-48.67421897326141, -2.124724562686565], [-48.674494040884525, -2.1243529964365497], [-48.6746399948904, -2.124155953776953], [-48.67481401074918, -2.1239251369095875], [-48.67776884154363, -2.119966164702283], [-48.676865581478154, -2.119278386357864], [-48.67586022818897, -2.1185259843967588]]]}}, {"type": "Feature", "properties": {"id": 365, "Parcela": "LM-071", "ANO": 2020, "Ha": 28.73, "PLANTAS": 3936, "VARIEDADE": "PB-141", "Rot_labels": 51}, "geometry": {"type": "Polygon", "coordinates": [[[-48.69121633719404, -2.1082157824489824], [-48.69097283888065, -2.1084600279733614], [-48.69058843446394, -2.1083968798597863], [-48.684261764847186, -2.1156517032951387], [-48.68580918789303, -2.1169168863649235], [-48.69202308334851, -2.1094570970830016], [-48.691978167126315, -2.109240863905546], [-48.69121633719404, -2.1082157824489824]], [[-48.68103601625725, -2.119406978732957], [-48.67954063286354, -2.121171014069431], [-48.679557545071866, -2.121205170779351], [-48.68122650758874, -2.122484765110034], [-48.68251812454789, -2.12086263404266], [-48.68103601625725, -2.119406978732957]]]}}, {"type": "Feature", "properties": {"id": 253, "Parcela": "LM-051", "ANO": 2010, "Ha": 8.97, "PLANTAS": 1381, "VARIEDADE": "PB-121", "Rot_labels": 324}, "geometry": {"type": "Polygon", "coordinates": [[[-48.70571164152292, -2.1416369474666674], [-48.7058094052597, -2.1416428807093277], [-48.70592447891546, -2.141611231077692], [-48.70553759163633, -2.141322903600966], [-48.70407189020686, -2.140211412676919], [-48.702137471793385, -2.1386924799851057], [-48.70126506634692, -2.139772002859058], [-48.70114605022432, -2.1399538591551055], [-48.70110066149237, -2.140056185816771], [-48.70130386819137, -2.1402954142305863], [-48.70139998657665, -2.1403012478110495], [-48.701450758598, -2.140380965042489], [-48.70148453314646, -2.140483411117638], [-48.70151239035992, -2.1407621954575213], [-48.70146675566847, -2.141029491700722], [-48.70150041146974, -2.141211578275562], [-48.70159641968599, -2.1412913637895277], [-48.70196935560108, -2.1414682736334956], [-48.70239880306754, -2.141668023212163], [-48.70291325523943, -2.1417427512622904], [-48.70326387021953, -2.1417205254996077], [-48.70375592492985, -2.141647315231405], [-48.7043044912521, -2.141596944443961], [-48.70472291864357, -2.141603263645144], [-48.7050735086053, -2.14159810326364], [-48.70522612194318, -2.1416381536237568], [-48.7053448842576, -2.141626955273286], [-48.70543539080181, -2.1416043370782414], [-48.70571164152292, -2.1416369474666674]]]}}, {"type": "Feature", "properties": {"id": 254, "Parcela": "LM-052", "ANO": 2010, "Ha": 14.61, "PLANTAS": 2286, "VARIEDADE": "PB-121", "Rot_labels": 322}, "geometry": {"type": "Polygon", "coordinates": [[[-48.706160653720296, -2.1368042193413017], [-48.70583695170358, -2.1377423579315074], [-48.705757416444996, -2.1379925383396725], [-48.70565510238953, -2.138350768534673], [-48.70541161937896, -2.1385779477087645], [-48.70527585990335, -2.1386118752856516], [-48.705213727713115, -2.1385662727420978], [-48.70509517706726, -2.1384352558216815], [-48.70492014880187, -2.1382586448874177], [-48.70463755773111, -2.1381672016303215], [-48.7044113935997, -2.1381554840864863], [-48.7042021507925, -2.1381722351246717], [-48.70396464384997, -2.1381832549640367], [-48.7036309762142, -2.138216884535845], [-48.703438798600516, -2.13816539761658], [-48.703094008200765, -2.1380738605608838], [-48.70288483328411, -2.138045102520309], [-48.702771759830696, -2.138033555027655], [-48.70263611909352, -2.137987841807284], [-48.702556769647366, -2.1381128720401854], [-48.70225078230771, -2.138544746514058], [-48.70223921079466, -2.1387210763629936], [-48.703944913011526, -2.1400434068588043], [-48.705441663370756, -2.141189076205122], [-48.705709902799, -2.141425558556038], [-48.70583144584741, -2.141445651832554], [-48.70590214880255, -2.1414315367204724], [-48.705978629032394, -2.141334945071646], [-48.706049306596505, -2.141337895818445], [-48.70609179607795, -2.141283917745884], [-48.706493970995666, -2.140812366246124], [-48.706584494454404, -2.1407783706595906], [-48.706935744344605, -2.140329496667492], [-48.70703188004606, -2.140323952661338], [-48.70745681624321, -2.13975572762958], [-48.7073723192704, -2.1395394321530614], [-48.70719174580215, -2.139288860385232], [-48.707033629957486, -2.1391464066049775], [-48.70688111797563, -2.1390380931084163], [-48.706870172292874, -2.138793465112374], [-48.70683924556943, -2.1386768014881787], [-48.706749018032916, -2.1385116952771277], [-48.70667547948779, -2.1385314949589174], [-48.70663036995369, -2.1384460975471957], [-48.706554054851665, -2.138431761215505], [-48.70642445263197, -2.1381272241925156], [-48.706500894451295, -2.1380562311188425], [-48.70653789392772, -2.137891316201215], [-48.70665128870112, -2.137686695611244], [-48.706660108360424, -2.13745916327969], [-48.70673937315885, -2.1373910187078478], [-48.706745247265516, -2.137243122893929], [-48.70668029615879, -2.1371918275471944], [-48.706160653720296, -2.1368042193413017]], [[-48.70696712358751, -2.1404989969971417], [-48.706808850597106, -2.1405739767755794], [-48.706483311932466, -2.140969827401326], [-48.706414296154264, -2.140969723512803], [-48.70608295431997, -2.141400281061994], [-48.706028338350734, -2.141385733840862], [-48.70591313126327, -2.141507066155311], [-48.705835488517145, -2.141506949222144], [-48.705961853854305, -2.1416170733577538], [-48.706050947586085, -2.141651923483009], [-48.70615447557864, -2.1416491863995972], [-48.70621498492534, -2.141568273636544], [-48.706631908066306, -2.1416007243721484], [-48.706781171214956, -2.14178320791324], [-48.70689611153199, -2.141841240913829], [-48.70701116375547, -2.1418240561472857], [-48.70706279653697, -2.1419109238099985], [-48.70729294835833, -2.14184473133943], [-48.707419649540704, -2.1417292021280545], [-48.70748591880826, -2.141642511918359], [-48.70735681953521, -2.14143691473209], [-48.70725927079922, -2.1412863320168705], [-48.70715006887097, -2.1412369867032366], [-48.70708698504971, -2.1411153858555303], [-48.707038184885434, -2.14105745245944], [-48.70699520486922, -2.140953239864055], [-48.70696712358751, -2.1404989969971417]]]}}]}