{"type": "FeatureCollection", "features": [{"type": "Feature", "properties": {"nome": "FAZENDA_SOCOCO_MOJU", "Ha": 21716.26}, "geometry": {"type": "Polygon", "coordinates": [[[-48.64154615342631, -2.048759472736282], [-48.64052625248286, -2.0519723608609506], [-48.63940436844244, -2.051552456184812], [-48.63911434048664, -2.0525371215924464], [-48.64011624531353, -2.0529420332497983], [-48.63203681016807, -2.066232987890301], [-48.63164280991387, -2.06656384181535], [-48.625039658606745, -2.0761565291265716], [-48.63425300032935, -2.0840161255497094], [-48.63309112318858, -2.08569915777674], [-48.61883512209918, -2.0744849999266917], [-48.630967181622026, -2.0924645641734543], [-48.56766206773016, -2.1397195247327327], [-48.5451616037573, -2.168519053788998], [-48.59415106679461, -2.1768877461961664], [-48.592473953428794, -2.180163612391787], [-48.586695615148805, -2.1776435986492646], [-48.56518292237337, -2.223146070398768], [-48.57073468908324, -2.2251367569354716], [-48.570288397327026, -2.230620456408777], [-48.56696289121921, -2.2383433542217466], [-48.56755880756681, -2.242456638858839], [-48.56864750303479, -2.246886719173442], [-48.57062022404883, -2.251007400211768], [-48.574140702249494, -2.2542595324820422], [-48.57558128139849, -2.2495592194753535], [-48.575397653292725, -2.245083961472188], [-48.57646172435276, -2.2406771465975166], [-48.580085084785544, -2.2394554434901104], [-48.58127244214572, -2.237970485958801], [-48.58163425078327, -2.237555017346333], [-48.581504444953424, -2.2372050797267207], [-48.58176312300936, -2.2369948980890393], [-48.58356674294983, -2.2368819825178985], [-48.5845267446643, -2.2373039153430634], [-48.584522263470596, -2.2378445368937117], [-48.58468933640402, -2.2380996262049813], [-48.58467641362034, -2.238474727775749], [-48.58498668212317, -2.2389689581169745], [-48.585852487176496, -2.2391608471745634], [-48.58627666951991, -2.2393412477286163], [-48.58670144629664, -2.239268553855061], [-48.5871914194938, -2.239712553436392], [-48.58772968235879, -2.23936733696654], [-48.588346073518906, -2.2388297153811867], [-48.58916871815954, -2.2383247944962097], [-48.59144431930159, -2.2349092262724066], [-48.59176863781211, -2.234892406362765], [-48.59204212653676, -2.235076261858251], [-48.59275828026288, -2.2346330782105737], [-48.593195998579496, -2.233786649073711], [-48.593225541829554, -2.2333019272696966], [-48.59389859514215, -2.2331707025044625], [-48.5943731015951, -2.233240362449921], [-48.594714530781005, -2.233087530146352], [-48.59537624918769, -2.2331867848736047], [-48.596262179958174, -2.2325822700394315], [-48.596962143696175, -2.2322866907053567], [-48.59800722492562, -2.231474298684137], [-48.598984591373785, -2.2313060577765857], [-48.599353389024465, -2.231122263358003], [-48.599532965050955, -2.2305978322887112], [-48.59999811133686, -2.2301780009421366], [-48.600203826227435, -2.229157540271084], [-48.601824648811835, -2.2283811066095023], [-48.60214900117716, -2.228842277038821], [-48.602972380136706, -2.228213229869695], [-48.60337425139241, -2.2276360096500145], [-48.60335484187191, -2.2270263719590138], [-48.603743796542794, -2.2264345764011146], [-48.60396066027116, -2.2259074012774507], [-48.60465199782318, -2.2261397553480875], [-48.604960198950586, -2.226087469670132], [-48.60547418916772, -2.225577049792269], [-48.606000713968555, -2.22551065613463], [-48.60640398592809, -2.2254878145212538], [-48.60709618782955, -2.2250716921888936], [-48.60759353496993, -2.2247980719906466], [-48.60762098196611, -2.2244940358677963], [-48.608110632405904, -2.224032024642799], [-48.608909083733444, -2.2238722465826632], [-48.61020939378436, -2.2238156102308992], [-48.61063996852188, -2.2234352151761207], [-48.61107800561205, -2.2226037719108813], [-48.61155610057129, -2.2218960505338], [-48.61236896955856, -2.22143040299656], [-48.614721484613824, -2.221472037855347], [-48.61569684734397, -2.222352542049641], [-48.61702707524929, -2.2221349913067967], [-48.61757801999528, -2.2223368295910815], [-48.617947046058845, -2.2227957226294515], [-48.61838559110088, -2.2229349170054147], [-48.61889377896758, -2.2227940953935303], [-48.61941606447566, -2.222769361183343], [-48.61987403934287, -2.2222243083934656], [-48.62070814997062, -2.2217380780504947], [-48.622446354928506, -2.221673279406559], [-48.62328816020315, -2.2218260515789847], [-48.62419860222265, -2.2218203841464033], [-48.62496028363865, -2.221954766265048], [-48.625430817621286, -2.221817134481671], [-48.625711357969436, -2.2219818335676433], [-48.62580065609321, -2.2223875750043796], [-48.625954216693614, -2.2225036178426003], [-48.62728948842631, -2.2217753036713854], [-48.627653601299514, -2.221262635498191], [-48.628300127383405, -2.220583916831868], [-48.628721251971506, -2.2206630585749156], [-48.629712018633455, -2.2216208463347673], [-48.63053725229864, -2.2218004351536726], [-48.630684342131374, -2.2221740775973786], [-48.630947349090484, -2.222428251607558], [-48.63139020572297, -2.2225176429589104], [-48.63179572895049, -2.222351248966575], [-48.632647224783284, -2.222348012245003], [-48.63338775254874, -2.222621925823729], [-48.634186609659764, -2.222778330741586], [-48.63499255183044, -2.2231120095989536], [-48.63609297717714, -2.2234334175098867], [-48.635901456534235, -2.2243684264205843], [-48.63747571246567, -2.2244490587518837], [-48.63871853385239, -2.2243973658910425], [-48.641515798115826, -2.2260309144212935], [-48.64460728601652, -2.227015365246929], [-48.64765418773469, -2.2282799187643882], [-48.64858427676631, -2.228995894617128], [-48.65151061735604, -2.228205438626458], [-48.66153117337882, -2.2203290353687986], [-48.66275122662528, -2.2190799048475554], [-48.69523379950211, -2.2399664130227515], [-48.72241503258534, -2.2043197452454795], [-48.71535009472684, -2.199077620286302], [-48.71840964164512, -2.195792200886411], [-48.682953227958095, -2.168599724606879], [-48.69614258148223, -2.1511517327574645], [-48.693908685869395, -2.149420202025545], [-48.707110519231556, -2.1436784837838974], [-48.7089539930064, -2.1385294190769994], [-48.69961318512027, -2.1315670395145196], [-48.70568541654735, -2.1233057156139834], [-48.695548426140334, -2.1151711731751854], [-48.69478236650716, -2.11607760824887], [-48.69362088047838, -2.1164735710913], [-48.6927232594844, -2.1177522262561297], [-48.69275027317576, -2.1184044756917966], [-48.691976627065735, -2.119507897431283], [-48.69188136355103, -2.121024461910772], [-48.69121715273418, -2.122349938569043], [-48.69086847942658, -2.1241476524087544], [-48.69090974616193, -2.124868108041877], [-48.69039233660408, -2.1261592695324696], [-48.68858007344334, -2.128104760609067], [-48.68142472077475, -2.1225951862461003], [-48.69181381587656, -2.1100229840509694], [-48.69284618470915, -2.108825682111932], [-48.69188128583531, -2.107949411865369], [-48.6913021942909, -2.1075273333753595], [-48.69035170491669, -2.1083758804588717], [-48.6791568596248, -2.120793516285944], [-48.675505640198175, -2.117985336954453], [-48.686366374592154, -2.1026059280692624], [-48.6872372790832, -2.1030243409881817], [-48.68848709754523, -2.102134802373283], [-48.687218681399145, -2.0988820314618053], [-48.683889048492475, -2.0895337253970308], [-48.670818446332575, -2.0942074208352928], [-48.67126967091388, -2.0969023046103623], [-48.67248727356625, -2.101100017165028], [-48.68136647138273, -2.1021582325776764], [-48.68444216110203, -2.1021466248349405], [-48.681320073192715, -2.1063135785163354], [-48.679309993375725, -2.10487091627289], [-48.67692250254615, -2.1030921178409265], [-48.66958620721246, -2.113661956398195], [-48.66587076725756, -2.1108395943796996], [-48.67293940027821, -2.1014028029078675], [-48.67283877483904, -2.1012583332458625], [-48.67279435532449, -2.1012848569326], [-48.67277195400821, -2.101267902840377], [-48.672740387860486, -2.101264172744465], [-48.67271425598066, -2.101291411764313], [-48.672684023161146, -2.1012798579984957], [-48.672665533495476, -2.1013014948205377], [-48.672631202220245, -2.101305280701582], [-48.67261616913127, -2.1013154395753513], [-48.67258638726623, -2.10131245250208], [-48.67257465376912, -2.101301254611389], [-48.67256178903083, -2.101311887703497], [-48.672546969807605, -2.10130323257329], [-48.67252100126747, -2.101311797622515], [-48.67251303262073, -2.1012945297958217], [-48.672476570913496, -2.1013122797155863], [-48.672455967272874, -2.1013076539449114], [-48.672448122979915, -2.1013016705592764], [-48.67242738544761, -2.1013122159115833], [-48.67239441389992, -2.1013006724991166], [-48.67237831563154, -2.1013080835118507], [-48.672352150171406, -2.101287632643315], [-48.67234190705108, -2.101293612411323], [-48.67230268495987, -2.1012804984701883], [-48.672284029171244, -2.101297818577774], [-48.67223708249537, -2.101284044906419], [-48.67222575100018, -2.101292016294121], [-48.67221110573425, -2.1012896711314815], [-48.6720742646914, -2.101339581094516], [-48.67195852180304, -2.1012859549015666], [-48.671864708504565, -2.10132689419244], [-48.67181955838701, -2.1012813324126287], [-48.67169226091406, -2.1013868525588055], [-48.6716363837668, -2.101399759687982], [-48.67153700451187, -2.1014973947696207], [-48.67142421337471, -2.1014831580006312], [-48.671369203374894, -2.1014699561730397], [-48.67133987842336, -2.101473344550124], [-48.67128787467401, -2.1014021051901035], [-48.67120529497537, -2.101490215901911], [-48.67104826026445, -2.101312923533942], [-48.671039504932516, -2.101197180693247], [-48.67094463137685, -2.101261786027186], [-48.67089974458498, -2.1012507752366556], [-48.670875759714185, -2.1012680330767166], [-48.67083126160915, -2.1012639454599573], [-48.67073616203104, -2.101201597977083], [-48.670643855554474, -2.101197732414615], [-48.670643855554474, -2.101197732414615], [-48.67062771823185, -2.1011617944340317], [-48.67056981384989, -2.1011560450915816], [-48.67054380222018, -2.1010839914100923], [-48.67047670378922, -2.1010596589522343], [-48.67043379006833, -2.1009699362590437], [-48.67043144762888, -2.1009347638522056], [-48.67038246685112, -2.100874869346726], [-48.670297962312574, -2.100826777992794], [-48.6702353990179, -2.1008071330934897], [-48.67023003142884, -2.1007791020220363], [-48.670252316573595, -2.1007579997758237], [-48.67024012538591, -2.1007161422144995], [-48.6702243972897, -2.1007010560353074], [-48.6701946153293, -2.100661909959497], [-48.67020806849107, -2.100551325103053], [-48.6701725839519, -2.100539098125014], [-48.67015558963861, -2.100540608470451], [-48.67012579683177, -2.1005008000164964], [-48.67007780262052, -2.100494878431728], [-48.66998781788997, -2.1005329279414355], [-48.66988424123303, -2.1005442330376805], [-48.669748612679555, -2.1004534474090697], [-48.66972769651193, -2.100373595650445], [-48.66976662183824, -2.1002928564908796], [-48.669758909601875, -2.100246903457231], [-48.66965625711084, -2.1001833559743996], [-48.669596309536146, -2.1001715560289926], [-48.66958646145932, -2.100128055876905], [-48.66955193941375, -2.100157554790232], [-48.66952811862607, -2.100156283324641], [-48.66949998390681, -2.100118711980817], [-48.66951954377858, -2.100112774237096], [-48.669520964398025, -2.1000363693892017], [-48.66961473849197, -2.099942326567445], [-48.66957909701783, -2.0998256431581717], [-48.66961722704131, -2.0996673450660266], [-48.66964888665575, -2.099583683316369], [-48.66961722782044, -2.099545559796163], [-48.66963390119546, -2.099510800119], [-48.66960084473246, -2.0994584062746147], [-48.66953592778714, -2.0994366615858313], [-48.669500475723005, -2.0993934511768595], [-48.66941321494747, -2.0993499840744705], [-48.669362004108606, -2.099293709392472], [-48.66933669600814, -2.0992877667144674], [-48.669337890639675, -2.0992607588539447], [-48.669186537886176, -2.0990117789138765], [-48.66913435494795, -2.0989057194827017], [-48.6690476562414, -2.098845580466447], [-48.66906326902813, -2.098744931725433], [-48.66900968861427, -2.0986851406960008], [-48.668937663787545, -2.0984733786307324], [-48.66885862656577, -2.0984764954023643], [-48.668839637670395, -2.098453676098112], [-48.66882195571138, -2.098412340981447], [-48.66877155146197, -2.0984339072751963], [-48.66874645339394, -2.098410544565163], [-48.66867014544864, -2.0984182168988923], [-48.66862166834969, -2.0983519864438946], [-48.668579461713136, -2.098326624716431], [-48.66851250367082, -2.0982543714386996], [-48.66848805363117, -2.0982593861386674], [-48.6684448213729, -2.0982282374845846], [-48.668438134259596, -2.09816960699177], [-48.668427294886044, -2.098155965238433], [-48.6682481994814, -2.0981652560862725], [-48.668198653078505, -2.098145167039644], [-48.66818076725792, -2.098146219549905], [-48.668138440627885, -2.0981193841783847], [-48.66811202740753, -2.098084319457153], [-48.66813795915916, -2.0979749747298544], [-48.668130180236005, -2.0979224787401076], [-48.668166403231844, -2.097903797444823], [-48.668234662267224, -2.0979233215442656], [-48.66825810062112, -2.097886122290632], [-48.6682951391883, -2.0978445917326467], [-48.66831344699561, -2.0977861388428267], [-48.66833819843549, -2.0977250524134563], [-48.66834973897173, -2.097652357314266], [-48.66834593805384, -2.0975766434643153], [-48.66831905142334, -2.0975111658761865], [-48.66827725326825, -2.097463610583644], [-48.668260564631815, -2.097367380866105], [-48.66820526594293, -2.0971852869062095], [-48.66822111483572, -2.097056203380286], [-48.66822409050104, -2.0969817507867177], [-48.66817602883098, -2.0969438332573835], [-48.66813605036569, -2.096959257379056], [-48.66809777390935, -2.0970133711247945], [-48.66794215681431, -2.0971029559766543], [-48.66789009041314, -2.097081601266923], [-48.66783014607518, -2.0970238943343937], [-48.66770123351625, -2.096800856983307], [-48.66770530653401, -2.0966898415127964], [-48.66761947571833, -2.09656314394497], [-48.667601243789115, -2.0965182274370253], [-48.667601875747465, -2.0964670674874637], [-48.66755209311814, -2.0964148077707048], [-48.667495411915915, -2.096279231769787], [-48.66742049647404, -2.0962428767403685], [-48.66739061766472, -2.0961507783285516], [-48.66743145536707, -2.0960502136015053], [-48.66737881375636, -2.0960057653095685], [-48.667363530392166, -2.095927740035747], [-48.6673013246721, -2.095891937412081], [-48.66723267399237, -2.095917922985741], [-48.667216456815524, -2.095964449332291], [-48.66722127679018, -2.0960382717427852], [-48.66725414450038, -2.0960566778571725], [-48.66721548694647, -2.0961479159975487], [-48.66706248004563, -2.096203063598295], [-48.666951478360126, -2.096164117028044], [-48.6668831665885, -2.096106279193011], [-48.66689008007786, -2.0960187612226227], [-48.66669792202684, -2.0958473189187745], [-48.66098571000847, -2.093063624524459], [-48.6623901416101, -2.090700497737023], [-48.656084130530076, -2.086511395456271], [-48.65643905719007, -2.086058322945628], [-48.66129722722388, -2.0893056408855695], [-48.66149275887923, -2.08775071234681], [-48.6624779359801, -2.085775757929541], [-48.661516001649666, -2.084600823838911], [-48.66217258263779, -2.084149823310569], [-48.66085779643925, -2.0815612791311975], [-48.66040998372644, -2.079486983468038], [-48.66034643314313, -2.0789036810647605], [-48.65990285758582, -2.07791243275818], [-48.657982937867985, -2.0770803574140015], [-48.65889921389022, -2.0745315857216924], [-48.660974342634916, -2.072654332448732], [-48.660379985605054, -2.072069245971096], [-48.66424879376136, -2.0702922179583867], [-48.66288497426136, -2.066562582367135], [-48.66707583063305, -2.0648670406097804], [-48.66072368448631, -2.057361914019672], [-48.655408618040354, -2.056746303012775], [-48.65609821252789, -2.05334386555337], [-48.6488526063744, -2.0510236814236684], [-48.64498863726236, -2.049559351418068], [-48.64154615342631, -2.048759472736282]]]}}]}