{"type": "FeatureCollection", "features": [{"type": "Feature", "properties": {"Parcela": "G-161", "ANO": 2012, "Ha": 15.13, "PLANTAS": "1.889", "VARIEDADE": "AV do B", "UDF": 39}, "geometry": {"type": "MultiPolygon", "coordinates": [[[[-48.03324855369347, -1.2390680054735614], [-48.0331614470449, -1.2390546886204354], [-48.033185003333, -1.2390617408329956], [-48.033248709722, -1.2390702119439971], [-48.03324855369347, -1.2390680054735614]]], [[[-48.033128516964, -1.2390448301091153], [-48.033135280833, -1.2390506883329861], [-48.0331614470449, -1.2390546886204354], [-48.033128516964, -1.2390448301091153]]], [[[-48.033128516964, -1.2390448301091153], [-48.033073923582386, -1.238997546483928], [-48.033101860833, -1.2390296041670052], [-48.033122662778, -1.2390430775000079], [-48.033128516964, -1.2390448301091153]]], [[[-48.033073923582386, -1.238997546483928], [-48.033067221667, -1.2389898561109989], [-48.032996821513585, -1.2389257531337536], [-48.033012468611, -1.2389443199999943], [-48.033073923582386, -1.238997546483928]]], [[[-48.032923723901874, -1.2388390154158428], [-48.032968148333, -1.238899644722001], [-48.032996821513585, -1.2389257531337536], [-48.032923723901874, -1.2388390154158428]]], [[[-48.032915759722, -1.2388281461110084], [-48.03290608588856, -1.2388180861279785], [-48.032923723901874, -1.2388390154158428], [-48.032915759722, -1.2388281461110084]]], [[[-48.03253022199647, -1.2384664182588072], [-48.032581886389, -1.2385215405559928], [-48.032665260278, -1.2385878577779923], [-48.032786025278, -1.2386866191670145], [-48.032867214444, -1.2387776630559955], [-48.03290608588856, -1.2388180861279785], [-48.032812529444, -1.2387070719440016], [-48.0326273375, -1.238554394443997], [-48.032618455278, -1.2385471400000012], [-48.03253022199647, -1.2384664182588072]]], [[[-48.032244453611, -1.2381288725000061], [-48.032259020278, -1.2381370088889947], [-48.032413528889, -1.2383677244440006], [-48.032436869444, -1.238383047221995], [-48.032455066667, -1.2383976611109937], [-48.03253022199647, -1.2384664182588072], [-48.032514195556, -1.2384493191669974], [-48.032392309167, -1.238333570556013], [-48.032139638056, -1.2379579791669866], [-48.03212134435796, -1.2379298461149362], [-48.032244453611, -1.2381288725000061]]], [[[-48.03207837414141, -1.2378637641628192], [-48.03212134435796, -1.2379298461149362], [-48.032087374722, -1.2378749286109896], [-48.03207837414141, -1.2378637641628192]]], [[[-48.033770846111, -1.2370711786110016], [-48.033630323056, -1.2370853572219913], [-48.033544224722, -1.2370975100000017], [-48.033383998611, -1.2371225627780023], [-48.033239531944, -1.2370771505560083], [-48.033101438611006, -1.23704732111099], [-48.0329712775, -1.2370658319440004], [-48.03284534305601, -1.2370546447219952], [-48.032738466944, -1.2370776091669933], [-48.032712135278, -1.2371398427779905], [-48.0327120225, -1.2371510299999937], [-48.032680926944, -1.237252004167005], [-48.032681008333, -1.237258748888993], [-48.032661646111, -1.237388211388997], [-48.032613935833, -1.2375132936109936], [-48.032473493056, -1.2375467374999873], [-48.032436533611, -1.2376077286109988], [-48.032438786667, -1.2376159213889988], [-48.03250235, -1.2376673538889909], [-48.032506164444, -1.2376703586109998], [-48.032622830556, -1.2377289933329878], [-48.032624728611, -1.2377318613889952], [-48.03263412, -1.2377409266669868], [-48.032680369444, -1.2378252175000102], [-48.032685804722, -1.237830792778008], [-48.032797531111, -1.2377988802780067], [-48.032851612778, -1.2378292611109971], [-48.032894706944, -1.2378890208330087], [-48.032929805278, -1.2379405313889935], [-48.032932935556, -1.2379477736110003], [-48.032998310278, -1.2379895161110004], [-48.033002913889, -1.2379990480559917], [-48.033053483056, -1.238090314166998], [-48.033059852222, -1.2380975674999986], [-48.033064669722, -1.238102468888988], [-48.033118071389, -1.238163090278006], [-48.033121521389, -1.2381635024999975], [-48.033193156111004, -1.2382057536110003], [-48.033196046944, -1.238210290555988], [-48.033229650833, -1.238293106943989], [-48.033230761944, -1.238297340278006], [-48.03322262388901, -1.2384133738890082], [-48.033226444167006, -1.238421441111003], [-48.033257904167, -1.2385287050000042], [-48.033262124722, -1.2385328233329835], [-48.033288513889005, -1.2386182219440096], [-48.033265966389, -1.2387065449999974], [-48.033265433333, -1.2387097699999938], [-48.033246569722, -1.2388054969439966], [-48.03324606472201, -1.238808567499998], [-48.033232498056, -1.2388820244439984], [-48.033240259167, -1.2389507088889962], [-48.03324855369347, -1.2390680054735614], [-48.033650180556, -1.2391294061110043], [-48.034717103889, -1.2393284316670006], [-48.03478395444401, -1.2392931636109943], [-48.034879445833, -1.2392475736109931], [-48.034887208889, -1.239244391111006], [-48.034893114167, -1.2392430605559928], [-48.035035493056, -1.239234533889], [-48.035043495, -1.2392334388890107], [-48.035219737222, -1.239235088611002], [-48.035368475, -1.2392765422220058], [-48.035372536389, -1.239277081667014], [-48.035599101944, -1.2393247541670056], [-48.035607186111, -1.2393258174999897], [-48.03561325, -1.2393266194440067], [-48.035619312778, -1.2393274188889967], [-48.035740789722, -1.239364510278009], [-48.035742980278, -1.2393626749999966], [-48.03584314194401, -1.2393222375000115], [-48.035892425556, -1.2393605555560008], [-48.035901811389, -1.2393680680559955], [-48.035905362778, -1.2393727397219974], [-48.035967601389, -1.2393201224999983], [-48.03599369611101, -1.2390843474999929], [-48.036001880556, -1.2388231899999964], [-48.036012658333, -1.2386307961109932], [-48.036048964722, -1.2384968041669921], [-48.036049933056006, -1.238488999721988], [-48.036068870278, -1.2383527566669867], [-48.036083193056, -1.238185903333002], [-48.03612728805601, -1.23791664749999], [-48.036138621111, -1.2378028558330108], [-48.036139151111, -1.237798561388993], [-48.036140200278, -1.237651644443996], [-48.036147146389, -1.2374458355560045], [-48.036214079722, -1.2372994861109934], [-48.036242206944, -1.2371332294439956], [-48.036244306111, -1.237131257778], [-48.036308485833, -1.2369182966670094], [-48.036318283333, -1.23667292694401], [-48.036320576944, -1.23667044666699], [-48.036343753056, -1.2364869147220006], [-48.036397744444, -1.2363957600000024], [-48.036400229167, -1.2363932291670092], [-48.036483733333, -1.2362284091670162], [-48.036807662222, -1.236261074444004], [-48.0369021, -1.2362919316670056], [-48.036954381389, -1.2363637952779998], [-48.036969131389, -1.2364365505559993], [-48.037023308056, -1.2364411624999914], [-48.03702574555601, -1.236444124443988], [-48.037105685278, -1.236503883889005], [-48.037110771667, -1.2365102591669963], [-48.03722607055601, -1.2365862530559952], [-48.037319231111, -1.2366276147220014], [-48.037326373889, -1.2366316111109987], [-48.037331310278, -1.2366380594439985], [-48.037382847222005, -1.2367259080559911], [-48.037442555, -1.2367614224999899], [-48.037517460556, -1.2368196033329986], [-48.037524065833, -1.2368688041670006], [-48.037528479722, -1.2368744352779952], [-48.037532869444, -1.2368850827780018], [-48.037539459722, -1.2368934855559957], [-48.0375653675, -1.2369962086110107], [-48.037611001111, -1.2370548580559868], [-48.037613174167, -1.2370552083329969], [-48.03764057, -1.2371903863890075], [-48.037646326667, -1.2372009458330069], [-48.0376454175, -1.2373520408330023], [-48.037636293056, -1.2373597627780102], [-48.037750015833, -1.237445677500001], [-48.038153721667, -1.237473267500001], [-48.038934068333, -1.2375378813890012], [-48.039040853889, -1.2364781908330054], [-48.0339150825, -1.2359169974999895], [-48.033854837222, -1.2369777599999932], [-48.033819326667, -1.2370379436109846], [-48.033770846111, -1.2370711786110016]]], [[[-48.03206367888901, -1.2378411649999996], [-48.03197382022755, -1.2377340740088938], [-48.03207837414141, -1.2378637641628192], [-48.03206367888901, -1.2378411649999996]]], [[[-48.031879262778006, -1.2376365305560157], [-48.031940030556, -1.237693804443997], [-48.03197382022755, -1.2377340740088938], [-48.031908168889, -1.2376526391670082], [-48.031893132222, -1.237642791943996], [-48.03184829945743, -1.2376207304537106], [-48.031879262778006, -1.2376365305560157]]], [[[-48.030688078333, -1.2375956680560025], [-48.03039798411606, -1.2377322077435051], [-48.030401351111, -1.2377311291669968], [-48.03070086749421, -1.2375926566998419], [-48.030688078333, -1.2375956680560025]]], [[[-48.03070086749421, -1.2375926566998419], [-48.03075380615309, -1.2375801916781837], [-48.030701699722, -1.2375922719440027], [-48.03070086749421, -1.2375926566998419]]], [[[-48.031707874722, -1.2375490738890074], [-48.03169958616278, -1.2375475510068688], [-48.03184829945743, -1.2376207304537106], [-48.031707874722, -1.2375490738890074]]], [[[-48.031011716944, -1.2375203980560132], [-48.031349377213076, -1.2375105673444515], [-48.031339084722, -1.2375096872219948], [-48.031023126944, -1.2375167769440059], [-48.03075380615309, -1.2375801916781837], [-48.031011716944, -1.2375203980560132]]], [[[-48.03162241064305, -1.2375339147276274], [-48.031628313333, -1.237534455832985], [-48.03169958616278, -1.2375475510068688], [-48.03169199, -1.237543813055993], [-48.031665035278, -1.237539243333004], [-48.0316434475, -1.237535713611007], [-48.03162241064305, -1.2375339147276274]]], [[[-48.031349377213076, -1.2375105673444515], [-48.03162241064305, -1.2375339147276274], [-48.031363301667, -1.2375101619440037], [-48.031349377213076, -1.2375105673444515]]], [[[-48.030363815556, -1.2373250224999923], [-48.030414849722, -1.236961341666993], [-48.030415688333, -1.2366682905560042], [-48.030423001111, -1.2366613788889942], [-48.030450343889, -1.236392764999995], [-48.030482841389, -1.236089971944004], [-48.030424284167, -1.235943476667011], [-48.030356689444, -1.2357539897220018], [-48.030260093611, -1.235552583888997], [-48.029964114167, -1.2354421302779943], [-48.029698570556, -1.237768240000001], [-48.030297259167, -1.2378535811109956], [-48.030356956389, -1.2377461466670021], [-48.030388485833, -1.237736678332994], [-48.03039798411606, -1.2377322077435051], [-48.030355266111, -1.2377458919440085], [-48.030306721111, -1.2378354583330051], [-48.030342745278, -1.2376895955560028], [-48.030357055278, -1.2373274950000073], [-48.030363815556, -1.2373250224999923]]]]}}]}