{"type": "FeatureCollection", "features": [{"type": "Feature", "properties": {"Parcela": "E-132", "ANO": 2012, "Ha": 1.32, "PLANTAS": "133", "VARIEDADE": "AV do B", "UDF": 11}, "geometry": {"type": "Polygon", "coordinates": [[[-48.057523925, -1.2551795452779875], [-48.057208291389, -1.258070130000002], [-48.057603852778, -1.2580727358329977], [-48.0576338325, -1.2575576716670007], [-48.057695506944, -1.257137948610993], [-48.05770207277801, -1.2568678058330063], [-48.057731846111, -1.2566015788890028], [-48.057729531944, -1.2565980761109972], [-48.05778135, -1.2563870511110031], [-48.057778901389, -1.2563835136109962], [-48.057791550833, -1.2561510702780077], [-48.057836373056, -1.2558471094439991], [-48.057827845278, -1.2555796419439953], [-48.057828501667004, -1.2555762869439882], [-48.057858971389, -1.255368381944001], [-48.057899698889, -1.2552079508329992], [-48.057523925, -1.2551795452779875]]]}}, {"type": "Feature", "properties": {"Parcela": "E-133", "ANO": 2012, "Ha": 5.88, "PLANTAS": "993", "VARIEDADE": "AV do B", "UDF": 11}, "geometry": {"type": "Polygon", "coordinates": [[[-48.059496075556, -1.2527939208329995], [-48.05940889388901, -1.2528655877779968], [-48.059362879444, -1.2528697433330074], [-48.059355313611, -1.25286905000001], [-48.059301195556, -1.2528837661110086], [-48.059290475556, -1.2528939708330136], [-48.059231226111, -1.2529162997220122], [-48.059223404444, -1.2529210361110046], [-48.0591411425, -1.2529536672219996], [-48.059138647222, -1.2529534249999954], [-48.059005625, -1.253056012222008], [-48.058937008056, -1.2530308147219977], [-48.058874816389, -1.2530243816670068], [-48.058864800278, -1.2530287766669914], [-48.058859703333, -1.2530335869440048], [-48.058800718333, -1.2530311527779925], [-48.058790646389, -1.2530380886109984], [-48.058780767222, -1.2530398494439976], [-48.058772594444, -1.2530785263889899], [-48.058767465278, -1.2530911727780005], [-48.058764877778, -1.2530987830559999], [-48.058758695278, -1.2531550902780095], [-48.0587585575, -1.25316019694399], [-48.058725239167, -1.2532361322219951], [-48.05870705, -1.2532948258329861], [-48.0587044375, -1.2533045852780074], [-48.058699454444, -1.2533141272219857], [-48.058700737778, -1.2533588380560048], [-48.058633812778, -1.2533650411110067], [-48.058555168611, -1.2533799730559918], [-48.058512552222, -1.253373611111004], [-48.058441173333, -1.2534084444439964], [-48.058441138333, -1.2534132991670046], [-48.058353350833, -1.2534532350000005], [-48.058346239167, -1.2534549511109916], [-48.058287068611, -1.2534347752780006], [-48.058192248056, -1.253447118611011], [-48.058116108333, -1.253434771388994], [-48.058031188611, -1.2533997955559995], [-48.05801938111101, -1.2533355213890047], [-48.057991145833, -1.253256741666999], [-48.058006858056, -1.2531483697219974], [-48.058007078333, -1.2531407874999971], [-48.058006945278, -1.2530509694440004], [-48.058013650278, -1.2529486677779902], [-48.057921786944, -1.252957916388991], [-48.057869460278, -1.2529788100000079], [-48.057822267778, -1.2529631436109914], [-48.057743115278, -1.2529734924999976], [-48.057530204167, -1.255111641666996], [-48.059710955833, -1.255338558333003], [-48.059804364722, -1.2553098208330111], [-48.059913951111, -1.2529213044440017], [-48.059787160278, -1.2528648344439894], [-48.059702511111, -1.2528398725000005], [-48.059586058611, -1.252794354166995], [-48.059573303889, -1.2527930133330034], [-48.059565649167, -1.2527922066670079], [-48.059496075556, -1.2527939208329995]]]}}, {"type": "Feature", "properties": {"Parcela": "E-142", "ANO": 2012, "Ha": 23.24, "PLANTAS": "4.024", "VARIEDADE": "AV do B", "UDF": 20}, "geometry": {"type": "MultiPolygon", "coordinates": [[[[-48.053436383333, -1.2552650633329865], [-48.05341123694401, -1.255388509444], [-48.053410376944, -1.2553935347220013], [-48.053403114167, -1.2554811638889922], [-48.053401619167, -1.2554909824999922], [-48.053390818611, -1.2555890722220078], [-48.053330573889, -1.2557257277779892], [-48.0532498825, -1.255914392221996], [-48.053246527222, -1.2559211694439862], [-48.053175675556, -1.2560848633329884], [-48.053169548056005, -1.2560935655559904], [-48.053099931944, -1.2561792280559982], [-48.053094294444, -1.256187849444007], [-48.053088383611, -1.2561986913890157], [-48.053022855556, -1.2563123244440002], [-48.053022302222, -1.256316715833009], [-48.052936296667, -1.2564081505559919], [-48.052847091944, -1.2565313550000115], [-48.052846041389, -1.2565411994440097], [-48.052833234167, -1.2566122380559908], [-48.052748319444, -1.2567611025000098], [-48.052648894444, -1.2569116647219927], [-48.052495500278, -1.2570850327779903], [-48.052383706944, -1.2572594924999967], [-48.052371006389, -1.2573722405559895], [-48.052284899722, -1.2574064374999938], [-48.052270558889, -1.2575449972220072], [-48.052269504722, -1.2575570872220034], [-48.052269084722, -1.2575619194440084], [-48.052253969722, -1.2576791969439896], [-48.052250950833, -1.2576861919439988], [-48.052274917778, -1.2578162019440042], [-48.0522676075, -1.2578180719440095], [-48.052257285833, -1.2578268072219916], [-48.052193814444, -1.2579019633329904], [-48.052278034167, -1.2579100308329936], [-48.053772891944, -1.257997274167001], [-48.054943223056, -1.2580057816670018], [-48.055790040278, -1.2580245608330012], [-48.056389374444, -1.2580216486110074], [-48.056944688889, -1.2580532966669977], [-48.057176271111004, -1.258096797222002], [-48.057480110556, -1.2551454352780074], [-48.053552798333, -1.254690093333012], [-48.0527999110867, -1.2544712725035418], [-48.0535132525, -1.2546827172220016], [-48.053557471111, -1.254762762778009], [-48.053573700278, -1.2548537677779965], [-48.053527735278, -1.2549638083330086], [-48.053483158056, -1.2550717200000143], [-48.0534405125, -1.2551570130559944], [-48.053436383333, -1.2552650633329865]]], [[[-48.0506445175, -1.2570199044439996], [-48.050554654444, -1.256885932777999], [-48.050501343611, -1.256768903055999], [-48.050443923889, -1.2566511133329843], [-48.050440213333, -1.2566467641669998], [-48.050413993889, -1.2565143947219923], [-48.050474957222, -1.2564317980560062], [-48.050528354444, -1.2563473533330018], [-48.050693568056, -1.2563066919440042], [-48.050701355833, -1.2563071552779923], [-48.050802652778, -1.256313154167008], [-48.051025640556, -1.256318740278012], [-48.051151548056, -1.2563146922219952], [-48.051310245, -1.2563515174999929], [-48.051333708889, -1.256352965555993], [-48.051415843611, -1.256358164721996], [-48.051494389722, -1.256257636666999], [-48.051560886389, -1.2561239666670043], [-48.051683036667, -1.2559412052779984], [-48.051683365833, -1.2559374236109966], [-48.051752536389, -1.255824661110987], [-48.051753471111, -1.2558134072220082], [-48.051742118056, -1.2556797152779908], [-48.051684213611004, -1.255516728055999], [-48.051674244444, -1.255500291667008], [-48.051694853056, -1.2553430497219937], [-48.051699330556, -1.2553352755560119], [-48.051813467500004, -1.2552538225000043], [-48.051946668889, -1.255225813610997], [-48.052098026389, -1.2552118913889994], [-48.052166759722, -1.2550758419440158], [-48.05216805833301, -1.2550635249999982], [-48.052281755556, -1.254912886667], [-48.052353588611, -1.2547890427780095], [-48.052358814167, -1.2547768702780004], [-48.052558625742364, -1.254401144772697], [-48.052558441111, -1.2544010911110042], [-48.050131018889, -1.2541111633330024], [-48.049815813889005, -1.2579293013889925], [-48.050144956389, -1.2578707719439894], [-48.050446569444, -1.2578147086109883], [-48.0505805175, -1.257768647777986], [-48.05071486, -1.2577220233329989], [-48.050704031111, -1.2574552752780073], [-48.050701099444, -1.257435765000005], [-48.050678420278, -1.2571863191669945], [-48.050655163333, -1.2570363686109962], [-48.050648126667, -1.257024094443999], [-48.0506445175, -1.2570199044439996]]], [[[-48.052559265556, -1.2543999416670015], [-48.052558625742364, -1.254401144772697], [-48.0527999110867, -1.2544712725035418], [-48.052559265556, -1.2543999416670015]]]]}}, {"type": "Feature", "properties": {"Parcela": "E-143", "ANO": 2012, "Ha": 15.58, "PLANTAS": "2.871", "VARIEDADE": "AV do B", "UDF": 20}, "geometry": {"type": "MultiPolygon", "coordinates": [[[[-48.053700845, -1.2546942286109979], [-48.05366498319166, -1.254687167936037], [-48.053701978333, -1.254695381944008], [-48.05370237035102, -1.2546943914397652], [-48.053700845, -1.2546942286109979]]], [[[-48.056770369722, -1.252779257778012], [-48.056678796667, -1.2527832144440116], [-48.056578951389, -1.252777737222011], [-48.056492550556, -1.2527644030559972], [-48.056430346111, -1.252718886944008], [-48.056424456944, -1.2527152672220048], [-48.056359126667004, -1.2526721824999885], [-48.056324858333, -1.2527242908329879], [-48.056286762778, -1.2528278099999928], [-48.056252044167, -1.2529648716670039], [-48.056280030278, -1.2531056627780017], [-48.056278096944, -1.253111169443996], [-48.056236148333, -1.2532084388890004], [-48.056236878333, -1.253214023611009], [-48.056222178889, -1.253261970555992], [-48.056190787222, -1.2532892794440067], [-48.056125746944, -1.2532713402780085], [-48.056065010833, -1.253273550278009], [-48.056012532222, -1.2532584597219938], [-48.056007758889, -1.2532580874999875], [-48.055965241944, -1.2533015730560004], [-48.055912688889, -1.2533468055560089], [-48.055911136944, -1.2533466927779926], [-48.055854490278, -1.2533411622219945], [-48.055803026667, -1.253308141666999], [-48.055739739444, -1.253306989167003], [-48.055716608333, -1.2533448116670032], [-48.055715126389, -1.2533463894439882], [-48.055660619444, -1.253341481110989], [-48.055657345, -1.2533394158330085], [-48.055591197778, -1.2533552219440107], [-48.055536466944, -1.2533842772220056], [-48.055483613889, -1.2534112055559967], [-48.055398314444, -1.2534364391670088], [-48.055353812222, -1.2534780638889935], [-48.05528969416701, -1.2534967830560053], [-48.055193183611, -1.2535010069439996], [-48.055118149722, -1.2535131880559967], [-48.055052986111, -1.253478643055994], [-48.054999960556, -1.253471976389], [-48.054992445, -1.2534728541670022], [-48.054989521389, -1.2534757566669845], [-48.054925759167, -1.2534966444440034], [-48.05488113444401, -1.253529905], [-48.054879805278, -1.25353287333299], [-48.054817949722, -1.253563887221993], [-48.054815327222, -1.253568243888995], [-48.054763975278, -1.2535877697219953], [-48.05472148, -1.2536184113890005], [-48.054675180278, -1.2536266597220085], [-48.054612854167, -1.2536645497220056], [-48.054575052778, -1.2537580605560148], [-48.054575090278, -1.2537629541669895], [-48.054511189167, -1.2538060116670011], [-48.054506848333006, -1.2538120213890085], [-48.054502503889, -1.2538164474999935], [-48.054443365, -1.2538989452779994], [-48.054440462222, -1.2538987133329869], [-48.054391401667, -1.2539513269440004], [-48.05438719305601, -1.2539539288890018], [-48.054356473056, -1.2540286344439995], [-48.054356698056, -1.2540329644440016], [-48.054325106389, -1.254061837778009], [-48.054310088611, -1.2541149163890086], [-48.054263494167, -1.254169160000001], [-48.054210517222, -1.2542370622219965], [-48.054200743611, -1.2542381813890007], [-48.054108844722, -1.2542695869440008], [-48.054018911944, -1.2542686363890099], [-48.053922315556, -1.2542712049999893], [-48.053857968333, -1.2542347769440112], [-48.053798377222, -1.2542568266670042], [-48.053792115833, -1.2542616533329887], [-48.053734859167, -1.2543079800000023], [-48.0537318125, -1.25431120027799], [-48.053725742222, -1.2543176480559985], [-48.053722718889, -1.2543208711110043], [-48.053691073889, -1.2543788650000016], [-48.053689846389, -1.254383990277992], [-48.053632236944, -1.2544746894440122], [-48.053628259167, -1.2544825997219977], [-48.053637585556, -1.254506539167007], [-48.05368558666701, -1.2545484936110014], [-48.053698692222, -1.2546237947219878], [-48.053698903333, -1.2546284236109877], [-48.0537071475, -1.2546823211110028], [-48.05370237035102, -1.2546943914397652], [-48.057469448611, -1.2550965188890066], [-48.057692159722, -1.2530046094439968], [-48.05756926250001, -1.2529594952779843], [-48.057563718889, -1.2529589252780082], [-48.057488493611, -1.252963079444003], [-48.057482952778, -1.252962499443999], [-48.057364025556, -1.2529203455559972], [-48.057278451389, -1.252867638055999], [-48.057189180556, -1.2528502022220147], [-48.057068177778, -1.2528137688889964], [-48.056980321111, -1.2527953294440064], [-48.056969006944, -1.2527941522220007], [-48.056957723333, -1.2527930208330094], [-48.056857085556, -1.2527928299999982], [-48.056770369722, -1.252779257778012]]], [[[-48.053619322778, -1.2546781780559952], [-48.05366498319166, -1.254687167936037], [-48.05353708540802, -1.2546587708692967], [-48.053619322778, -1.2546781780559952]]], [[[-48.053500276944, -1.2546500844440018], [-48.05347833069982, -1.2546474832852081], [-48.053500303333, -1.2546506041670067], [-48.05353708540802, -1.2546587708692967], [-48.053500276944, -1.2546500844440018]]], [[[-48.053215233056, -1.2545700822220018], [-48.053314601389, -1.2546054013890058], [-48.053403920556, -1.2546386638889955], [-48.05347833069982, -1.2546474832852081], [-48.053403243889, -1.2546368183329881], [-48.053313863056, -1.254605093610988], [-48.053216365278, -1.254569796943993], [-48.05319762429439, -1.2545668580072202], [-48.053215233056, -1.2545700822220018]]], [[[-48.052913976667, -1.254486381110998], [-48.053030557778, -1.2545210994439924], [-48.053127425, -1.254555849443997], [-48.05319762429439, -1.2545668580072202], [-48.053127624444, -1.254554040833003], [-48.053032616111, -1.2545205461109858], [-48.052913705278, -1.2544850058329953], [-48.0528215199018, -1.254455263143272], [-48.052913976667, -1.254486381110998]]], [[[-48.052789896198135, -1.2544444123117726], [-48.052806230833, -1.2544503302780023], [-48.0528215199018, -1.254455263143272], [-48.0528063675, -1.2544501633330027], [-48.052789896198135, -1.2544444123117726]]], [[[-48.052689469736414, -1.2544080282465027], [-48.052697263333, -1.2544144388889948], [-48.052714428611, -1.2544180625000012], [-48.052789896198135, -1.2544444123117726], [-48.052689469736414, -1.2544080282465027]]], [[[-48.052958067222, -1.2537490983329909], [-48.053078865833, -1.2536756819440011], [-48.053141815, -1.2536225077780005], [-48.053207991111, -1.2535526130559993], [-48.05323549638901, -1.2534170488890082], [-48.053236898056, -1.2534142113890008], [-48.053269899167, -1.2533388561109913], [-48.053271481944, -1.2533313561109916], [-48.05327161722201, -1.2533267833330013], [-48.053322563056, -1.2532017708329932], [-48.053322794722, -1.2531952277780014], [-48.053323026389, -1.2531886647220056], [-48.053316912778, -1.2530894825000078], [-48.053317100556, -1.2530844455559953], [-48.05331825, -1.2529765408329927], [-48.053316984167004, -1.252971218610991], [-48.053296038611, -1.252942041944012], [-48.053232450278, -1.2529549063889962], [-48.053175081111, -1.2529802511109982], [-48.05310322, -1.252952014999998], [-48.0530805325, -1.252885390556008], [-48.053053124722, -1.2528457400000008], [-48.05306279861101, -1.2527657522220046], [-48.053143730278, -1.2527158897219997], [-48.053143581111, -1.252711211110993], [-48.053188874722, -1.2526609749999957], [-48.053191033333, -1.2526611916670023], [-48.053333498056, -1.2526710016669917], [-48.053389588056, -1.2526239366670036], [-48.053389544444, -1.2526165663890092], [-48.053419894444, -1.2525073313890103], [-48.053419903889, -1.2524971955560074], [-48.053420008056, -1.2524796338889952], [-48.053424166944, -1.2523736913889936], [-48.053366229167, -1.2523404799999986], [-48.053361827778005, -1.2523325161110048], [-48.053312756389, -1.2522592730560054], [-48.053305968333, -1.2522534658330058], [-48.053239834722, -1.2521770186109966], [-48.053235209444, -1.2521660961109875], [-48.053158489444, -1.252110316111007], [-48.050285228889, -1.2517982658330056], [-48.050282013611, -1.2517980961109965], [-48.050130924167, -1.2540930422220051], [-48.052672864444, -1.2544020122220036], [-48.052689469736414, -1.2544080282465027], [-48.05264568, -1.2543720088889925], [-48.052647117778, -1.2542946055560082], [-48.052672635556, -1.2542281369440065], [-48.052725041944, -1.2541400244440117], [-48.052729462222, -1.2541367441670002], [-48.052739944444, -1.2541303383330016], [-48.052744386389, -1.2541270436109957], [-48.052773198056, -1.2540668094440035], [-48.052783918889006, -1.2539996202779993], [-48.052810331667004, -1.2538979633329956], [-48.052810126111005, -1.2538946244439946], [-48.052887511944, -1.2538327650000036], [-48.052958120833, -1.2537508819439984], [-48.052958067222, -1.2537490983329909]]]]}}, {"type": "Feature", "properties": {"Parcela": "E-144", "ANO": 2012, "Ha": 7.31, "PLANTAS": "1.346", "VARIEDADE": "AV do B", "UDF": 20}, "geometry": {"type": "Polygon", "coordinates": [[[-48.050283852222, -1.251783495277999], [-48.053241933056, -1.252100952499987], [-48.05323517, -1.2520496074999987], [-48.053208905833, -1.252013716111005], [-48.053125593056, -1.25195079694401], [-48.053061786667, -1.2519085238890084], [-48.053017139444, -1.2518486744439958], [-48.052984456389, -1.2518122877780042], [-48.052987195833, -1.2518087113889953], [-48.053031778056, -1.2517410488890082], [-48.053041611944, -1.251655433055997], [-48.053042980278, -1.2516494569439967], [-48.0530425675, -1.2515811402780073], [-48.053037692222, -1.251487015556006], [-48.053002606111, -1.251452357222001], [-48.052994293333, -1.2513366652779958], [-48.052967951944, -1.2512912658330098], [-48.052957785556, -1.2512526774999952], [-48.05295634722201, -1.2512504188889955], [-48.052924352778, -1.2511803108330108], [-48.052925471667, -1.2511761036109899], [-48.052928837778005, -1.251163448888993], [-48.052915866667, -1.2511113461109944], [-48.052918530278, -1.2510534919440084], [-48.052921342222, -1.2510425552780051], [-48.052934541667, -1.2509737083330077], [-48.052930009444, -1.250902736667003], [-48.052931549167, -1.2508960569440033], [-48.05292778, -1.250839710832991], [-48.052929500556, -1.2508327536109944], [-48.052917236944, -1.250758926388993], [-48.052922105556, -1.2506147638890002], [-48.0529198375, -1.2504873174999889], [-48.052851413611, -1.2504115908330056], [-48.052830572778, -1.250326382222002], [-48.05284425250001, -1.250186619167001], [-48.052789675278, -1.250038833889004], [-48.052717039167, -1.249887025832994], [-48.0526880525, -1.2498076058330085], [-48.052591134722, -1.2496857952779976], [-48.050465745556, -1.2494891766670078], [-48.050283852222, -1.251783495277999]]]}}, {"type": "Feature", "properties": {"Parcela": "F-141", "ANO": 2012, "Ha": 17.2, "PLANTAS": "2.917", "VARIEDADE": "AV do B", "UDF": 21}, "geometry": {"type": "MultiPolygon", "coordinates": [[[[-48.053165290278, -1.2478782608330001], [-48.053232129167, -1.247827857500005], [-48.053338544444, -1.247836668333004], [-48.053368481944, -1.2479385294440135], [-48.053392189167, -1.2480649680560087], [-48.053396036667, -1.2480729697220088], [-48.053470315833, -1.2481135024999908], [-48.053605697222, -1.2481324474999949], [-48.053719536667, -1.2480925380560102], [-48.053820793889, -1.2481125183329842], [-48.053945642222, -1.2482137849999961], [-48.0540731, -1.2482502633330055], [-48.0542140425, -1.2482877886110109], [-48.054341907778, -1.2483716938890153], [-48.054460464722, -1.2484141172219951], [-48.054580952778, -1.2484618138889971], [-48.054650016667, -1.2485529347220048], [-48.054621538889, -1.2486514697219886], [-48.054554928889, -1.248724189721998], [-48.054589190556, -1.2488464058330144], [-48.05459348416701, -1.2489834499999992], [-48.054593630833, -1.2489879813890035], [-48.054573673889, -1.2491341844440085], [-48.054574706111, -1.2493412438890035], [-48.054553907222, -1.2495419319439918], [-48.054605037778, -1.2497457736110062], [-48.054615868611, -1.249746552778001], [-48.054651017778, -1.2498792777779937], [-48.054651004722, -1.249883096943994], [-48.054780411389, -1.2500465933330052], [-48.054784006667, -1.2500507155560112], [-48.054930769167, -1.250105077499991], [-48.055129824722, -1.2502289030559957], [-48.055284996389, -1.250338333333], [-48.05545505888901, -1.2504392469440015], [-48.055610785, -1.2505665869440004], [-48.055780611111, -1.2506515586109974], [-48.055943638056, -1.2507062477780078], [-48.056058432222, -1.250705646666994], [-48.056183966111, -1.250670583332988], [-48.056318207222, -1.250656396944002], [-48.056382759167, -1.2507048238889988], [-48.0565001675, -1.2506875691669894], [-48.056514048056, -1.2506888047220022], [-48.0565279925, -1.2506899019439974], [-48.0567264025, -1.250659598611003], [-48.056917245, -1.2506314694440022], [-48.057126717778, -1.250600911110992], [-48.057282885556, -1.2505861116670067], [-48.057594935278, -1.2479067733330025], [-48.05174086623598, -1.2472341865248917], [-48.052635329444, -1.2473382775000006], [-48.052639978333, -1.2475166961109971], [-48.052660897778, -1.2476928099999982], [-48.05266278, -1.2477091813889984], [-48.052664286111, -1.2478413711110041], [-48.052736081389, -1.2479567663889877], [-48.052953560556, -1.2480018311110044], [-48.053035675, -1.2479969975000003], [-48.053093803056, -1.2479472772219966], [-48.053099848056, -1.247936005277997], [-48.053165290278, -1.2478782608330001]]], [[[-48.051259265713604, -1.247178141318642], [-48.05126002733451, -1.2471789414257155], [-48.05174086623598, -1.2472341865248917], [-48.051259265713604, -1.247178141318642]]]]}}, {"type": "Feature", "properties": {"Parcela": "F-142", "ANO": 2012, "Ha": 11.61, "PLANTAS": "3.979", "VARIEDADE": "AV do B", "UDF": 21}, "geometry": {"type": "MultiPolygon", "coordinates": [[[[-48.051264245403495, -1.2471744438263819], [-48.052589137222, -1.2473245658330048], [-48.052586472057584, -1.2473181499582837], [-48.051264245403495, -1.2471744438263819]]], [[[-48.051264245403495, -1.2471744438263819], [-48.05125471851725, -1.2471733643437366], [-48.05125476528828, -1.247173413478203], [-48.051264245403495, -1.2471744438263819]]], [[[-48.052075127222, -1.2461355897219906], [-48.052156113333, -1.2462058574999906], [-48.052265292222, -1.2463386583329905], [-48.0523623475, -1.2465720538890144], [-48.052443816944, -1.2467950077779997], [-48.052480022778, -1.2469827097220003], [-48.0525395175, -1.2472051158330046], [-48.052586472057584, -1.2473181499582837], [-48.057598108333, -1.24786283472201], [-48.057846404722, -1.2456091230559903], [-48.0507724875, -1.2448300252779907], [-48.050879717222, -1.2450566511110015], [-48.050892060278, -1.2451762533329942], [-48.051001891944, -1.2452688325000103], [-48.051134777222, -1.2453586994439982], [-48.051192110278, -1.2453777224999978], [-48.051102111667, -1.2454867613890053], [-48.051119491667, -1.2456126333329995], [-48.051115656944, -1.245615679444004], [-48.051095238889, -1.245711774721992], [-48.051114208056, -1.2458230783329995], [-48.051185826389, -1.245889380278], [-48.051337026667, -1.245970873888999], [-48.051466578056, -1.245984914443984], [-48.051537628889, -1.2459570194439982], [-48.051682585833, -1.245963611666998], [-48.051786456944, -1.2460181513889979], [-48.051949244444, -1.246082350277996], [-48.052075127222, -1.2461355897219906]]], [[[-48.050011299167, -1.2458514522220012], [-48.04998387120125, -1.2458382986793184], [-48.05001532796751, -1.245871345016227], [-48.050011299167, -1.2458514522220012]]]]}}, {"type": "Feature", "properties": {"Parcela": "F-131", "ANO": 2012, "Ha": 4.45, "PLANTAS": "677", "VARIEDADE": "AV do B", "UDF": 12}, "geometry": {"type": "Polygon", "coordinates": [[[-48.061434504167, -1.2492319969439984], [-48.061589510000005, -1.2492497424999967], [-48.061763078056, -1.2492513491669974], [-48.0618683875, -1.2492702719440054], [-48.0620524575, -1.2492917486110149], [-48.0621568225, -1.2493001911109995], [-48.062294274444, -1.249289161110998], [-48.062476956944, -1.2493078080560007], [-48.0625894025, -1.2492958136109982], [-48.062670550833, -1.2493170422220075], [-48.062798425556, -1.2493336819439953], [-48.062948116944, -1.2493263938889902], [-48.063180170833, -1.2493567805560049], [-48.063361237778, -1.2493616555560025], [-48.063581487778, -1.2493743705559939], [-48.063826583056, -1.2493826436110056], [-48.064201351111, -1.2494030119439987], [-48.064538308889, -1.2494042622219894], [-48.06465404, -1.2494193133329905], [-48.064742368056, -1.249408921667001], [-48.064828872222, -1.249409205278007], [-48.064873195, -1.2487304405559883], [-48.060465834444, -1.2482649102779948], [-48.06034448805601, -1.2491700505559995], [-48.060552213611, -1.2491869619440068], [-48.060753433056, -1.2491870849999989], [-48.0608828525, -1.2491909497220075], [-48.061024863056, -1.249204524444007], [-48.061078324444004, -1.2492168480560049], [-48.061141731111, -1.2491857558330075], [-48.061275366111, -1.249184844722006], [-48.061315336389, -1.2492217302780084], [-48.061434504167, -1.2492319969439984]]]}}, {"type": "Feature", "properties": {"Parcela": "F-132", "ANO": 2012, "Ha": 4.64, "PLANTAS": "3.589", "VARIEDADE": "AV do B", "UDF": 12}, "geometry": {"type": "MultiPolygon", "coordinates": [[[[-48.064810005556, -1.2482485486110142], [-48.064810979167, -1.2482409336110043], [-48.064808165278, -1.248181349721991], [-48.064847430833, -1.248148017500004], [-48.064867433611, -1.2481301047219873], [-48.064889098611, -1.248089073332998], [-48.064889976944, -1.2480828905560035], [-48.064891144167, -1.2480746200000035], [-48.064892315, -1.2480663313890028], [-48.064903754722, -1.2479593722219957], [-48.064953927778, -1.2474417250000054], [-48.064973449444, -1.2472980299999994], [-48.064972552222, -1.2472046775000039], [-48.064975798056, -1.247053384721999], [-48.064976659167, -1.2470466477780138], [-48.064988332778, -1.2469406791670008], [-48.064966585556, -1.2467547791670108], [-48.0649994675, -1.2465807061109988], [-48.065000131389, -1.2465751924999993], [-48.065000368611, -1.2464688566669992], [-48.064996601389, -1.2464652952780013], [-48.064932940833, -1.2463942911109982], [-48.064923122778, -1.2463869261109977], [-48.064919543611, -1.2463804611109968], [-48.064826558056, -1.246354383610999], [-48.064728759167, -1.2463584708330087], [-48.064694842222, -1.2464751683329922], [-48.064611068333, -1.2465096750000015], [-48.064600826111, -1.2465108500000053], [-48.064592726667, -1.2465095830559962], [-48.064525387222, -1.2465122766670034], [-48.064399044167, -1.2465225805560003], [-48.064340564444, -1.246545209999993], [-48.064255923611, -1.2465511325000123], [-48.064153064722, -1.246514326389002], [-48.063946109444, -1.2464533158329967], [-48.0638295725, -1.2464292847220093], [-48.06374026, -1.2463406536110047], [-48.063738710278, -1.2463384691670054], [-48.06362595, -1.2462125372220019], [-48.06362431919514, -1.2463287393435076], [-48.06066848923281, -1.245986557076102], [-48.06060759302901, -1.2464774060950166], [-48.060434445278, -1.2482182319439992], [-48.06025329899902, -1.2481974254475607], [-48.060253131111, -1.248199000277998], [-48.06487211333301, -1.2486994219440006], [-48.06489475, -1.2485367074999956], [-48.064898839722, -1.2484171683329903], [-48.064899879444, -1.2483233727779846], [-48.064900161389, -1.248321521666985], [-48.064864648056, -1.248286220556002], [-48.064856311667, -1.2482850374999919], [-48.064847971389, -1.2482838725000032], [-48.064810005556, -1.2482485486110142]]], [[[-48.060417215278, -1.246322383055994], [-48.060438115, -1.2461479747220017], [-48.060461461389, -1.2458835505560113], [-48.057888372778, -1.2456204516669998], [-48.057642741667, -1.2478975752779946], [-48.06025329899902, -1.2481974254475607], [-48.060273708889, -1.2480059755559896], [-48.060348706389, -1.2470885669439986], [-48.060417215278, -1.246322383055994]]]]}}, {"type": "Feature", "properties": {"Parcela": "F-133", "ANO": 2012, "Ha": 1.4, "PLANTAS": "2.429", "VARIEDADE": "AV do B", "UDF": 12}, "geometry": {"type": "MultiPolygon", "coordinates": [[[[-48.0635856175, -1.24535428999999], [-48.063650059722, -1.2452747927779844], [-48.063666593333, -1.2451144983329945], [-48.063660330278, -1.24510058249999], [-48.063656901667, -1.2450869441669996], [-48.063652900556, -1.2450765391669996], [-48.063633533056, -1.2450373583330059], [-48.063464220833, -1.2450454094440015], [-48.063365565, -1.2450289258329996], [-48.063270740556, -1.2449824197219945], [-48.06327043784763, -1.2449819787845007], [-48.06326831888901, -1.2449788922220009], [-48.063179377778, -1.2449051527779904], [-48.063052283611, -1.2448254694439933], [-48.062953063056, -1.24472881583299], [-48.06293935000001, -1.2447213455560018], [-48.062858655278, -1.2445899608330036], [-48.062810116944, -1.2444324930559911], [-48.062805986389, -1.2444212177779947], [-48.06280119, -1.244417986110999], [-48.062825026944, -1.2442831922219886], [-48.062902870278, -1.2441619830559847], [-48.063052597778, -1.2441321952779962], [-48.063264315556, -1.244153818332991], [-48.063390941389, -1.244163476389001], [-48.063473956944, -1.2441441180560022], [-48.063552075278, -1.2440892230559908], [-48.063550645833, -1.2440805466669964], [-48.063570963333, -1.2439449999999994], [-48.063563759722, -1.2439382813890012], [-48.063557537222, -1.2438874597219962], [-48.060841325278, -1.243637765556008], [-48.060623847222, -1.245872419999996], [-48.06041943967032, -1.2458516293839546], [-48.063593631944, -1.2462034161109912], [-48.0635143225, -1.246092877221992], [-48.063458193056, -1.245998032778006], [-48.063412173611006, -1.245866728610997], [-48.063412761389, -1.2457180044439957], [-48.063410599722, -1.2457146536110038], [-48.063414841389, -1.2455517016670057], [-48.063418454444, -1.2455462094440033], [-48.063488077222, -1.2454903155560089], [-48.06354239416701, -1.245428814443998], [-48.063584595556, -1.2453603838889942], [-48.0635856175, -1.24535428999999]]], [[[-48.059951083333, -1.2436153108330108], [-48.059841735833, -1.2435594450000003], [-48.059760880556006, -1.2435147152779962], [-48.059671266389, -1.2434491675000052], [-48.059602740556, -1.2434526244439874], [-48.059475102222, -1.243507382499994], [-48.059327931667, -1.2435745869440107], [-48.059263248611, -1.2440669161109938], [-48.058062181389005, -1.2439453474999969], [-48.057886605, -1.2455940097219995], [-48.06041943967032, -1.2458516293839546], [-48.060412276944, -1.2458508355560014], [-48.060581069444, -1.244025639166993], [-48.060476353611, -1.2439751183330134], [-48.060465873333, -1.2439700619440097], [-48.06032679277801, -1.2439227063889988], [-48.060216344722, -1.2439090566670072], [-48.060086985833, -1.2438968855559953], [-48.059988883333, -1.2438504830559922], [-48.059963334722, -1.2437671130559973], [-48.060020956389, -1.243654803888996], [-48.059951083333, -1.2436153108330108]]]]}}, {"type": "Feature", "properties": {"Parcela": "F-134", "ANO": 2012, "Ha": 7.62, "PLANTAS": "3.357", "VARIEDADE": "AV do B", "UDF": 12}, "geometry": {"type": "MultiPolygon", "coordinates": [[[[-48.063503161111, -1.2436854927780094], [-48.06344950500001, -1.243642147778], [-48.063443652222, -1.2436363333329987], [-48.063440558333, -1.2436342897219954], [-48.063379554722005, -1.2435949655559886], [-48.063374991667, -1.2435909569440011], [-48.063371843056004, -1.2435888727780016], [-48.063350826111, -1.2435346897220056], [-48.063209691389, -1.243401091389007], [-48.063171335833005, -1.2433301699999948], [-48.063042689722, -1.2432635113889883], [-48.063010777778004, -1.2431641955559938], [-48.063007028611, -1.243101061666999], [-48.062996640833, -1.2430219502780115], [-48.06290744888901, -1.242979342778005], [-48.062924093333, -1.2428304449999954], [-48.062924268611, -1.242828004722003], [-48.062941716111, -1.2427297227780025], [-48.062986148056, -1.2426158380559977], [-48.063069238889, -1.2425678208330013], [-48.063170051111, -1.2425499913890137], [-48.063256901389, -1.242563909166999], [-48.063357841389, -1.2426134144440013], [-48.063435801389, -1.2426503561110052], [-48.063488599722, -1.2426671730559982], [-48.0636219275, -1.2426850963890037], [-48.063683949167, -1.2426950730560105], [-48.06375082083301, -1.242664683610997], [-48.063829006111, -1.2426538330559969], [-48.063902529444, -1.2427051174999997], [-48.064030932222, -1.242732263332989], [-48.064098370556, -1.2427948733329948], [-48.064214598056, -1.2429624480560035], [-48.064212708611, -1.2431003294440037], [-48.06421218666701, -1.2431030258329938], [-48.064228226944, -1.243175337500011], [-48.064307393056, -1.2432151272220013], [-48.064261825833, -1.2433117541669971], [-48.064323623889, -1.2433713327780072], [-48.06439811, -1.243412488333001], [-48.064484998333, -1.2434326375000022], [-48.064564933056, -1.2434545274999955], [-48.06462802194401, -1.2434615319440094], [-48.064687804167, -1.2434922277779932], [-48.064730833056, -1.2435097161110136], [-48.064761089444, -1.2435306213889945], [-48.064818943889, -1.243562703888996], [-48.064869723611, -1.2435979786110019], [-48.064900148333, -1.2436653638890085], [-48.064894678611, -1.2436735519440045], [-48.064891969444, -1.2436776038890027], [-48.064876916667, -1.2437564205559992], [-48.064879363889, -1.2438293724999936], [-48.064866743333, -1.2438731166670092], [-48.064860040556, -1.2438786252780056], [-48.064853354722004, -1.2438841194440022], [-48.064824407222, -1.243928915556009], [-48.0648119225, -1.2440138038889998], [-48.064886234444, -1.2440449633329913], [-48.06495038666701, -1.2440466761110127], [-48.06505443805601, -1.244058016388991], [-48.065061603889, -1.244058491388998], [-48.0651321325, -1.2440479847220127], [-48.065157311667, -1.2440037044439938], [-48.065152360556, -1.244001457221997], [-48.065191487222, -1.243899667500012], [-48.065219040833, -1.2438262355560037], [-48.065215301111, -1.2438259497219935], [-48.065247177222, -1.2437507605559992], [-48.065280731111, -1.2437209944440006], [-48.065367815833, -1.2437252661110079], [-48.065485410833, -1.243752025000003], [-48.065579574167, -1.2437976919440121], [-48.065663472778, -1.2438410788889946], [-48.065745267778, -1.2438880133330104], [-48.065843994722, -1.2439264516669912], [-48.065870971389, -1.243953248332985], [-48.0658989575, -1.2439958894440015], [-48.0659621525, -1.2440272858330075], [-48.065963441944, -1.2440293372220013], [-48.066015655278, -1.244032108056008], [-48.066055720556, -1.2440394383330056], [-48.066125711944, -1.2440319213890114], [-48.066218275278004, -1.244049296111002], [-48.066309894167, -1.2440382788890079], [-48.066462026389, -1.2418509324999971], [-48.060954550278, -1.241264432777996], [-48.060863828241416, -1.2435620885285934], [-48.06086384694401, -1.2435620974999997], [-48.061005065278, -1.243572720556007], [-48.061158806111, -1.2435924058329872], [-48.06126562000001, -1.2436024777779993], [-48.063551873333, -1.2438553280560063], [-48.063536101111, -1.243788565555989], [-48.063534797778004, -1.243786789721997], [-48.063545381944, -1.243728915833001], [-48.063543113056, -1.2437235905560078], [-48.063506183889, -1.2436875063890038], [-48.063503161111, -1.2436854927780094]]], [[[-48.058640468611, -1.2426851947220023], [-48.058721312222, -1.2427272341670035], [-48.058744295833, -1.24273956694401], [-48.058748170833, -1.242739912777997], [-48.058795032778, -1.2427491822220116], [-48.058798894167, -1.2427495199999958], [-48.058843343889, -1.242747466667], [-48.058900107778, -1.2427378361110029], [-48.058950468056, -1.2427446494440035], [-48.058979086944, -1.2427557027779967], [-48.059008351389, -1.242801307778002], [-48.059051838611005, -1.2428351338889996], [-48.059087376667, -1.242861845000002], [-48.05916048, -1.242907600278014], [-48.059207093056, -1.2429292252779836], [-48.059243732778, -1.242951525833008], [-48.059244941111, -1.2429516038890096], [-48.059292821111, -1.2429713908330107], [-48.059382803056, -1.243014481388998], [-48.059386628333, -1.2430176688889998], [-48.059448899444, -1.2430323452780039], [-48.0595104725, -1.2430621033330103], [-48.05956777972201, -1.2430749661110099], [-48.059599457778, -1.2431291466670034], [-48.059603353333, -1.2431847025000027], [-48.059637870556, -1.243208193333008], [-48.059699311667, -1.2432485866670024], [-48.059745131111, -1.2432759283330135], [-48.059746231667, -1.2432759963890005], [-48.05979228416701, -1.2432785236110027], [-48.059838686111, -1.2432946133330045], [-48.059843495556, -1.243298994722001], [-48.059889824444, -1.2433269194440064], [-48.0598910325, -1.2433294544439877], [-48.059953175556, -1.24337240916701], [-48.059956408611, -1.2433726313890092], [-48.060020579722, -1.2433547088890045], [-48.060023871667, -1.2433562194439922], [-48.06002716, -1.2433577275000034], [-48.060092364444, -1.243375920277991], [-48.060122553333, -1.2433433175000006], [-48.060201425833, -1.2433171577779845], [-48.060296079444, -1.2433085483330086], [-48.060363651389, -1.2433178255560025], [-48.060365886389, -1.2433179627780149], [-48.06042558361101, -1.2433727241669932], [-48.060498788889, -1.2434141244440025], [-48.0605518875, -1.2434498202780127], [-48.060594858889, -1.2434331494439947], [-48.060863756111, -1.2435639152779991], [-48.060863828241416, -1.2435620885285934], [-48.0605948725, -1.2434330736109953], [-48.060781248333, -1.2412472911110084], [-48.058411156944, -1.240993136111003], [-48.05820128, -1.2426008980559897], [-48.058271263056, -1.2426159116670001], [-48.058338201944, -1.2426071133329994], [-48.058420905278, -1.2426146800000062], [-48.058486039444, -1.2426298708330112], [-48.05852385222201, -1.242644266666997], [-48.058583536667, -1.2426676599999986], [-48.058640468611, -1.2426851947220023]]]]}}, {"type": "Feature", "properties": {"Parcela": "F-143", "ANO": 2012, "Ha": 22.58, "PLANTAS": "3.975", "VARIEDADE": "AV do B", "UDF": 21}, "geometry": {"type": "MultiPolygon", "coordinates": [[[[-48.051048506944, -1.2434153422219967], [-48.051098345, -1.2434402694440005], [-48.051116576944, -1.2435324402780084], [-48.051090615556, -1.2436200111110018], [-48.051103490556, -1.243728853055997], [-48.05102113000001, -1.2437848844440007], [-48.05095139972201, -1.2438169461109916], [-48.050904101667, -1.243860321389001], [-48.050889418056, -1.2439259811109957], [-48.0508867075, -1.243989204721997], [-48.050884499722, -1.2440759791669966], [-48.050863579722005, -1.2441498908329909], [-48.050840388333, -1.2442722061110116], [-48.050791625833, -1.244360413333005], [-48.050734676111, -1.2444656402779926], [-48.050695767222, -1.2445984386109854], [-48.050664345556, -1.244644446667], [-48.050664485556005, -1.2446468077780095], [-48.050709420278, -1.2447307936110144], [-48.050720839722, -1.2447373138889979], [-48.050780808611, -1.2448035641669857], [-48.057837224722, -1.245559896666993], [-48.05805693, -1.2432956283330119], [-48.051488130556, -1.2425439755560057], [-48.051300451944, -1.2425324152779949], [-48.05097435444104, -1.2424940541418905], [-48.050992086111, -1.2426516752779966], [-48.051001955556, -1.242777514444012], [-48.051002567778, -1.2427928774999981], [-48.051013311944, -1.242943534722001], [-48.051043215, -1.2430403916670074], [-48.051025703889, -1.243185749721998], [-48.051043813889, -1.2434095724999983], [-48.051048506944, -1.2434153422219967]]], [[[-48.047814566389, -1.242890424166988], [-48.047817240833, -1.242966086111003], [-48.047825360556, -1.243024981944012], [-48.047847544722, -1.2430979455559892], [-48.047835470833, -1.2431827236109918], [-48.047839835556, -1.243188370832992], [-48.0478441925, -1.243195943611011], [-48.047881455833, -1.243329661388996], [-48.047917504167, -1.2434709474999954], [-48.0479201575, -1.2434742227779996], [-48.04794265083301, -1.243576785832998], [-48.047945046944, -1.2435846927779928], [-48.047972120833, -1.2437221927779905], [-48.047973315, -1.2437252172219977], [-48.047991563611, -1.2438223599999936], [-48.048091365833, -1.243820532500002], [-48.048095477778, -1.2438209130560025], [-48.048183774722, -1.2438236958329965], [-48.048263796111, -1.243805103889011], [-48.048269486667, -1.243805888333005], [-48.048275083056, -1.2438080341669937], [-48.048382024444, -1.243791142221992], [-48.048466963889, -1.2437907347219919], [-48.048468370278, -1.2437909169440018], [-48.048570451667, -1.2437617216669992], [-48.048573231667, -1.2437619516670035], [-48.048662599444, -1.2437429897219916], [-48.048671316389, -1.243742388889001], [-48.048677531111, -1.2437368608330062], [-48.048683403889, -1.243735942222013], [-48.048688088889, -1.2437317797219969], [-48.048762485278, -1.243701374167004], [-48.048767033333, -1.2437002561109876], [-48.048774831667, -1.2436961983330026], [-48.048806799167, -1.2436501094439973], [-48.04879208888901, -1.243581321667007], [-48.048792437778, -1.2435783774999911], [-48.048796126389, -1.2435728366670016], [-48.04883546555601, -1.2434831497219918], [-48.04883754, -1.2434784761109994], [-48.048902946667, -1.2434360736110002], [-48.0489075225, -1.2434367355560032], [-48.048913622222, -1.2434376180559907], [-48.049024648611, -1.2434013511110134], [-48.049066122778, -1.2433447063890022], [-48.049129146667006, -1.243281620277995], [-48.049131089167, -1.243280081111002], [-48.04914629055601, -1.2431938138889853], [-48.049226037222, -1.243068670277997], [-48.049229905278, -1.2430672269440066], [-48.049234517778, -1.2430581872220012], [-48.049329946111, -1.2430074922219876], [-48.049391294722, -1.2429534511110012], [-48.049512350833, -1.2428664972219987], [-48.049521404444, -1.2428572669439946], [-48.049529887222, -1.2427525474999983], [-48.049523071111, -1.242655593055996], [-48.049525640278, -1.242651430833012], [-48.049517287778, -1.2425620422220123], [-48.04934276944401, -1.242546081388989], [-48.049279791944, -1.242465496943991], [-48.049300755098194, -1.242313129086327], [-48.04930016, -1.2423130697219997], [-48.047744925278, -1.242132366111009], [-48.0477403075, -1.2421663530559854], [-48.047747160556, -1.2422307211110015], [-48.047765104444, -1.2422874452780128], [-48.047769441944, -1.2423658602780085], [-48.047757444167, -1.24246205277801], [-48.047759425, -1.2425399844440101], [-48.047783512778, -1.2426343055560052], [-48.047786245556, -1.242742436388993], [-48.047798555833, -1.2428278627780032], [-48.047814566389, -1.242890424166988]]], [[[-48.05097435444104, -1.2424940541418905], [-48.050974349444, -1.2424940097220143], [-48.050959499503556, -1.2424913001164861], [-48.050971917778, -1.2424937675000092], [-48.05097435444104, -1.2424940541418905]]], [[[-48.050831106389, -1.242465789722006], [-48.04977309081031, -1.2423602471464492], [-48.050830107778, -1.2424676905560097], [-48.050959499503556, -1.2424913001164861], [-48.050831106389, -1.242465789722006]]], [[[-48.049300755098194, -1.242313129086327], [-48.04977309081031, -1.2423602471464492], [-48.049300876389, -1.2423122474999924], [-48.049300755098194, -1.242313129086327]]]]}}, {"type": "Feature", "properties": {"Parcela": "F-144", "ANO": 2012, "Ha": 21.62, "PLANTAS": "4.050", "VARIEDADE": "AV do B", "UDF": 21}, "geometry": {"type": "MultiPolygon", "coordinates": [[[[-48.052013397500005, -1.2415110080559915], [-48.051868530556, -1.2416096538890162], [-48.0517201125, -1.2416879680559971], [-48.051557443889, -1.241825247222011], [-48.051548806389, -1.2418330852780026], [-48.051527047222, -1.2418439502780019], [-48.051416994167, -1.2419831561110037], [-48.051399855, -1.2419941588890058], [-48.051387354444, -1.2420098524999967], [-48.051333819722, -1.2420691022220003], [-48.051275426111, -1.242121638889004], [-48.051275013333, -1.242265536943997], [-48.051252511111, -1.2423527727780068], [-48.051208445, -1.2423781819440074], [-48.051174249940026, -1.2424873351981196], [-48.05807529, -1.2432426102780076], [-48.058375080556004, -1.2409491905559926], [-48.052701151111, -1.2403176575000086], [-48.052563626944, -1.2404142066670116], [-48.052554181944, -1.2404949174999995], [-48.052549608889, -1.240678298889], [-48.052438693611, -1.2409452566670083], [-48.052397724444, -1.2410398791670063], [-48.052325016111, -1.2412634855559979], [-48.052166033611, -1.2413697538890114], [-48.052165930556, -1.241374395833005], [-48.052018033889, -1.2415023522219981], [-48.052013397500005, -1.2415110080559915]]], [[[-48.051174249940026, -1.2424873351981196], [-48.04954795126623, -1.2423093451017817], [-48.051172244167, -1.2424937377780112], [-48.051174249940026, -1.2424873351981196]]], [[[-48.048701345, -1.2409651399999908], [-48.048705025000004, -1.240771440277996], [-48.048689983889, -1.2406073430559847], [-48.048645948889, -1.2405231930559883], [-48.048579899444, -1.2404506702779885], [-48.048451535833, -1.2403803638890007], [-48.048433641667, -1.2403647861109923], [-48.048386534722, -1.2402482080559891], [-48.048322299444, -1.2401954761110072], [-48.048222821667, -1.2401331216670073], [-48.048143475833, -1.2400304605560077], [-48.048147458611, -1.2399440749999997], [-48.048058994167, -1.239831047500001], [-48.047983663056, -1.2396724675000015], [-48.0478665075, -1.2395508494440017], [-48.047863431667, -1.2395437227779944], [-48.047812691944, -1.2394238511109952], [-48.04776801277801, -1.2393352658330123], [-48.047764942222, -1.2393316194440038], [-48.047664315833, -1.2392236099999863], [-48.047534601111, -1.239143643056002], [-48.047441356111, -1.2390577047219993], [-48.047355379722, -1.238989620278], [-48.047349692222, -1.239218661388999], [-48.047412538611, -1.2397632938890015], [-48.047497915833, -1.2403506555560062], [-48.047511381111, -1.2407341297219967], [-48.047585159167, -1.2408255213889974], [-48.047640276667, -1.2408873063890018], [-48.047634423889, -1.240893525832988], [-48.047599054444, -1.241068852778], [-48.047575849444, -1.2413696002779928], [-48.047641215, -1.2415872591669843], [-48.047700444167, -1.241941401389002], [-48.047727753056, -1.2421101327780006], [-48.04954795126623, -1.2423093451017817], [-48.049106805278, -1.242259265278006], [-48.049125091111, -1.242072589722001], [-48.049090544444, -1.2418526419440088], [-48.04907318, -1.2417270458330059], [-48.049032345556, -1.2416449863889991], [-48.048965222222, -1.241579907222004], [-48.048884867778, -1.2414497208330042], [-48.048878713889, -1.2414451763889909], [-48.048853734444, -1.2412893152780025], [-48.048774941389, -1.2411587774999948], [-48.048704961667, -1.2409749572220001], [-48.048701345, -1.2409651399999908]]]]}}, {"type": "Feature", "properties": {"Parcela": "G-131", "ANO": 2012, "Ha": 5.33, "PLANTAS": "2.111", "VARIEDADE": "AV do B", "UDF": 13}, "geometry": {"type": "MultiPolygon", "coordinates": [[[[-48.063510370278, -1.240637076111003], [-48.063407043333, -1.2406299383329937], [-48.063362659722, -1.2406116841669994], [-48.063331995556, -1.2405488500000066], [-48.063396402222, -1.240105905832999], [-48.061294417778, -1.239915541388999], [-48.06121094, -1.2399370394440072], [-48.061149893333, -1.2399489386109983], [-48.06113724, -1.2400094330560014], [-48.061132765556, -1.240061727778008], [-48.061090908333, -1.240086667221999], [-48.060998828333, -1.240096228610999], [-48.060948220556, -1.2400760302780063], [-48.06088753748082, -1.2412131969861546], [-48.066410173611, -1.2417947188890035], [-48.0665002275, -1.2417546527780028], [-48.066529046111, -1.2416506374999972], [-48.066635979722, -1.240510543333004], [-48.066555343056, -1.2404974033329923], [-48.06652411, -1.2404610772220013], [-48.0665333325, -1.2404044530560114], [-48.063900814722, -1.240163372777998], [-48.063851406389, -1.240663786111006], [-48.0637063325, -1.240657885555997], [-48.063610450556006, -1.2406520402780006], [-48.063510370278, -1.240637076111003]]], [[[-48.06088251590677, -1.2412126682209499], [-48.060887535556, -1.2412132330560068], [-48.06088753748082, -1.2412131969861546], [-48.06088251590677, -1.2412126682209499]]], [[[-48.06088251590677, -1.2412126682209499], [-48.060782331792275, -1.2412013950212657], [-48.060782267778, -1.2412021122219976], [-48.06088251590677, -1.2412126682209499]]], [[[-48.060330366667, -1.2398235772219928], [-48.060231743056, -1.2398036297220074], [-48.060154221667, -1.2398174755560012], [-48.060047297778006, -1.239773119999992], [-48.059977465278, -1.2397887244440104], [-48.059859628889, -1.2397606402779986], [-48.059670521389, -1.2397487144440125], [-48.059558188333, -1.2397358952780047], [-48.059454314722, -1.2397307247219904], [-48.059340764167, -1.2397061211110134], [-48.059299420833, -1.2397256633330065], [-48.059240038611, -1.2397473222219992], [-48.059147095, -1.2397530966670072], [-48.059073239167, -1.239732651944003], [-48.058991965833, -1.2397121791670038], [-48.058880690556, -1.2396797455559951], [-48.058818562222, -1.239698256944003], [-48.058686894167, -1.2396810899999995], [-48.058501883333, -1.2396811758329962], [-48.058407381667, -1.240934153333005], [-48.060782331792275, -1.2412013950212657], [-48.060884736667, -1.2400540677779939], [-48.06083506, -1.2400970474999902], [-48.0607708975, -1.240076498056003], [-48.060752343056, -1.2400116661109974], [-48.060709280278, -1.2399785180559977], [-48.060685615833, -1.2399348863890043], [-48.060684233056, -1.2399327677780028], [-48.060672450556, -1.2398729227780123], [-48.0606116025, -1.2398505205560062], [-48.060540845833, -1.2398502416670025], [-48.060481197778, -1.23982311333299], [-48.060330366667, -1.2398235772219928]]]]}}, {"type": "Feature", "properties": {"Parcela": "G-141", "ANO": 2012, "Ha": 16.45, "PLANTAS": "3.619", "VARIEDADE": "AV do B", "UDF": 22}, "geometry": {"type": "Polygon", "coordinates": [[[-48.057711955278, -1.2396267025000018], [-48.057626657222, -1.2396936750000072], [-48.057519901389, -1.2397656986109904], [-48.057469502778, -1.2398335558329878], [-48.05745322472201, -1.2398369133329916], [-48.05745322472201, -1.2398369133329916], [-48.05745322472201, -1.2398369133329916], [-48.057440166667, -1.2398353877780088], [-48.057310968889, -1.2398308061109984], [-48.057153291111, -1.2398202713889979], [-48.057142826389, -1.239819049166998], [-48.057024933333, -1.2397815877779974], [-48.056888238889, -1.2396916830559992], [-48.056882969444, -1.2396910627780036], [-48.056800741111005, -1.239636401944006], [-48.056684934444, -1.2396282083330048], [-48.0566688275, -1.2395411727780064], [-48.056676238056, -1.2394913433329917], [-48.056605728611, -1.2394640322219952], [-48.056547026111, -1.239427467499992], [-48.056467846111, -1.2393989052780041], [-48.056462425833, -1.2393982305559996], [-48.056385248056, -1.2393752677780114], [-48.056388523056, -1.239296939999995], [-48.056369776389, -1.2390988083330134], [-48.056404913611, -1.2388089250000083], [-48.056402540833, -1.2388033386110024], [-48.056445025833, -1.2385806713889895], [-48.056438988333, -1.2384161902779962], [-48.0564186275, -1.238270068888992], [-48.056427116944, -1.2381179744439974], [-48.05643127166701, -1.2379862763889913], [-48.056444025278, -1.2378363938889951], [-48.05644473, -1.2378249224999975], [-48.056445258333, -1.2378163116669942], [-48.056449008056, -1.2378023977779957], [-48.056451985556, -1.2376595772219985], [-48.05639077888901, -1.2375767194439895], [-48.056269206389, -1.2375094886109954], [-48.056146914722, -1.2375202583329936], [-48.0560757925, -1.2375633013889868], [-48.0559971525, -1.237598912777999], [-48.055948347778, -1.2376982027780052], [-48.055952002778, -1.2378642730559961], [-48.055942356944, -1.2380922563890036], [-48.055876171111, -1.2381988841670093], [-48.055870655556, -1.2381982030560037], [-48.055724149722, -1.2382420227780015], [-48.055548766944, -1.238279661666993], [-48.055392824444, -1.2382890022219992], [-48.05529127833301, -1.2382299905559855], [-48.055288563056, -1.2382296633329954], [-48.055216622222, -1.2381232558330113], [-48.055094606111, -1.2380333558329966], [-48.0549903125, -1.2380293758330045], [-48.054984520556, -1.2380343305560004], [-48.054827498889, -1.2380829144439998], [-48.054673848333, -1.2380367602780005], [-48.054562011111, -1.238027452778004], [-48.054376825556005, -1.2379895630560078], [-48.05428099, -1.2379954288889867], [-48.054144978611, -1.2379392744440105], [-48.054142233056, -1.2379389352780068], [-48.053994003611, -1.2378710919439901], [-48.053906388889, -1.237826727499998], [-48.053766126389, -1.2378775474999961], [-48.053762523611, -1.2378884072219998], [-48.053756219167006, -1.2378989588889906], [-48.053755996111, -1.2379017441670015], [-48.053724391667, -1.2379906508329965], [-48.053624586389, -1.238082100555995], [-48.053621705556, -1.2380845494440054], [-48.053549739444, -1.238164352221993], [-48.0534709, -1.2383001575000026], [-48.053467874444, -1.2383052644439896], [-48.053393654167, -1.2383755169440138], [-48.053286430556, -1.2383220186110127], [-48.053254167778, -1.2384509758329987], [-48.053250960833, -1.2384586847220025], [-48.053200307222, -1.238522657222001], [-48.053199988889, -1.2385279813889967], [-48.053164328611, -1.2386120874999964], [-48.053168437778, -1.2387553149999966], [-48.053168220278, -1.2387605352779916], [-48.053138970556, -1.2388695036110113], [-48.053110368056, -1.2390322333329968], [-48.05310955972201, -1.239042518889], [-48.053071359722, -1.2392176413890006], [-48.052612398889, -1.2391234533329982], [-48.0523216447937, -1.2391088203406433], [-48.05232149076533, -1.23910903444008], [-48.052612113611005, -1.2391241352779934], [-48.05307102, -1.2392186241670118], [-48.053038163611, -1.2393639966670011], [-48.052970238056005, -1.239549934444003], [-48.052945411944, -1.2396844322219964], [-48.052918180278, -1.2398216830559936], [-48.052883113611, -1.2399419244440018], [-48.052839305, -1.2400026375000053], [-48.052782901944, -1.2400824608329901], [-48.052709064722, -1.240173818332994], [-48.052683266111, -1.2402514419440047], [-48.052705509444, -1.2402980686110052], [-48.058365238333, -1.2409084558329995], [-48.058473606944005, -1.2396654950000014], [-48.05834482722201, -1.2396479641669869], [-48.058221682778, -1.2396496544439963], [-48.058099868333, -1.2396434769439995], [-48.058089082778, -1.2396448555560107], [-48.057987766389, -1.2396513097219908], [-48.057904574167, -1.239638740833009], [-48.057807918056, -1.2396247327779977], [-48.057720473056, -1.239622381667004], [-48.057711955278, -1.2396267025000018]]]}}]}