{"type": "FeatureCollection", "features": [{"type": "Feature", "properties": {"Parcela": "J-153", "ANO": 2012, "Ha": 21.5, "PLANTAS": "3.635", "VARIEDADE": "AV do B", "UDF": 33}, "geometry": {"type": "Polygon", "coordinates": [[[-48.046223759444, -1.2043275802779996], [-48.046003260833, -1.2044836238890086], [-48.04585044, -1.2046439116669971], [-48.045573575000006, -1.2049428580560047], [-48.045378646389, -1.2049814927780016], [-48.045317726667, -1.205116743332996], [-48.045194335, -1.2051836902779893], [-48.045128420833, -1.205269471388992], [-48.045051913333, -1.2053276086110036], [-48.045051075833, -1.2053352497220038], [-48.044972716111, -1.205469356943999], [-48.04485257, -1.2055394869439993], [-48.0447270825, -1.2055738847219999], [-48.04463686, -1.2056349000000024], [-48.044509455000004, -1.2056862658329992], [-48.04447335916701, -1.2057988774999924], [-48.044359374167, -1.2059575316669926], [-48.044258486944, -1.2061295591670012], [-48.044258035, -1.20613986416699], [-48.044191960278, -1.2062413933329938], [-48.044250460556, -1.2063126869439864], [-48.044245628889, -1.2064229594439968], [-48.0512269375, -1.2071679333329854], [-48.051505679444, -1.2048710450000117], [-48.046223759444, -1.2043275802779996]]]}}, {"type": "Feature", "properties": {"Parcela": "J-141", "ANO": 2012, "Ha": 16.62, "PLANTAS": "3.178", "VARIEDADE": "AV do B", "UDF": 25}, "geometry": {"type": "Polygon", "coordinates": [[[-48.051074383889, -1.2095573474999923], [-48.050781971944, -1.2114609605560023], [-48.051038712778, -1.2114919616669937], [-48.051210460833, -1.2115117691669854], [-48.051308926667, -1.2114996055559955], [-48.051592674722, -1.2115101822220085], [-48.051600622222, -1.2115081444440057], [-48.051911463611, -1.2115034500000024], [-48.052185597222, -1.2115200949999838], [-48.052422498889, -1.2115018333330037], [-48.05264363555601, -1.2115409091670089], [-48.052945025278, -1.2115538308329943], [-48.053076528611, -1.2115798933330058], [-48.053214483611, -1.211578538332992], [-48.053290143611, -1.2116383252780025], [-48.053407336111, -1.211612913610993], [-48.0535687225, -1.2116029447219936], [-48.053784471944, -1.2116076852780115], [-48.053899073611, -1.2116107777779985], [-48.0540650375, -1.211669713055997], [-48.054257118333, -1.2117005394439992], [-48.054331632222, -1.2117502408329912], [-48.054509301944, -1.2117633711109956], [-48.054734688611, -1.2117901275000003], [-48.054855301667, -1.2118028241669918], [-48.05501582388901, -1.21187496388901], [-48.0551901575, -1.2118771072220063], [-48.055373237778, -1.2118829241669975], [-48.0555019425, -1.2119429705560145], [-48.055657844722, -1.211934478333005], [-48.055751283333, -1.2119054183329958], [-48.055859009167, -1.2119215369439942], [-48.055964347778, -1.2119346041670032], [-48.056069382222, -1.2119909258330004], [-48.056162725278, -1.2119540097219914], [-48.056250994167, -1.2119216236109993], [-48.056311146667, -1.2119434436110081], [-48.05637761138901, -1.211957348332999], [-48.056520179444, -1.2119695494440008], [-48.056652985, -1.2119589455559967], [-48.05676017, -1.2119681088890075], [-48.056856730833, -1.2119791366669983], [-48.0571395625, -1.212034047221999], [-48.057302469444, -1.2120397522219892], [-48.057385904722, -1.212072071666999], [-48.057497045556, -1.21205394277801], [-48.057507574444, -1.2120548497220018], [-48.057625886667, -1.212031358333], [-48.057769842778, -1.2120675999999964], [-48.057852645556, -1.2120673283329946], [-48.057996462778, -1.212042053055996], [-48.058066698333, -1.212068556389009], [-48.05814759, -1.2120538577779973], [-48.058250428889, -1.2120129138889868], [-48.058323398056, -1.2118872316670055], [-48.058457368333, -1.211720961111004], [-48.058598114722, -1.2116041722219948], [-48.058744176389, -1.2115130519439954], [-48.0588632025, -1.2114237211109997], [-48.058780718889, -1.211274611944002], [-48.058770737778, -1.2112670736109956], [-48.058769481944, -1.2112602544440019], [-48.058804795556, -1.2110909283329832], [-48.058824317778, -1.2109108638890052], [-48.058748640556, -1.2108268441669938], [-48.058501170833, -1.2107875983330043], [-48.058443278333, -1.2109349319439882], [-48.058361271111, -1.2109668472219952], [-48.05834942, -1.2109659008329954], [-48.058267267778, -1.2109892538890024], [-48.05823071777801, -1.210961620278005], [-48.058180066944, -1.2109117147220072], [-48.058065426111, -1.2109005038890053], [-48.057908575, -1.2108921038890046], [-48.057727950278, -1.2108848319439969], [-48.057719145833, -1.210883970277993], [-48.057697413333, -1.2107805991670009], [-48.057694301667, -1.2107591252780048], [-48.057745227778, -1.2105846483329916], [-48.057584416389, -1.2104179505559896], [-48.057456092778, -1.2102891327780079], [-48.057330948056, -1.2102432105559908], [-48.057193579167, -1.2102383369440086], [-48.057077228333, -1.2102171322220008], [-48.056968943056, -1.2101995766669966], [-48.056874670833004, -1.2101731702780065], [-48.051074383889, -1.2095573474999923]]]}}, {"type": "Feature", "properties": {"Parcela": "J-142", "ANO": 2012, "Ha": 22.89, "PLANTAS": "4.055", "VARIEDADE": "AV do B", "UDF": 25}, "geometry": {"type": "Polygon", "coordinates": [[[-48.060192442778, -1.2082102102780024], [-48.051311965556, -1.2072251333329966], [-48.051071176944, -1.2095287827780106], [-48.056865185, -1.2101325400000096], [-48.056839704722, -1.2100282097219985], [-48.056786208333, -1.209979773888998], [-48.056720892222, -1.2099131783330055], [-48.056750918333, -1.2097438705559973], [-48.056751470278, -1.2097390091670035], [-48.056783954722, -1.2096522266669958], [-48.056869430833, -1.2095884702780024], [-48.056980911667, -1.2095828847220078], [-48.057135330833, -1.209553688611015], [-48.057235800833, -1.2094981166669954], [-48.057269513611, -1.2095219686110017], [-48.05734391000001, -1.209510388055994], [-48.057392695, -1.209474755555996], [-48.057476435278, -1.2094605236110079], [-48.057631146111, -1.2096013780559922], [-48.057731203333, -1.2096623877779888], [-48.057732816389, -1.2096732933330034], [-48.057835559722, -1.209725814721994], [-48.05793338583301, -1.2097212800000052], [-48.057985877778, -1.2097447216670159], [-48.058116210556, -1.209714440278], [-48.058233547222, -1.2096897494440133], [-48.058320216944, -1.2096836649999994], [-48.058404577222, -1.20968159222201], [-48.058503995278, -1.209700081943997], [-48.058582088611, -1.2097257255560026], [-48.058699011111, -1.2097045261110038], [-48.058780218611, -1.2096682983329954], [-48.058862625833, -1.2096942030559978], [-48.058986297222, -1.2097180386109918], [-48.0590582425, -1.2098042750000013], [-48.059142507222006, -1.209812400278008], [-48.059234765278, -1.20985369722201], [-48.059346721667005, -1.209864511110986], [-48.059434704722, -1.2098676266669928], [-48.059560414444, -1.2098743722220002], [-48.059722662778, -1.209914347221998], [-48.0598247125, -1.209945777777989], [-48.059883848611, -1.2099754636109894], [-48.060036424444, -1.2099394788889954], [-48.060192442778, -1.2082102102780024]]]}}, {"type": "Feature", "properties": {"Parcela": "J-143", "ANO": 2012, "Ha": 25.29, "PLANTAS": "4.570", "VARIEDADE": "AV do B", "UDF": 25}, "geometry": {"type": "Polygon", "coordinates": [[[-48.05131631833301, -1.2071962572219959], [-48.060185577778, -1.208168893333012], [-48.060437708889, -1.2058713749999872], [-48.051578031667, -1.2049129038890083], [-48.05131631833301, -1.2071962572219959]]]}}, {"type": "Feature", "properties": {"Parcela": "J-144", "ANO": 2012, "Ha": 8.25, "PLANTAS": "1.485", "VARIEDADE": "AV do B", "UDF": 25}, "geometry": {"type": "Polygon", "coordinates": [[[-48.05216921593236, -1.2026494337942526], [-48.05216750694401, -1.2026626794440007], [-48.052166460556, -1.2026807441669989], [-48.05216295138901, -1.2027963472219918], [-48.052197407778, -1.2028731424999985], [-48.052267710278, -1.203007535832998], [-48.05236081750001, -1.2031108494439995], [-48.052528673889, -1.2031374816669989], [-48.052887868056, -1.2033899124999987], [-48.052942785833, -1.2034745591670022], [-48.052924485556, -1.2036518258329973], [-48.052959248889, -1.2038423283329922], [-48.052916901389, -1.2039782888889918], [-48.052847769167, -1.2040913102780004], [-48.052777895556, -1.2041442269440035], [-48.052742472778, -1.2043726822219953], [-48.05265714, -1.2043915416670028], [-48.052555358611, -1.2043700741669983], [-48.052474503611, -1.204333007500006], [-48.052417455556, -1.2044520063890025], [-48.052240433056, -1.204567374166999], [-48.052003222778, -1.204680169721995], [-48.051786286667, -1.2047772555559935], [-48.0517783049588, -1.2048522064544092], [-48.060428879167, -1.2058004002780087], [-48.060490025833, -1.2054072433330012], [-48.060330038611, -1.205397595832988], [-48.060249974444, -1.2054133894439867], [-48.060174425833, -1.205408928610989], [-48.060107536111, -1.2054011091669958], [-48.060035984722, -1.205396994166993], [-48.059971581389, -1.2053852769440105], [-48.059921336944, -1.2053561222220055], [-48.059833948056, -1.2053465058329988], [-48.05982797, -1.205345989722001], [-48.059683554722, -1.205306463055997], [-48.059597938333, -1.2052871872219904], [-48.059478201944, -1.2052798297219995], [-48.059378024722, -1.2053053177779893], [-48.0592627025, -1.2053025494439915], [-48.059119172778, -1.2053034947219898], [-48.058957130278, -1.2052879774999934], [-48.0587280975, -1.2052679780559983], [-48.058649116944, -1.205261085000008], [-48.058573411111, -1.2052418316669875], [-48.058505224444, -1.205231506944004], [-48.05843468583301, -1.2052211805559874], [-48.058374783056, -1.20520761305599], [-48.058324217222, -1.2051969369439979], [-48.058226312222, -1.2051872216669948], [-48.058131153889, -1.2051735099999996], [-48.058117448889, -1.2051703363890083], [-48.058105427222, -1.205169402499992], [-48.057943411667, -1.205153033333], [-48.057822452222, -1.2051244811109982], [-48.0577158075, -1.2051289377780008], [-48.057585835556004, -1.2051233302779993], [-48.057482791667, -1.2051110166669952], [-48.057299754167, -1.2051029561109947], [-48.057244055, -1.205119587221985], [-48.057165985, -1.2051301141669912], [-48.057103855278, -1.2050939477779994], [-48.057038462778, -1.2050888333329846], [-48.056988976111, -1.2050849638890073], [-48.0568933625, -1.205102412499999], [-48.056846780278, -1.2051131969439959], [-48.056752261389, -1.2050893024999936], [-48.056650313056, -1.2050833908329974], [-48.056555186111, -1.2050573063890027], [-48.056534676389, -1.205040047500012], [-48.056461836667, -1.205009392777995], [-48.05640939472201, -1.2050090430560012], [-48.056335721389, -1.2050012449999872], [-48.056257851667006, -1.2049950288890066], [-48.056063742778, -1.2049962124999976], [-48.055889748333, -1.2049894174999929], [-48.055484447222, -1.2049385911110015], [-48.055296906389, -1.2049223719439957], [-48.055194302222, -1.2049229044439886], [-48.054999226111, -1.2049284547220016], [-48.054666548056, -1.2048647066669915], [-48.054588730556, -1.2048634255559967], [-48.05455694250001, -1.2048286225000047], [-48.054552871667, -1.2043289930560117], [-48.05463799166701, -1.2038364602779945], [-48.054611678889, -1.2036810630560013], [-48.054637912222006, -1.203480812777998], [-48.054639757778, -1.203146365832991], [-48.054672921111006, -1.2028907872219936], [-48.05216921593236, -1.2026494337942526]]]}}, {"type": "Feature", "properties": {"Parcela": "J-152", "ANO": 2012, "Ha": 20.7, "PLANTAS": "3.633", "VARIEDADE": "AV do B", "UDF": 33}, "geometry": {"type": "Polygon", "coordinates": [[[-48.044245687222, -1.2064867850000076], [-48.04423305, -1.206597308333008], [-48.044294473889, -1.2068406808330037], [-48.044301241389, -1.2068606349999997], [-48.044307542778, -1.2070619997219993], [-48.044261533611, -1.2073111880559981], [-48.044206619167, -1.2073606325000046], [-48.044206466667, -1.2073777738889901], [-48.044206314444, -1.20739484555601], [-48.044221369722, -1.2075597983329913], [-48.044128930278, -1.207605480833002], [-48.044106373056, -1.2077380680559986], [-48.044057801389, -1.2080380544440008], [-48.044138588333006, -1.2081092886110045], [-48.044305231389, -1.2081156152780104], [-48.044382496389, -1.208217750277989], [-48.044440098056, -1.208308381111007], [-48.0444907375, -1.2084527633330024], [-48.044449471389, -1.2085796994440032], [-48.044409506944, -1.2087748286109987], [-48.050993333056, -1.2095147361109941], [-48.051222878333, -1.207208563055997], [-48.044245687222, -1.2064867850000076]]]}}, {"type": "Feature", "properties": {"Parcela": "K-141", "ANO": 2012, "Ha": 7.97, "PLANTAS": "1.493", "VARIEDADE": "AV do B", "UDF": 26}, "geometry": {"type": "Polygon", "coordinates": [[[-48.054646088056, -1.2028402747219917], [-48.054856956389, -1.200604309167007], [-48.054833176111, -1.2005496183330107], [-48.05208587016851, -1.2002493236453955], [-48.05207926315994, -1.2002922088095773], [-48.05183481092678, -1.2025493426830973], [-48.054646088056, -1.2028402747219917]]]}}, {"type": "Feature", "properties": {"Parcela": "K-142", "ANO": 2012, "Ha": 3.2, "PLANTAS": "564", "VARIEDADE": "AV do B", "UDF": 26}, "geometry": {"type": "Polygon", "coordinates": [[[-48.0520852475, -1.2002117519439872], [-48.0548441725, -1.20052310444399], [-48.054907885556005, -1.20028699388899], [-48.054905531389, -1.2001154444440125], [-48.054890351389, -1.2000864255559944], [-48.054785575278, -1.200095875833011], [-48.054779589444, -1.200090226943995], [-48.054762134444, -1.200048690832995], [-48.05467659, -1.2000121408329874], [-48.054656309167, -1.200015975278003], [-48.054586447778, -1.2000107636110025], [-48.054553185278, -1.1999688836109887], [-48.05447135222201, -1.19997722111101], [-48.054404262222, -1.1999197511109865], [-48.054325856944004, -1.1998882819439884], [-48.054228238889, -1.1998533525000132], [-48.054128348333, -1.1998089986109974], [-48.054044022778, -1.199799326111004], [-48.0539519675, -1.1997812769440113], [-48.053899955, -1.1997916147220065], [-48.0537947675, -1.199747692222001], [-48.053681676111, -1.1996434563890004], [-48.053575592778, -1.1995935111110034], [-48.053574600833, -1.1995893591670121], [-48.053555576667, -1.1995463227780103], [-48.053555967778, -1.1994544013890005], [-48.053521394167, -1.1993870927779908], [-48.053523827222, -1.1993054258329938], [-48.053491577222, -1.1992459994439968], [-48.053464433889, -1.199171486389009], [-48.053451547778, -1.1990901388889994], [-48.053423055, -1.1990512347219946], [-48.053417034167005, -1.198926397221986], [-48.053344964167, -1.1988585747220044], [-48.053172071389, -1.198865009166996], [-48.052917755, -1.1989186522219986], [-48.052201146389, -1.1991893349999976], [-48.0520852475, -1.2002117519439872]]]}}, {"type": "Feature", "properties": {"Parcela": "K-151", "ANO": 2012, "Ha": 15.86, "PLANTAS": "2.287", "VARIEDADE": "AV do B", "UDF": 34}, "geometry": {"type": "Polygon", "coordinates": [[[-48.052088389722, -1.1993493080559954], [-48.051936659167, -1.1992792224999946], [-48.051697491389, -1.1994061438889985], [-48.051450883889, -1.1994845747219913], [-48.051078703611, -1.1996484999999977], [-48.050321866111, -1.1999243763889853], [-48.050119030556, -1.1999923502780017], [-48.0496976425, -1.2001797291670038], [-48.048259300278, -1.2007463669439997], [-48.048116223611, -1.2007717811109957], [-48.04793670027801, -1.2008469347220063], [-48.04774518944401, -1.2009203625000042], [-48.047350289167, -1.2010604100000002], [-48.047071975, -1.2011478072220148], [-48.04686265277801, -1.2011969947219934], [-48.046655279444, -1.2012509666670057], [-48.046479983611, -1.2012841516669883], [-48.046305038889, -1.2013282561109881], [-48.046110998889, -1.2013538113890103], [-48.045897593056, -1.201402423333008], [-48.04567594, -1.2014328933330023], [-48.045410929167, -1.201498010278009], [-48.045181983333, -1.201524502221997], [-48.044938734444, -1.2015898605559934], [-48.044702775, -1.2016151144440035], [-48.044482595833, -1.2016701308329933], [-48.044497840833, -1.2017286555559983], [-48.048495803611, -1.202166048055999], [-48.048528902778, -1.2020974266670037], [-48.048574393889, -1.2020491297220075], [-48.048574437222, -1.2020413811110011], [-48.048632672778, -1.2019828691669978], [-48.048701848056, -1.2018678902780007], [-48.048702036111, -1.2018616424999908], [-48.048769108889, -1.2016781800000087], [-48.048769201944005, -1.201675941111004], [-48.048811263333, -1.2015713330559938], [-48.048813807222004, -1.2015621549999995], [-48.0488829875, -1.201495953611005], [-48.048979628889, -1.2014593686110047], [-48.049098577778, -1.2014533675000132], [-48.049201398056, -1.2014608872220054], [-48.049317864722, -1.2014792136109975], [-48.049401184722, -1.2014433586110065], [-48.049503908889, -1.201405000277998], [-48.049615848611, -1.2013598636110003], [-48.049708166944, -1.2013098494440053], [-48.049778231389, -1.201254463889008], [-48.049891522222, -1.2012001083330068], [-48.049970067778, -1.2011549055559847], [-48.050052016111, -1.201176050556003], [-48.050148945833, -1.2011601708330066], [-48.050263708333, -1.201126360278002], [-48.050338838611, -1.201112590832996], [-48.050449325, -1.2011268294439963], [-48.050546558889, -1.2010878269439984], [-48.050616168333, -1.2009814641669962], [-48.05067288, -1.2008623794439948], [-48.050675996111, -1.200856980555998], [-48.050707805, -1.2008136125000055], [-48.050753404444, -1.2007940125000072], [-48.050841128333005, -1.2007985900000013], [-48.050915466111, -1.2008341113889982], [-48.050985947778, -1.2008917669440102], [-48.050990083333, -1.2009587947220075], [-48.05092711833301, -1.200990896111], [-48.050875376667, -1.201023484166993], [-48.050889142778, -1.2010792808329909], [-48.050888409722, -1.2011509283329953], [-48.050848560833, -1.201210514721998], [-48.050781791944, -1.2013050736110056], [-48.050705442222, -1.2013667524999907], [-48.05064358500001, -1.2014549972220065], [-48.050538310833, -1.2014896449999997], [-48.050454448889, -1.2015058549999924], [-48.050351578889, -1.201522844167013], [-48.050273769444, -1.2015286994440013], [-48.050269955556, -1.201528347221994], [-48.050177815833, -1.2014831450000076], [-48.050109128889, -1.2014919483330038], [-48.050050957778, -1.2015472113890038], [-48.050044941111, -1.201551009721998], [-48.049988573889, -1.2015976286109833], [-48.049911686111, -1.2016236252779973], [-48.049790986389, -1.201659222777996], [-48.049694563889, -1.2017192263889995], [-48.049586498611, -1.2017768266669986], [-48.04951713638901, -1.2018629083330015], [-48.049451430556, -1.2019102761109985], [-48.049447630556, -1.20191205999999], [-48.049388623056, -1.2019771027779984], [-48.049384877778, -1.201980858056005], [-48.0493092375, -1.2019913786110032], [-48.049303717222, -1.201990975000005], [-48.049216165278, -1.2020203163890155], [-48.049137317778, -1.2020066508330003], [-48.0490679925, -1.2019697305560006], [-48.049014371111, -1.202021278611015], [-48.049009156389, -1.2020248122219943], [-48.048974646111, -1.2020993058330063], [-48.04897120083301, -1.2021009494440074], [-48.048910362222, -1.2022201549999996], [-48.051763978056, -1.2025304761110072], [-48.052088389722, -1.1993493080559954]]]}}, {"type": "Feature", "properties": {"Parcela": "J-154", "ANO": 2012, "Ha": 27.15, "PLANTAS": "4.550", "VARIEDADE": "AV do B", "UDF": 33}, "geometry": {"type": "Polygon", "coordinates": [[[-48.048736306176195, -1.202348251026685], [-48.048614998789944, -1.2024125159189685], [-48.04850850313928, -1.2024654764069034], [-48.04841292841578, -1.2025221071931953], [-48.048381804554744, -1.2025781640553617], [-48.04819224814785, -1.2026260772910515], [-48.04809887214445, -1.2026643630587346], [-48.04802867419376, -1.2027345970156929], [-48.04798935357139, -1.2027873890246903], [-48.047882566791486, -1.2027952849517471], [-48.047801333455354, -1.2028713325869644], [-48.04768119508975, -1.2029374409623455], [-48.04750112353889, -1.202987377504639], [-48.047385654818946, -1.2030732667338497], [-48.04727578789641, -1.2031710905490824], [-48.04718456470037, -1.2032695285038508], [-48.04711140528443, -1.2033471953924442], [-48.04689472057454, -1.2034514044240427], [-48.046773501652034, -1.2035675079836483], [-48.04663423064251, -1.203725771279317], [-48.046429198566656, -1.2038738351100984], [-48.046254040154054, -1.203969965486169], [-48.04614016250557, -1.2040230148026312], [-48.046026346387414, -1.2041261727331813], [-48.04592979662735, -1.2042010689383753], [-48.04582024543107, -1.20427679314418], [-48.04570677843622, -1.2043758730238814], [-48.045620826944, -1.2044562008329989], [-48.04558704254658, -1.204563020841944], [-48.04555653281525, -1.204656246692626], [-48.04553178706404, -1.2047369861990307], [-48.04548836916039, -1.2048324753026391], [-48.04546205078169, -1.2048680775873974], [-48.04549147540687, -1.2048892109263174], [-48.045564657813834, -1.2048621324362354], [-48.04563475842655, -1.2047847323756842], [-48.046099870046525, -1.2043330666799117], [-48.046247756894246, -1.204280562735561], [-48.05150762636463, -1.2048477336143897], [-48.051737129167, -1.2025782322220007], [-48.048825943611, -1.202230035277986], [-48.048736306176195, -1.202348251026685]]]}}, {"type": "Feature", "properties": {"Parcela": "K-141(EXP)", "ANO": 2022, "Ha": 7.96, "PLANTAS": "1005", "VARIEDADE": "EXPERIMENTO", "UDF": null}, "geometry": {"type": "Polygon", "coordinates": [[[-48.054833176111, -1.2005496183330107], [-48.05482523037075, -1.2005487498279062], [-48.05469274103737, -1.2005342681443738], [-48.05437245612197, -1.2004992595192139], [-48.05396893923738, -1.200455153183856], [-48.05326516112157, -1.200378226664859], [-48.05261175097818, -1.2003068054073005], [-48.052085644859616, -1.2002492990178217], [-48.0520761012101, -1.2003214042118673], [-48.05206763955605, -1.2003995336927704], [-48.052059040371994, -1.2004798958672622], [-48.052043849671755, -1.2006223121376527], [-48.0520332875284, -1.2007117320867555], [-48.05197771427871, -1.2012327457037608], [-48.051859257296, -1.202343317885207], [-48.0518371175, -1.2025508866669945], [-48.05464663476074, -1.202834477618998], [-48.05472423076186, -1.2020116746074634], [-48.05478177404965, -1.2014015081158638], [-48.05481646611109, -1.201033648728495], [-48.054856310355426, -1.2006028233932906], [-48.054833176111, -1.2005496183330107]]]}}]}