{"type": "FeatureCollection", "features": [{"type": "Feature", "properties": {"Parcela": "F-141", "ANO": 2012, "Ha": 17.2, "PLANTAS": "2.917", "VARIEDADE": "AV do B", "UDF": 21}, "geometry": {"type": "MultiPolygon", "coordinates": [[[[-48.05183487063512, -1.2472449869741753], [-48.05174086623598, -1.2472341865248917], [-48.05183493739099, -1.2472451338370094], [-48.05183487063512, -1.2472449869741753]]], [[[-48.050804670278, -1.2470610461110045], [-48.050759639167, -1.2470081897219987], [-48.050734262222, -1.2469751347220133], [-48.050674195556, -1.2469619738890023], [-48.050657395, -1.2470129577780031], [-48.050636263611, -1.2471183188889963], [-48.047343220833, -1.246756701111008], [-48.047241233611, -1.2476646133330034], [-48.0473026425, -1.247663171944], [-48.04739196472201, -1.2476682036110098], [-48.047483475833, -1.247661678611003], [-48.047578374722, -1.2476746122219893], [-48.047673178333, -1.247701313610999], [-48.047774409444, -1.247706920555998], [-48.047866355000004, -1.2477206991670027], [-48.047867914722, -1.247722540556002], [-48.047953656667, -1.247726303889011], [-48.048031709167, -1.24773565416701], [-48.048037777222, -1.247731086667011], [-48.048135680278, -1.2477267230559879], [-48.048241702222, -1.2477302588890047], [-48.048341245, -1.2477285075000082], [-48.048344286944, -1.2477287574999993], [-48.048446643611, -1.2477476394440046], [-48.048533690278, -1.2477477983330012], [-48.048658050556, -1.2477750074999885], [-48.048732514722, -1.2477774297219941], [-48.048789901389, -1.247768470278007], [-48.048858404444, -1.2477760197220071], [-48.048934321944, -1.2477823244439996], [-48.04893584083301, -1.2477824500000032], [-48.049036534167, -1.247788185556005], [-48.049125155556, -1.247787619722001], [-48.049243191111, -1.2477904230559909], [-48.049253824722, -1.247794683332997], [-48.049377437778006, -1.2478121308330072], [-48.049432481667, -1.2478212588890003], [-48.049491516944, -1.2478360827779948], [-48.049549586667, -1.2478320086109962], [-48.0495509, -1.247830391943999], [-48.049663616667004, -1.247835876943984], [-48.049666682778, -1.2478361236110092], [-48.049749838611, -1.247846298888991], [-48.049760639444, -1.2478472463890036], [-48.049768355278, -1.2478479236110052], [-48.049776071111, -1.2478486000000046], [-48.049785331667, -1.2478494127780015], [-48.049899751111, -1.2478662247219958], [-48.049989135556, -1.2478719836110008], [-48.050065126944, -1.247868427222], [-48.050149898611, -1.247851338888993], [-48.050236961944, -1.2478802477779982], [-48.050287176111, -1.2478882872219963], [-48.050340355833, -1.247908594444005], [-48.050387822222, -1.2478986522220021], [-48.050418768889, -1.2479013327779969], [-48.05042031638901, -1.247901467221999], [-48.050426507222, -1.2479020027780023], [-48.050460095278, -1.2479138661109956], [-48.050464780556, -1.2479143366669916], [-48.050510572222, -1.2479460397219955], [-48.0505449025, -1.2479559350000038], [-48.050458993056, -1.2494386974999925], [-48.052285922222, -1.2496384130560028], [-48.052260958333, -1.2495845222219912], [-48.052235097222, -1.2495343266670011], [-48.05213075750001, -1.2495465561109917], [-48.0520832425, -1.2495144472219983], [-48.051984322778, -1.249438433333007], [-48.051866147222, -1.249426441110999], [-48.051727775278, -1.249399250277999], [-48.051582971111, -1.2493618625000051], [-48.051510435, -1.2492918080560047], [-48.051415228056, -1.249173284722009], [-48.051415817778, -1.2490252225000016], [-48.05142146194401, -1.2486942388889992], [-48.051453175278, -1.2486196238890084], [-48.051451605833, -1.2485571552779933], [-48.051449862778, -1.2485503866669885], [-48.051450354167, -1.2485339566670113], [-48.051389340278, -1.2484371169439985], [-48.051400025556, -1.2483018402779968], [-48.051370338056, -1.2481760480559945], [-48.051280151667, -1.2481271252779995], [-48.051178903056, -1.2480586711109942], [-48.051156653333, -1.2479583822219964], [-48.051154993333, -1.2478216269439908], [-48.051162158889, -1.2477345355560017], [-48.0511662625, -1.2476422363890067], [-48.051167031667, -1.2476384252780075], [-48.051189030556, -1.247521434722009], [-48.051185477222, -1.2474622022219994], [-48.0511414875, -1.2473811302780007], [-48.051009778056, -1.2472421391670006], [-48.05088496217101, -1.247135849005165], [-48.050882188056, -1.2471355302779954], [-48.050846373056, -1.24710633972201], [-48.050804670278, -1.2470610461110045]]], [[[-48.050887216667, -1.2471356480559943], [-48.050884014444, -1.2471350419439975], [-48.05088496217101, -1.247135849005165], [-48.05174086623598, -1.2472341865248917], [-48.050905098056006, -1.2471369258330045], [-48.050892783056, -1.247135009166998], [-48.050887216667, -1.2471356480559943]]]]}}, {"type": "Feature", "properties": {"Parcela": "F-142", "ANO": 2012, "Ha": 11.61, "PLANTAS": "3.979", "VARIEDADE": "AV do B", "UDF": 21}, "geometry": {"type": "MultiPolygon", "coordinates": [[[[-48.05183079438804, -1.2472360192346328], [-48.051264245403495, -1.2471744438263819], [-48.05183204981366, -1.247238781169739], [-48.05183079438804, -1.2472360192346328]]], [[[-48.051264245403495, -1.2471744438263819], [-48.050882103056, -1.2471311436110024], [-48.050839142567895, -1.2470834634764383], [-48.050881006111, -1.247132791388998], [-48.051264245403495, -1.2471744438263819]]], [[[-48.050677073056, -1.2469535724999865], [-48.05067689090227, -1.2469540546173772], [-48.050702681389, -1.2469543413889992], [-48.050742435556, -1.246976132221997], [-48.050839142567895, -1.2470834634764383], [-48.050814345, -1.2470542444440098], [-48.050742419444006, -1.246975248611001], [-48.050702529444, -1.2469529633330032], [-48.050677073056, -1.2469535724999865]]], [[[-48.050640348821965, -1.247049572288886], [-48.050640414722, -1.2470505983329998], [-48.05067689090227, -1.2469540546173772], [-48.050675476389, -1.2469540388890075], [-48.050658934167, -1.2469867555560046], [-48.050640348821965, -1.247049572288886]]], [[[-48.050499932778, -1.2468201286110103], [-48.050463744167, -1.2468226222220065], [-48.0504397125, -1.2468189988890095], [-48.050435201389, -1.2468183188890032], [-48.050396880833, -1.2467999622219985], [-48.050395673611, -1.2467981808330004], [-48.050364907778, -1.2467711147219962], [-48.050321057222, -1.2467615213890002], [-48.050279376944005, -1.2467750505559998], [-48.050237196667, -1.2467641886110037], [-48.050163113889, -1.2466992149999994], [-48.050146451111, -1.2466458513890133], [-48.050130578333, -1.2465692655560052], [-48.050134085833, -1.2465036322219916], [-48.050161378056, -1.2464392383329845], [-48.050170288889, -1.2463278705559968], [-48.050187322778, -1.2462686369439937], [-48.050176909722, -1.2461953313890013], [-48.050133111111, -1.246102018610991], [-48.050115085, -1.246046880833005], [-48.050087645833, -1.2459705955560119], [-48.050028553056, -1.245936645832993], [-48.050011299167, -1.2458514522220012], [-48.04993701222201, -1.245815826666996], [-48.049870920833, -1.2457697927779958], [-48.049818828333, -1.245734889721989], [-48.049746544722, -1.2456567041670032], [-48.0496894475, -1.2456137869439963], [-48.049683125556, -1.2456043522219946], [-48.049632163056, -1.245564696389007], [-48.049587818056004, -1.2455238116670149], [-48.049488661944, -1.2454369183329939], [-48.049370746389, -1.2453650233329938], [-48.049228682778, -1.2452925488890036], [-48.049155191944, -1.2452844899999973], [-48.04905293, -1.2452757261109948], [-48.048953133333, -1.2452611275000032], [-48.048873240556, -1.2453092391670018], [-48.048768119444, -1.245312621667004], [-48.048642235278, -1.245185812499997], [-48.048621410833, -1.2450453388889862], [-48.048478326111, -1.244999274166996], [-48.048215535833, -1.2448201069439873], [-48.04802404611101, -1.244823069722004], [-48.047981566389, -1.244903220833003], [-48.047940885833, -1.2450347194440028], [-48.047830988611, -1.245204805833], [-48.047766056944, -1.2453711022220082], [-48.047698571111, -1.2455956155560033], [-48.047616024444, -1.24586318111099], [-48.047456218611, -1.2459347897219955], [-48.047410298056, -1.2460655269439973], [-48.047422444167, -1.2461787974999983], [-48.047435808611006, -1.246292522221993], [-48.047416511667, -1.2464104325000098], [-48.047380585278, -1.2465368755560053], [-48.047390223056, -1.2467308238890107], [-48.050640224167005, -1.2470499936109962], [-48.050640348821965, -1.247049572288886], [-48.0506311875, -1.2469069333330038], [-48.050586835556, -1.2468672783330021], [-48.050538668333, -1.246832652778], [-48.050499932778, -1.2468201286110103]]]]}}]}