{"type": "FeatureCollection", "features": [{"type": "Feature", "properties": {"Parcela": "G-121", "ANO": null, "Ha": 4.53, "PLANTAS": "", "VARIEDADE": "", "UDF": null}, "geometry": {"type": "Polygon", "coordinates": [[[-48.070657901667, -1.2398924533329958], [-48.065855903333, -1.239383141110999], [-48.065851979444, -1.2396303075000072], [-48.065919779722, -1.2398242258330014], [-48.065977843333, -1.2399070216669916], [-48.0660093725, -1.2400126222220056], [-48.066021969167, -1.2400874272220122], [-48.066095134444, -1.2401525344440028], [-48.067539725556, -1.2403506938890025], [-48.068031390833, -1.2403946430560127], [-48.069140591944, -1.2404965572220141], [-48.069589134444, -1.2405530325000105], [-48.069899663611, -1.2405885283329927], [-48.070114305, -1.240606533056001], [-48.07027622, -1.2406161791669927], [-48.070403151944, -1.2406347022220001], [-48.070493721667, -1.2406479669439905], [-48.070579641111, -1.2406606002780038], [-48.070641536667, -1.2406558886109913], [-48.070687658056, -1.2406395499999945], [-48.070709295833, -1.2399662230560005], [-48.070657901667, -1.2398924533329958]]]}}, {"type": "Feature", "properties": {"Parcela": "G-122", "ANO": null, "Ha": 13.79, "PLANTAS": "", "VARIEDADE": "", "UDF": null}, "geometry": {"type": "Polygon", "coordinates": [[[-48.065846553611, -1.239349955556009], [-48.070697037500004, -1.2398617911110013], [-48.07092183333301, -1.2377378838890043], [-48.07092015, -1.2376383155559953], [-48.070894248333, -1.2375683186109894], [-48.0661048125, -1.2370614972220066], [-48.065846553611, -1.239349955556009]]]}}, {"type": "Feature", "properties": {"Parcela": "G-123", "ANO": null, "Ha": 13.7, "PLANTAS": "", "VARIEDADE": "", "UDF": null}, "geometry": {"type": "Polygon", "coordinates": [[[-48.066097444722, -1.2370111730559992], [-48.0709330325, -1.237550514999994], [-48.071076536667, -1.2353798774999887], [-48.071045620278, -1.2352435019439945], [-48.06630961, -1.2347186722219967], [-48.066097444722, -1.2370111730559992]]]}}, {"type": "Feature", "properties": {"Parcela": "H-122", "ANO": null, "Ha": 22.98, "PLANTAS": "", "VARIEDADE": "", "UDF": null}, "geometry": {"type": "MultiPolygon", "coordinates": [[[[-48.071774439444, -1.2281713661110003], [-48.071645839444, -1.2283163000000001], [-48.071626507222, -1.2283825711109915], [-48.071677708889, -1.2284810972219917], [-48.071735568056, -1.228602389721998], [-48.071782184167, -1.228723941944], [-48.071817703056, -1.2288205461109962], [-48.071868900556, -1.228968074443988], [-48.071869591667, -1.229070264722008], [-48.071919296111, -1.2291940691669987], [-48.071933821944, -1.2292863411109927], [-48.071929023611, -1.229435536388992], [-48.071963761111, -1.229536566110997], [-48.072000345556, -1.2296333375000141], [-48.072038504722, -1.2297108083330026], [-48.07213436944401, -1.2297921950000028], [-48.072249351667, -1.2299080102780038], [-48.072359054444, -1.2300023861110012], [-48.072522649167006, -1.2299814394440103], [-48.072632281389, -1.23001625999999], [-48.072697453611, -1.2301686163890038], [-48.072783119722, -1.2302095005559934], [-48.072860305833, -1.2302218161110028], [-48.072902232222, -1.2302520000000006], [-48.0729600175, -1.2302741761109983], [-48.072996278056, -1.23031800083299], [-48.073065939722, -1.2303632177780104], [-48.073099287222, -1.2304153122219978], [-48.073140743056, -1.2304489741670066], [-48.073219024444, -1.2304778086110102], [-48.073264193333, -1.2304291947220114], [-48.073285606944, -1.230379126111005], [-48.073326498333, -1.2303624900000045], [-48.073393574167, -1.2303612750000061], [-48.073481378333, -1.2303752575000075], [-48.073541144167, -1.2304890286110026], [-48.073601536111, -1.2305559266670043], [-48.0736614675, -1.2306192977780008], [-48.073660793611, -1.2306214924999876], [-48.073710408889, -1.2306756405560044], [-48.075958655833, -1.2308890505559897], [-48.076077613611, -1.2308712819440077], [-48.076209299444, -1.228621149721997], [-48.071774344722, -1.228170947499993], [-48.07137422480859, -1.2281646452399473], [-48.071774439444, -1.2281713661110003]]], [[[-48.0670859025, -1.2277756102779986], [-48.066817615, -1.2300364411110007], [-48.070516808611, -1.2304200224999924], [-48.070653683889, -1.230350644722], [-48.070639925833, -1.230235395833005], [-48.070684309167, -1.2301720797219977], [-48.0707652825, -1.230140677499996], [-48.070849315, -1.230125374167005], [-48.070992828611, -1.2301235819439926], [-48.0710709925, -1.230087773611005], [-48.071125204722, -1.2297708874999893], [-48.071220396667, -1.2297192308330085], [-48.071284817222, -1.2296519766670089], [-48.071283549444, -1.2296445941670047], [-48.071354745, -1.2294117694439977], [-48.071465333611, -1.2293097530559998], [-48.071482041944, -1.2291653616669966], [-48.071436303333, -1.2290385066670118], [-48.071393937778, -1.2289308519439908], [-48.071386735833, -1.2289175311109894], [-48.071376426389, -1.2289162205560102], [-48.071354055278, -1.2288217488890028], [-48.07120705638901, -1.2288512199999964], [-48.071116749167004, -1.2288409988890057], [-48.070978949167, -1.2287879200000074], [-48.070983731944, -1.2285994319440021], [-48.070982932222, -1.228586216666993], [-48.070996301111, -1.228454775833002], [-48.070965646111, -1.2283374336110042], [-48.070939464260526, -1.2281577972917626], [-48.070938683889, -1.2281577850000027], [-48.0670859025, -1.2277756102779986]]], [[[-48.070939464260526, -1.2281577972917626], [-48.07137422480859, -1.2281646452399473], [-48.070939398056, -1.2281573430559947], [-48.070939464260526, -1.2281577972917626]]]]}}, {"type": "Feature", "properties": {"Parcela": "H-123", "ANO": null, "Ha": 22.92, "PLANTAS": "", "VARIEDADE": "", "UDF": null}, "geometry": {"type": "Polygon", "coordinates": [[[-48.076321837222, -1.2263899669439882], [-48.067340036389, -1.2254401797220047], [-48.067071509444, -1.227722501943989], [-48.07098504, -1.2281357166670115], [-48.071068489722, -1.2274445522220045], [-48.071049797222, -1.2273245561109918], [-48.071003033056, -1.2272038722220064], [-48.070829228333, -1.2270500788889922], [-48.070841550556, -1.2268773505560036], [-48.07084025833301, -1.226744926389009], [-48.070816616944, -1.2266966316669998], [-48.07073853, -1.2266518699999935], [-48.070701151389, -1.2266109519440087], [-48.070676690556, -1.2265378502780084], [-48.070677140556, -1.2265343405560052], [-48.070723314167, -1.2264875836109852], [-48.070713015833, -1.2264274952779868], [-48.070682596944, -1.2263156841669987], [-48.070653944722, -1.2262713827779845], [-48.07059493888901, -1.2262029525000064], [-48.070591278889, -1.2261270827779946], [-48.070584101944, -1.2260635408329865], [-48.070572249444, -1.2259630913889972], [-48.070550749167, -1.2258487150000001], [-48.070479864167, -1.2257735816669921], [-48.071719354722, -1.2259038333329915], [-48.071614179444, -1.2272035422219911], [-48.071638365278, -1.2273635161109977], [-48.071638065, -1.2274629386109992], [-48.071626274444, -1.227565274721994], [-48.0716323925, -1.2277316249999906], [-48.071631102778, -1.2278648049999985], [-48.071636876389, -1.2280315541669984], [-48.071639327778, -1.2280400355559897], [-48.071658095278, -1.2281289094439884], [-48.076205043333, -1.2285792055560136], [-48.076321837222, -1.2263899669439882]]]}}, {"type": "Feature", "properties": {"Parcela": "H-124", "ANO": null, "Ha": 22.46, "PLANTAS": "", "VARIEDADE": "", "UDF": null}, "geometry": {"type": "Polygon", "coordinates": [[[-48.076526944444, -1.2240639086110114], [-48.067540293611, -1.2231093663890011], [-48.067338919444, -1.225357740832999], [-48.07019869833301, -1.225731419167002], [-48.0701477325, -1.2256290074999983], [-48.069989211111, -1.2255314622220015], [-48.069990509444, -1.2255246463889857], [-48.069948209167, -1.2254799297220018], [-48.069880724167, -1.2254616283330033], [-48.0697618725, -1.225434395000008], [-48.069690169722, -1.2253884561109918], [-48.069683289444, -1.225356381943988], [-48.069701200833, -1.2253162575000012], [-48.069632735833, -1.225287820832997], [-48.069512066667, -1.2253010258330053], [-48.069444190556005, -1.2252576049999908], [-48.069330277222, -1.2251957224999952], [-48.069245980833, -1.2251354938889962], [-48.06912461777801, -1.2250933908330008], [-48.06894233, -1.2250468558330119], [-48.068883335833, -1.2250067188889944], [-48.068828868056, -1.2249102488890131], [-48.068805408333, -1.224812220832992], [-48.0687834775, -1.224701678056001], [-48.0688280975, -1.224581162778011], [-48.068929096389, -1.2245167833329988], [-48.068935637778, -1.2245127127779916], [-48.0690438075, -1.2244721500000009], [-48.069204615278, -1.2244219016670013], [-48.069208300278, -1.2244093944440075], [-48.069328043056, -1.2244178480560008], [-48.069411529444, -1.2244412347220042], [-48.069542816111, -1.2244358769439996], [-48.069622972778, -1.2244874947220035], [-48.069754234722, -1.2244924461109887], [-48.069853764444, -1.2245078300000032], [-48.069860068056, -1.2245113833330064], [-48.069997214167, -1.2245381216669917], [-48.070130516667, -1.2245753072219925], [-48.070302850278, -1.2245926541670031], [-48.070307039167, -1.22459325333299], [-48.070480788056, -1.2246183986109913], [-48.070690389167005, -1.2246667019440018], [-48.070970004444, -1.224730683889], [-48.071549373611, -1.2248253827779971], [-48.071529423889, -1.2250808797220043], [-48.071517011111, -1.2252934219439922], [-48.071506022222, -1.2254232419440134], [-48.071445516667, -1.2257648775000085], [-48.071471993889, -1.225791745278009], [-48.071605191667, -1.2258478030560045], [-48.076342012222, -1.2263551686110117], [-48.076526944444, -1.2240639086110114]]]}}, {"type": "Feature", "properties": {"Parcela": "H-134", "ANO": null, "Ha": 6.9, "PLANTAS": "", "VARIEDADE": "", "UDF": null}, "geometry": {"type": "MultiPolygon", "coordinates": [[[[-48.062134113056, -1.2248620430559922], [-48.06213415542281, -1.224861241183974], [-48.062089091694304, -1.2248567064405012], [-48.062134113056, -1.2248620430559922]]], [[[-48.061984977222, -1.2248462294439992], [-48.062089091694304, -1.2248567064405012], [-48.06198507854237, -1.2248443772200004], [-48.061984977222, -1.2248462294439992]]], [[[-48.067495047222, -1.22309945361101], [-48.062315591111, -1.2225609327780038], [-48.062233365556, -1.2234468133330016], [-48.062180953889, -1.2240625799999885], [-48.062163096667, -1.2243134708330097], [-48.06213415542281, -1.224861241183974], [-48.067262137222, -1.225377263889003], [-48.067495047222, -1.22309945361101]]], [[[-48.05943569305601, -1.2222094099999936], [-48.0594143625, -1.2225050744440031], [-48.059395753333, -1.2228209024999988], [-48.059386013333, -1.2230873036109946], [-48.059353449167006, -1.2232451963890028], [-48.059337252222, -1.2235333916670048], [-48.0592923725, -1.2237482038889953], [-48.059280138056, -1.2239054333329997], [-48.059280009722, -1.2239085955559907], [-48.059244830278, -1.2241571444439938], [-48.059169933056, -1.2245106822220027], [-48.06198507854237, -1.2248443772200004], [-48.062111363611, -1.222535731388992], [-48.05943569305601, -1.2222094099999936]]]]}}, {"type": "Feature", "properties": {"Parcela": "I-121", "ANO": null, "Ha": 18.18, "PLANTAS": "", "VARIEDADE": "", "UDF": null}, "geometry": {"type": "Polygon", "coordinates": [[[-48.067548140278, -1.223071433611012], [-48.076490518889, -1.2239946066669956], [-48.076566137222, -1.2217300630559929], [-48.071334681667, -1.2211615724999991], [-48.071285925556, -1.221339384443996], [-48.071360136111, -1.2215393141670068], [-48.071338828056, -1.2216961197219867], [-48.071344268611, -1.2219855672220066], [-48.071331500833, -1.2222579149999877], [-48.071272582778, -1.2224079000000063], [-48.071254580556, -1.2225610191670075], [-48.071257786667, -1.2227459416670063], [-48.071049893056, -1.222714143610999], [-48.070915811667, -1.2226863897220028], [-48.0707960775, -1.2226916077779988], [-48.070647650556, -1.2226402322219994], [-48.070496940556, -1.2226446286109902], [-48.070324675278, -1.2226058572219891], [-48.070094467500006, -1.2225592616670125], [-48.069851586389, -1.2225415780559925], [-48.069548374722, -1.2225123191669962], [-48.069539229444, -1.2225110638889956], [-48.069319225833, -1.2224870299999975], [-48.069014942778, -1.2224548269439988], [-48.069006323056, -1.2224475033329922], [-48.06871969416701, -1.2224145822220005], [-48.068481836389, -1.2223823166669952], [-48.068472694722, -1.2223810786109965], [-48.068205383333, -1.2223418225000127], [-48.0679774675, -1.2223354547220024], [-48.067801549167, -1.2223144972220088], [-48.067607124444, -1.2223214891670011], [-48.067548140278, -1.223071433611012]]]}}, {"type": "Feature", "properties": {"Parcela": "I-122", "ANO": null, "Ha": 14.47, "PLANTAS": "", "VARIEDADE": "", "UDF": null}, "geometry": {"type": "Polygon", "coordinates": [[[-48.071327971944, -1.221152903056005], [-48.076574108889, -1.2217069213889975], [-48.076665750556, -1.2204914463890009], [-48.076557403611, -1.2204913377779996], [-48.076482288056, -1.2205416224999992], [-48.07632876527801, -1.2205191505560076], [-48.076144664167, -1.2204973469440066], [-48.076132717222, -1.2205001149999959], [-48.076038691389, -1.2205140541670076], [-48.075896540833, -1.2204972280560027], [-48.075764486111005, -1.2204651097219923], [-48.075663699722, -1.2204532405559876], [-48.0756593825, -1.2204568800000053], [-48.075559945278, -1.2204906711110048], [-48.075544513333, -1.2204929761110055], [-48.075465557222, -1.2204629227779922], [-48.075458128611, -1.2204620211109982], [-48.075337243611, -1.220434691111013], [-48.0753293, -1.220437824167002], [-48.075236066667, -1.2204303555559972], [-48.075110064444, -1.2204148238890136], [-48.075015640833, -1.220419704443999], [-48.074938532222, -1.220438761389005], [-48.074930699167, -1.220441871944002], [-48.074812186389, -1.2204312519439977], [-48.074686231389, -1.2204186325000066], [-48.074619224722, -1.2204132797219958], [-48.074609442222, -1.2204119986110074], [-48.074500934167, -1.2204197041670055], [-48.074420333056, -1.2203760961109968], [-48.074328541389, -1.2203554986110072], [-48.074225578056, -1.2203612011110039], [-48.074124654444, -1.2203726802779908], [-48.074011824722, -1.2203402577779934], [-48.073874430833, -1.2203237277780135], [-48.073742670278, -1.2203246577779876], [-48.073572898889, -1.220306044721998], [-48.073456706389, -1.2203009352779999], [-48.073364829444, -1.2202985397220119], [-48.0732898725, -1.2202596377780057], [-48.073204487778, -1.2202190033329932], [-48.073191764444, -1.2202226822220048], [-48.073096911111, -1.2202665833329907], [-48.073094299722, -1.2202689458330063], [-48.072964554444, -1.2202634555559997], [-48.0728958375, -1.2202200591669952], [-48.072746913889, -1.220214408888994], [-48.072737097222, -1.2202129958329884], [-48.072724813333, -1.2202112583330005], [-48.072559038611, -1.220229188056001], [-48.072404224167, -1.2202260349999978], [-48.072252655556, -1.2201966736109988], [-48.072242798611, -1.220195296666984], [-48.072103765556, -1.220184052499991], [-48.072005415556006, -1.2201433730560136], [-48.071899817222, -1.2201207563890049], [-48.0720361825, -1.218867582221996], [-48.068003530833, -1.2184427566669944], [-48.067872930833, -1.219972321389002], [-48.068077336111, -1.2199835808329973], [-48.06824464000001, -1.2199845469439885], [-48.068477952222, -1.220002997500002], [-48.06861624694401, -1.219997691666989], [-48.068746115556, -1.2199934694440002], [-48.068929998333, -1.2200100819439992], [-48.06908445611101, -1.2200251524999992], [-48.069238322500006, -1.2200471372219905], [-48.0693803875, -1.2200700822219999], [-48.069389192778, -1.2200735488889969], [-48.069565850833, -1.2201010358329956], [-48.069799138056, -1.2201311869440017], [-48.069977365833005, -1.220154224167003], [-48.070185613056, -1.220188159721994], [-48.070442931667, -1.2202143997219965], [-48.070645170833, -1.2202358575000043], [-48.070645994722, -1.2202312775000024], [-48.070773594722, -1.2202339013889945], [-48.070893160278, -1.2202425194439999], [-48.071033578056, -1.2202656522219877], [-48.071115236944, -1.2203046119440126], [-48.071134288611, -1.2203560686109918], [-48.071157731944, -1.220407651111005], [-48.071226958333, -1.220462540277989], [-48.071296578056, -1.2205035061109997], [-48.071300015278, -1.220508484721996], [-48.071348186389, -1.2205666108329987], [-48.071355701389, -1.2206409822220043], [-48.071327971944, -1.221152903056005]]]}}, {"type": "Feature", "properties": {"Parcela": "I-123", "ANO": null, "Ha": 13.96, "PLANTAS": "", "VARIEDADE": "", "UDF": null}, "geometry": {"type": "MultiPolygon", "coordinates": [[[[-48.07547626, -1.2171915447220039], [-48.075475521389, -1.2171980072220059], [-48.075406101389, -1.217353613332993], [-48.075350811111, -1.217502729443991], [-48.075319766667, -1.217599559721997], [-48.075272295, -1.2177181736109957], [-48.07527441, -1.2177289886109999], [-48.0751929625, -1.2178113813890032], [-48.0751314175, -1.2178593400000073], [-48.075124170278, -1.2179727383329957], [-48.075123857778, -1.217976139721999], [-48.0752018675, -1.218077113610992], [-48.0752678975, -1.2181629861110028], [-48.07527098, -1.2181632183330036], [-48.075282607778, -1.2181708061110004], [-48.075397213611, -1.2182562302779985], [-48.075526032222, -1.218292404444005], [-48.075677185556, -1.218300128889011], [-48.075705486389, -1.218364951943989], [-48.075753456944, -1.2183980133330106], [-48.07585858972201, -1.2183993380560023], [-48.075865219444, -1.2183965524999973], [-48.075874925556, -1.2183939916669924], [-48.076002088889005, -1.218396780000007], [-48.076014414167, -1.2183976852779914], [-48.076138975, -1.2184363527780055], [-48.076144581667, -1.2184400383329876], [-48.076248890833, -1.2184674691670099], [-48.076365983333, -1.2185088944440083], [-48.076316775, -1.2185729125000067], [-48.076256490556, -1.218632193333001], [-48.07622139583301, -1.218758637221988], [-48.076254447778, -1.2188422158329983], [-48.076322455278, -1.2189124702780005], [-48.076409441944, -1.2189163205559892], [-48.076424345278, -1.2189175069439935], [-48.076476090278, -1.2189308508329995], [-48.076485033333, -1.2189315636110045], [-48.076634227222, -1.2189434483330037], [-48.076716853611, -1.2189284497220023], [-48.076795622222, -1.217056314721989], [-48.076401833889, -1.217045342499991], [-48.075963924444, -1.2170104547220004], [-48.075663469722, -1.2169815069439986], [-48.07552063359587, -1.216967294089316], [-48.075510795278, -1.2170524733330113], [-48.07547626, -1.2171915447220039]]], [[[-48.072035776944, -1.218844207222], [-48.071991120278, -1.2187153361109881], [-48.072002415833, -1.2184089283329969], [-48.072047683056, -1.217919396111008], [-48.07206247527801, -1.2177275630559925], [-48.072073596389, -1.2175034513889866], [-48.072080020278, -1.2173904236109956], [-48.072099088333, -1.2171981805559953], [-48.072112303611, -1.2170657938890008], [-48.072084922222, -1.2169774636110013], [-48.072152898056, -1.2166482955560052], [-48.072185535833, -1.2165133702780035], [-48.072448791944, -1.2165378113890037], [-48.072783439943684, -1.2165677265978814], [-48.068254273333, -1.2161203316670075], [-48.067990895, -1.2183762588890032], [-48.072035776944, -1.218844207222]]], [[[-48.075435747222, -1.2169588474999888], [-48.07552063359587, -1.216967294089316], [-48.075520773889, -1.2169660794439923], [-48.07536508900135, -1.216946435731845], [-48.075435747222, -1.2169588474999888]]], [[[-48.07391300768956, -1.2166981092278704], [-48.074198625833, -1.216742513056013], [-48.074673823056, -1.2168214386109986], [-48.075212351389006, -1.2169271638890056], [-48.07536508900135, -1.216946435731845], [-48.075037343333, -1.216888864167004], [-48.074360991389, -1.2167617561109967], [-48.07391300768956, -1.2166981092278704]]], [[[-48.07391300768956, -1.2166981092278704], [-48.073772905, -1.216676328056001], [-48.07369229122075, -1.2166667511140037], [-48.07391300768956, -1.2166981092278704]]], [[[-48.073284765833, -1.2166183369439856], [-48.07369229122075, -1.2166667511140037], [-48.073478680278, -1.216636402500005], [-48.073003267727174, -1.2165894412211484], [-48.073284765833, -1.2166183369439856]]], [[[-48.073003267727174, -1.2165894412211484], [-48.07284760805601, -1.216573462778], [-48.072783439943684, -1.2165677265978814], [-48.073003267727174, -1.2165894412211484]]]]}}, {"type": "Feature", "properties": {"Parcela": "I-124", "ANO": null, "Ha": 11.63, "PLANTAS": "", "VARIEDADE": "", "UDF": null}, "geometry": {"type": "MultiPolygon", "coordinates": [[[[-48.07291643498887, -1.2145528530072318], [-48.072957116111, -1.2148570405560095], [-48.072985005556, -1.2152306019440022], [-48.072990515833, -1.2155236900000033], [-48.073017158333, -1.215708753332993], [-48.073039408056, -1.215848203888991], [-48.073023172222, -1.2159842230559987], [-48.07312427250001, -1.2160349977779936], [-48.073346686944, -1.2160349052779913], [-48.073556973889, -1.2159868044440147], [-48.073787750833006, -1.2160037188890018], [-48.073941922778, -1.2160307691670063], [-48.0740583925, -1.2160392522219885], [-48.074182335556, -1.2159910833329939], [-48.074328262222, -1.215998098055997], [-48.074429836389, -1.215992440555987], [-48.074584738889, -1.2160446247220138], [-48.074722944167, -1.2160827233329903], [-48.074744463889, -1.216084224999987], [-48.074828571111006, -1.216074185555996], [-48.074908758611, -1.2161144091670018], [-48.075051186667, -1.2161791769440007], [-48.075140056944, -1.2162909733329956], [-48.075179393333, -1.2163724002780028], [-48.075231491111, -1.2164841322220028], [-48.075234018333, -1.2164873605559934], [-48.075300397778, -1.216564746389003], [-48.075388733889, -1.2166813933330016], [-48.075443274167, -1.2167733774999931], [-48.075445054167, -1.2167793427780045], [-48.0754849775, -1.2168343127779877], [-48.075468833889005, -1.216907920277995], [-48.075430298742575, -1.216922076079149], [-48.075451635, -1.216914370832997], [-48.076811104167, -1.2170160841670021], [-48.07686608595678, -1.2147134943068565], [-48.07291643498887, -1.2145528530072318]]], [[[-48.07532138349211, -1.2169075298045582], [-48.075416429722, -1.2169271708330094], [-48.075430298742575, -1.216922076079149], [-48.075416750278, -1.2169269688890005], [-48.07539053, -1.216921529722009], [-48.075326898889, -1.2169086508330071], [-48.07532138349211, -1.2169075298045582]]], [[[-48.074871066944, -1.2168190672220038], [-48.075170425556, -1.2168768469439946], [-48.07532138349211, -1.2169075298045582], [-48.075009646667, -1.2168431102780088], [-48.074497118738435, -1.216751514329306], [-48.074642711667, -1.2167781594440104], [-48.074871066944, -1.2168190672220038]]], [[[-48.074497118738435, -1.216751514329306], [-48.074411266944, -1.21673580250001], [-48.074265159722, -1.2167099038890015], [-48.074260888538156, -1.2167092966497763], [-48.074497118738435, -1.216751514329306]]], [[[-48.074239369167, -1.216705450833009], [-48.074180885392124, -1.2166979225078203], [-48.074260888538156, -1.2167092966497763], [-48.074239369167, -1.216705450833009]]], [[[-48.073334007222, -1.216588119166994], [-48.072990153889, -1.2165655019440034], [-48.072857039947706, -1.2165450570521668], [-48.072988809444, -1.2165667274999918], [-48.073334735556, -1.2165888238890015], [-48.073690305, -1.2166347724999989], [-48.074180885392124, -1.2166979225078203], [-48.074137311111, -1.2166917275000009], [-48.073926451667, -1.2166645447219986], [-48.073589557222, -1.2166216949999968], [-48.073334007222, -1.216588119166994]]], [[[-48.072723731111, -1.2165245822220083], [-48.072857039947706, -1.2165450570521668], [-48.072732959444, -1.2165246511109957], [-48.072724029722, -1.216524035277986], [-48.07270121124267, -1.2165226440254584], [-48.072723731111, -1.2165245822220083]]], [[[-48.07217225937928, -1.2164771191739208], [-48.072387163611, -1.2165034963889951], [-48.07270121124267, -1.2165226440254584], [-48.07217225937928, -1.2164771191739208]]], [[[-48.072094585, -1.2161371527780112], [-48.072110866111, -1.2160216577780032], [-48.072110602222, -1.2160126508330067], [-48.072137443056, -1.2158830052780054], [-48.072135221667, -1.215875823056005], [-48.072129941944, -1.2157479366669912], [-48.072012600833, -1.2157385761109976], [-48.07200640472201, -1.2157406005559985], [-48.072002313333, -1.2157427683329909], [-48.0718708075, -1.215777446944008], [-48.071862628333, -1.2157792950000068], [-48.071852372222004, -1.215780996667006], [-48.071846290833, -1.2157829869440053], [-48.071771204444, -1.215801790832991], [-48.071767052778, -1.215801502500014], [-48.07167591055601, -1.2157759636109973], [-48.071669664722, -1.2157755313890088], [-48.071583211111, -1.2157598769439892], [-48.071579040833, -1.2157595869439886], [-48.071476042778, -1.2157620747219948], [-48.071398319722, -1.2157518541669967], [-48.07130838500001, -1.2157395725000044], [-48.0711723875, -1.215729933889011], [-48.071091796389, -1.2157661077779938], [-48.071083415556, -1.2157677936109947], [-48.071072956667, -1.2157693047219864], [-48.070966544444, -1.2157696580560013], [-48.070958195, -1.2157689225000046], [-48.070954019167, -1.215768554721998], [-48.07083649, -1.2157389699999877], [-48.070753153889, -1.2156951497220014], [-48.070665068056, -1.215704798889014], [-48.070579315278, -1.215703672500006], [-48.070568827222, -1.2157029380559934], [-48.070560437222, -1.2157023497219972], [-48.070552047222, -1.2157017633330094], [-48.070473835, -1.215688965832995], [-48.070465433056, -1.2156883786109869], [-48.070461232222, -1.2156880847219993], [-48.070395890278, -1.2156810652779928], [-48.070383282222, -1.2156801822219943], [-48.070372776667, -1.2156794469439982], [-48.070364371111, -1.2156788577780073], [-48.070358067222, -1.215678416110992], [-48.070216185556, -1.2156976827779975], [-48.070110926389, -1.2156635566670015], [-48.069993346389, -1.2156553233330107], [-48.069873491111004, -1.2156250433329887], [-48.069867165556, -1.2156246205559926], [-48.069802388889, -1.215612901389], [-48.069797788611, -1.2156175441669916], [-48.0696811375, -1.2156221305560106], [-48.069573141944, -1.215579982500009], [-48.069473746667, -1.2155731986110097], [-48.06934480694401, -1.2155845316669993], [-48.069251384722, -1.215530531667011], [-48.069152764167, -1.215495696667005], [-48.069097176389, -1.2155422538890075], [-48.069006125833, -1.2155358277780084], [-48.0688861925, -1.2155097830560049], [-48.068775228611, -1.2154741111110097], [-48.06868874, -1.2154578180560125], [-48.068592560278, -1.2154612141669967], [-48.068492245, -1.2154794461109943], [-48.068397692778, -1.2154013277779896], [-48.0683380925, -1.2154227974999958], [-48.068273506111005, -1.2160880930560005], [-48.072166223889, -1.2164765997220017], [-48.07217225937928, -1.2164771191739208], [-48.072168948333, -1.2164767127780027], [-48.072145455278, -1.2163895380559953], [-48.072101135833, -1.2162923275000044], [-48.072100675556, -1.2161439875000082], [-48.072094585, -1.2161371527780112]]]]}}, {"type": "Feature", "properties": {"Parcela": "I-131", "ANO": null, "Ha": 12.59, "PLANTAS": "", "VARIEDADE": "", "UDF": null}, "geometry": {"type": "Polygon", "coordinates": [[[-48.062262363611, -1.22247275638899], [-48.062122295833, -1.222458107777999], [-48.062265021389, -1.2201518313889959], [-48.059374583889, -1.2198949422220045], [-48.059326366944, -1.2202497583329863], [-48.059352738889, -1.220587680277987], [-48.059353755833, -1.2209634905559923], [-48.059362908056, -1.221428804443995], [-48.059396320833, -1.2218403122220005], [-48.0593958775, -1.2218477538889927], [-48.059419204444, -1.222167311944004], [-48.067501010556, -1.2230374433329982], [-48.067561528056, -1.2222989463889953], [-48.067558515833, -1.2222945672219931], [-48.067348544167004, -1.2222888344439982], [-48.067024419167, -1.222254190556], [-48.06677652916701, -1.2222220286109982], [-48.066455938889, -1.2221927708329934], [-48.066150079167, -1.2221768077779949], [-48.065830916389, -1.2221509769439896], [-48.065827445278, -1.222146614443996], [-48.065591134167, -1.222115767221996], [-48.065217807778, -1.2220881094440024], [-48.06456178083301, -1.222005636389001], [-48.064014598333, -1.2219627874999983], [-48.063705380278, -1.2219308877779969], [-48.063457409167, -1.2218856650000054], [-48.063261587222, -1.221865481110991], [-48.063043380833, -1.2218558630560061], [-48.062731036389, -1.2218224527779842], [-48.062490360556, -1.2217990516669965], [-48.0623064475, -1.2217898219439935], [-48.062262363611, -1.22247275638899]]]}}, {"type": "Feature", "properties": {"Parcela": "I-132", "ANO": null, "Ha": 20.72, "PLANTAS": "", "VARIEDADE": "", "UDF": null}, "geometry": {"type": "MultiPolygon", "coordinates": [[[[-48.067954481667, -1.2184154530560118], [-48.06251939756769, -1.2178528547394833], [-48.062621903056, -1.217866684444006], [-48.06251558500001, -1.219765039444014], [-48.063480113889, -1.2197971205560014], [-48.063933463611, -1.2198284033329967], [-48.064106930833, -1.2198464205560104], [-48.064332245278, -1.2198402730559987], [-48.064504356667, -1.2198396172219932], [-48.064733416944, -1.2198295305559992], [-48.065018584444, -1.2198438172220023], [-48.06526008055601, -1.2198496897219984], [-48.0655467275, -1.2198597600000034], [-48.065784353611, -1.2198457577779898], [-48.065965719167, -1.2198603683329852], [-48.066158037778, -1.2198877497219902], [-48.066270502778, -1.2198801580559935], [-48.066424881389, -1.2198845344439995], [-48.06650831, -1.219885451943987], [-48.066735594167, -1.219916875278], [-48.066904300556, -1.219934784167005], [-48.067043266389, -1.2199188294439998], [-48.067147925, -1.2199375624999953], [-48.067267071667004, -1.2199728697220134], [-48.067385036944, -1.2199576355559976], [-48.067494411389, -1.2199067755560014], [-48.067587891667, -1.2198886791670034], [-48.067679496111, -1.2199439036110062], [-48.067847566389, -1.2199601166669942], [-48.067954481667, -1.2184154530560118]]], [[[-48.058872738889, -1.2191576841670098], [-48.059128868333, -1.2192693702780142], [-48.059285426944, -1.219404733056], [-48.059362859167, -1.2197586952779977], [-48.059396048611, -1.2198204780560007], [-48.062294697222, -1.2201285755559914], [-48.06245797192034, -1.2178464963778497], [-48.059060886111, -1.2174948516669886], [-48.058872738889, -1.2191576841670098]]], [[[-48.06245797192034, -1.2178464963778497], [-48.06251939756769, -1.2178528547394833], [-48.062458108611, -1.21784458583299], [-48.06245797192034, -1.2178464963778497]]]]}}, {"type": "Feature", "properties": {"Parcela": "I-134", "ANO": null, "Ha": 2.97, "PLANTAS": "", "VARIEDADE": "", "UDF": null}, "geometry": {"type": "Polygon", "coordinates": [[[-48.066268509444, -1.2158741463890113], [-48.068222877778, -1.216074886666986], [-48.068277946944, -1.2154096911110117], [-48.068144445278, -1.2153651744440017], [-48.068033426111, -1.2153375599999994], [-48.067910280833, -1.2153366438890094], [-48.067826131667, -1.2153376549999906], [-48.067817866944, -1.2153366494440057], [-48.067705658333, -1.215317356388995], [-48.067593290833, -1.2153205530560027], [-48.067584666389, -1.2153223183329869], [-48.0674921, -1.215302606666988], [-48.067380223611, -1.2152805391669872], [-48.0673058175, -1.2152939866670023], [-48.067167088333, -1.215285613610992], [-48.067052472778, -1.2152634111110014], [-48.066933520833, -1.2152547544439956], [-48.066809017222, -1.215270621667004], [-48.066794649167, -1.2152745119439912], [-48.066791903611, -1.215274181111003], [-48.06671136500001, -1.2152729147220085], [-48.0665651175, -1.2152637291670105], [-48.066431266944, -1.215270036944006], [-48.066342738611, -1.215242569167012], [-48.066262713889, -1.2152665255559956], [-48.066186137778, -1.215285246111004], [-48.066109094722, -1.2153373094440139], [-48.066103291667, -1.2153950227780006], [-48.06612219, -1.215480516667004], [-48.066121636389, -1.2154859869440007], [-48.066111468889, -1.2155593736110066], [-48.066133272778, -1.2156419127779972], [-48.066130012222, -1.215647015], [-48.0661435775, -1.2157556591669922], [-48.06621436, -1.215838113611001], [-48.066271185, -1.2158696269439928], [-48.064373616111, -1.215647920278002], [-48.064434472778, -1.2151324327779949], [-48.064291393611, -1.2150602491669928], [-48.064266494167, -1.2150572305559988], [-48.064125918333, -1.215035956389005], [-48.0639366, -1.2149623588889853], [-48.063799343333, -1.2149499422219985], [-48.063676835, -1.2149182097220086], [-48.0634937575, -1.2149044636110096], [-48.063333985833, -1.2149103911109946], [-48.063157925, -1.2148721905560096], [-48.063016313611, -1.2149097469440016], [-48.062848543889, -1.2149145733330058], [-48.062817238333, -1.2154905469440005], [-48.064369010833, -1.2156515133330064], [-48.066268509444, -1.2158741463890113]]]}}, {"type": "Feature", "properties": {"Parcela": "G-132", "ANO": null, "Ha": 3.06, "PLANTAS": "", "VARIEDADE": "", "UDF": null}, "geometry": {"type": "Polygon", "coordinates": [[[-48.064929761389, -1.23696139527799], [-48.064797941667, -1.239198673332987], [-48.064869716389, -1.239255403889001], [-48.065064340278, -1.239274766110994], [-48.065231347222, -1.2393504166670066], [-48.065375880556, -1.2393752786109948], [-48.065489368889, -1.2394832230560016], [-48.065575390556, -1.2395397983329943], [-48.065753589722, -1.2395944827779926], [-48.066035860556006, -1.2370827005559952], [-48.064929761389, -1.23696139527799]]]}}, {"type": "Feature", "properties": {"Parcela": "G-133", "ANO": null, "Ha": 2.19, "PLANTAS": "", "VARIEDADE": "", "UDF": null}, "geometry": {"type": "Polygon", "coordinates": [[[-48.064956022778, -1.2368928399999954], [-48.066020568333, -1.237022200832986], [-48.066225275556, -1.2347304005559991], [-48.065821503889, -1.2346845580559946], [-48.065735363333, -1.2357029249999991], [-48.065697362778, -1.2357176925000033], [-48.065535951944, -1.2356976983330026], [-48.065055174722, -1.2356321261109977], [-48.064956022778, -1.2368928399999954]]]}}, {"type": "Feature", "properties": {"Parcela": "G-134", "ANO": null, "Ha": 1.24, "PLANTAS": "", "VARIEDADE": "", "UDF": null}, "geometry": {"type": "Polygon", "coordinates": [[[-48.065828670556, -1.2346484319439923], [-48.0662336275, -1.2346888533330074], [-48.066465181111, -1.2323712325000014], [-48.066028684444, -1.2323162427779986], [-48.065910960556, -1.233514781110995], [-48.065828670556, -1.2346484319439923]]]}}, {"type": "Feature", "properties": {"Parcela": "H-121", "ANO": null, "Ha": 12.22, "PLANTAS": "", "VARIEDADE": "", "UDF": null}, "geometry": {"type": "MultiPolygon", "coordinates": [[[[-48.074295045, -1.2319208166669864], [-48.074291791481265, -1.2319180946571422], [-48.073129828704396, -1.2318161719005782], [-48.074295045, -1.2319208166669864]]], [[[-48.072984546944, -1.2318034283330104], [-48.073129828704396, -1.2318161719005782], [-48.072984621290765, -1.2318031312062607], [-48.072984546944, -1.2318034283330104]]], [[[-48.073048881944004, -1.2313394613890007], [-48.073019809167, -1.2311655727779998], [-48.073028454722, -1.2311667000000093], [-48.073012479722, -1.2309984061109962], [-48.072931499444, -1.230903479166997], [-48.072785104722, -1.2307588233330051], [-48.072621021111, -1.230750771944], [-48.072515153333, -1.2307499466670035], [-48.072291734722, -1.230798216943987], [-48.072076078056, -1.2308239905560003], [-48.071976899722, -1.2307396511109931], [-48.071944709444, -1.2306266161110127], [-48.071944504167, -1.2305465841669936], [-48.071923274444, -1.2304741880560122], [-48.071817675, -1.2304359002779934], [-48.071774958056, -1.2303552141669964], [-48.071778372778, -1.2302564286109998], [-48.071731066667, -1.2302013552779918], [-48.071659598333, -1.2302102708330034], [-48.071546603889, -1.230390441666992], [-48.071458383611, -1.2305210194440135], [-48.071374989167, -1.230485353889001], [-48.071275413611, -1.2305224380559898], [-48.071142701111, -1.2305868916669986], [-48.071037935833, -1.2306840180559948], [-48.070868611667, -1.230786753889014], [-48.07078624, -1.2308422258329894], [-48.070620366389, -1.2308772133329993], [-48.070517470556, -1.2308645666669986], [-48.070378643333, -1.230901529443997], [-48.0702403, -1.2308798008329935], [-48.070208024722, -1.2307470072220001], [-48.070308329167, -1.2305875508330004], [-48.070429233056004, -1.230441957500001], [-48.066818778889, -1.2300705669440102], [-48.06652956861101, -1.2323537430560074], [-48.071229710556, -1.2328831269440044], [-48.071275387222, -1.2322076350000037], [-48.071293165556, -1.2318927886109974], [-48.071295531667, -1.2317663286110008], [-48.071290906389, -1.2316959863889994], [-48.07133060805601, -1.2316739958330056], [-48.07141876694401, -1.2316851094439931], [-48.07152824861101, -1.2316959880559848], [-48.071638555, -1.2317028777780046], [-48.071767515833, -1.2317161569440003], [-48.072034158889, -1.231728539444009], [-48.072096701111, -1.2317363630559999], [-48.072223136944, -1.2317494100000066], [-48.072225807222, -1.2317497452779933], [-48.0723647775, -1.2317671783330062], [-48.0725040225, -1.231780407777996], [-48.072608702778, -1.2317935363890062], [-48.072756396667, -1.2317978449999925], [-48.072763151944, -1.2317986983329912], [-48.072888281944, -1.231823123055994], [-48.072983500556, -1.231803030556012], [-48.072984621290765, -1.2318031312062607], [-48.073027168889006, -1.231633089722002], [-48.073048881944004, -1.2313394613890007]]], [[[-48.076006906667, -1.2320625316670017], [-48.076088345, -1.2309758424999995], [-48.0759477675, -1.2309352963889915], [-48.073725548333, -1.2306972644440064], [-48.073698767222, -1.230836453333], [-48.073689334722, -1.2310119675000095], [-48.073717489167, -1.2311477411109981], [-48.073745152222, -1.2312330324999952], [-48.073769089444, -1.231322785000012], [-48.073771589444, -1.2313294677779947], [-48.073845784722, -1.2313899930560055], [-48.073974816111004, -1.2314014063889978], [-48.0740333825, -1.231425121389002], [-48.074096067778, -1.2314927358330023], [-48.074095772778, -1.2314957802779911], [-48.074147924444, -1.2316005502780032], [-48.074174681111, -1.2316937494440137], [-48.074173736111, -1.2317024738889955], [-48.074206034722, -1.2317885900000116], [-48.074230247778, -1.2318666049999862], [-48.074291791481265, -1.2319180946571422], [-48.074291808056, -1.2319180961110012], [-48.076006906667, -1.2320625316670017]]]]}}, {"type": "Feature", "properties": {"Parcela": "H-131", "ANO": null, "Ha": 7.42, "PLANTAS": "", "VARIEDADE": "", "UDF": null}, "geometry": {"type": "Polygon", "coordinates": [[[-48.066734305833, -1.2300628891669887], [-48.061821586111, -1.2295360711109982], [-48.061721960278, -1.2307054441670002], [-48.061861622222, -1.2307127386110062], [-48.06195704833301, -1.2306999811109918], [-48.062000410833, -1.2306424300000012], [-48.0620021575, -1.2306367108329948], [-48.062009382778, -1.2305722736110039], [-48.062013597222, -1.2305666102779969], [-48.062019935278, -1.2305580980560022], [-48.062054923333, -1.2304972052780085], [-48.062056763611, -1.2304912458329966], [-48.062109478056, -1.2304017733330057], [-48.062208382778, -1.230420993889002], [-48.062220924444, -1.2304218388890102], [-48.062231220278, -1.2304256730559964], [-48.062280009444, -1.2305096933330046], [-48.062332735556, -1.2305923580560016], [-48.062340941944, -1.230604939722007], [-48.0624045175, -1.2306837394439953], [-48.062404696389, -1.2306866933330034], [-48.06251178027801, -1.2307826652779976], [-48.06262902777801, -1.23080738027799], [-48.062874841111, -1.2308263244439979], [-48.063048095278, -1.2308416913890137], [-48.063211098333, -1.2308286263890098], [-48.063290691111, -1.2308600275000117], [-48.063398147778, -1.230874156943989], [-48.063523168611, -1.2308584766669948], [-48.063617489167, -1.230879909166998], [-48.063735102778, -1.2308613416670127], [-48.063823661667, -1.2308266188890076], [-48.0639721625, -1.2307939913889943], [-48.064045776111, -1.230864453056002], [-48.064163934444, -1.2308864999999998], [-48.064171638333, -1.2308962044440057], [-48.064285551389, -1.230913405555992], [-48.0643874625, -1.2308892424999982], [-48.064479774167, -1.2309483844439943], [-48.064633080278, -1.231006058889007], [-48.064894503611, -1.231037986110989], [-48.066110075556, -1.2311379016670005], [-48.0661754075, -1.2311809869440018], [-48.066148211111, -1.2314270361110053], [-48.0661234325, -1.2316176616670027], [-48.066060306667005, -1.2319841302779968], [-48.066030821944, -1.2322962813889982], [-48.066473612222, -1.2323335952779966], [-48.066734305833, -1.2300628891669887]]]}}, {"type": "Feature", "properties": {"Parcela": "H-132", "ANO": null, "Ha": 13.95, "PLANTAS": "", "VARIEDADE": "", "UDF": null}, "geometry": {"type": "Polygon", "coordinates": [[[-48.061825323056, -1.2294894286109967], [-48.066742186944, -1.2300355894440034], [-48.066995941667, -1.2277567841669936], [-48.061989622778, -1.2272420066669902], [-48.061825323056, -1.2294894286109967]]]}}, {"type": "Feature", "properties": {"Parcela": "H-133", "ANO": null, "Ha": 30.4, "PLANTAS": "", "VARIEDADE": "", "UDF": null}, "geometry": {"type": "Polygon", "coordinates": [[[-48.061793005, -1.2272149688890037], [-48.066984360556, -1.2277296330559917], [-48.0670086775, -1.2275426380559862], [-48.067267091389, -1.225399842221984], [-48.062112297222, -1.224909058611003], [-48.061983816667, -1.2272313919440032], [-48.061795492222, -1.2272129502779854], [-48.061955398056, -1.2248853049999995], [-48.059148369722, -1.2245476713889847], [-48.059063567222, -1.2256824966669895], [-48.058136159444, -1.2255272600000144], [-48.057822837222, -1.2280742136109932], [-48.058285765833, -1.2281309136109968], [-48.058533643056, -1.228138845833003], [-48.058675526944, -1.2281409194440056], [-48.058758906111, -1.228164532500003], [-48.058891059167, -1.2281818902780068], [-48.059108961389, -1.2282083605560135], [-48.059335036389, -1.2282107488889904], [-48.059475053889, -1.2282497475000078], [-48.059618666111, -1.2282311619440076], [-48.059719364444, -1.2282523475000036], [-48.059822901389005, -1.228271145556013], [-48.059942790278, -1.2282877730560056], [-48.060110965833, -1.228314402222002], [-48.06030275, -1.2283252466670083], [-48.060450578889, -1.2283195363889994], [-48.060552251111, -1.2283286791670105], [-48.060628028889, -1.228366335277999], [-48.0606988825, -1.2283845855560127], [-48.0607961425, -1.228407840832996], [-48.060968641667, -1.2284146250000076], [-48.061093862778, -1.2284512422220046], [-48.061241340278, -1.2284647180559927], [-48.061323945833, -1.2284827861110024], [-48.061436300278, -1.228467743888998], [-48.06155116, -1.2284717113889994], [-48.061573856944, -1.2285139727779983], [-48.061654298333, -1.2285423766670036], [-48.061793005, -1.2272149688890037]]]}}, {"type": "Feature", "properties": {"Parcela": "I-133", "ANO": null, "Ha": 11.98, "PLANTAS": "", "VARIEDADE": "", "UDF": null}, "geometry": {"type": "MultiPolygon", "coordinates": [[[[-48.0625658825, -1.217234526666998], [-48.062543280278, -1.2172189758330065], [-48.062469520278, -1.217200593610993], [-48.062408832222, -1.2171995783329994], [-48.062322014167, -1.2171870019440003], [-48.062211158889, -1.217158561667004], [-48.062144981667, -1.2171642191669847], [-48.062063011111, -1.2171648766669996], [-48.061996656111, -1.2171762597219993], [-48.061856601667, -1.2171355536110076], [-48.061692738333, -1.217106145556003], [-48.061586796944, -1.2171134011109923], [-48.061360529722, -1.2170924555560136], [-48.061231551389, -1.217085455277999], [-48.061094082222, -1.217077994999999], [-48.060963159722, -1.2170790836110048], [-48.060878849444, -1.2170827641669892], [-48.060798505278, -1.2170930350000086], [-48.06071066, -1.2170857402779969], [-48.060585600556, -1.2170742255560074], [-48.060411778056, -1.217038540555997], [-48.060307403611, -1.2170463444440067], [-48.060216604722, -1.2170418736110027], [-48.060107518611, -1.2170238369439905], [-48.060034022500005, -1.2170287716669885], [-48.059928251389, -1.2170073944439894], [-48.059787337222, -1.216985840556003], [-48.05978867, -1.2169901238890082], [-48.059794556111, -1.2170009138889972], [-48.059685469167, -1.2169894927780034], [-48.059593704167, -1.2169714344440152], [-48.059487489444, -1.2169634841669914], [-48.05941384166701, -1.216971798056009], [-48.059345601111, -1.216970264722008], [-48.059135804722, -1.216921406666999], [-48.059070562778, -1.2174497888889957], [-48.06246621095051, -1.2178180203499978], [-48.0625658825, -1.217234526666998]]], [[[-48.062465664722, -1.2178212180560037], [-48.067956497222, -1.218387797222002], [-48.068206309167, -1.2160924602779997], [-48.066269457778, -1.215892917499993], [-48.066284036111, -1.2160068644439925], [-48.066289547778, -1.21609420527799], [-48.066294063056, -1.2161068199999878], [-48.066298571111, -1.2161194138890017], [-48.066298476944, -1.2161243372219908], [-48.066311363611, -1.2161837549999994], [-48.066332685556, -1.2162793905560108], [-48.066307331944, -1.2163592469439937], [-48.066242981667, -1.2164266163890054], [-48.066155971111, -1.2164848919439981], [-48.066056088056, -1.2165094263889975], [-48.065956294444, -1.2165128311109987], [-48.065946984167, -1.2165122677780047], [-48.065872527222, -1.216482174444004], [-48.065865585556, -1.2164794463889959], [-48.065791197222005, -1.2163907852779958], [-48.065699682222, -1.2162979208330151], [-48.065633010556, -1.2162007650000066], [-48.065621192222, -1.2161952719439975], [-48.065532522778, -1.2161006536109988], [-48.065442833889, -1.2161003872220024], [-48.065370755000004, -1.2161374977780008], [-48.065356544444, -1.2161342655560148], [-48.065267221944, -1.2161364141669895], [-48.065257965833, -1.216140717500002], [-48.065155468056, -1.2162141508329924], [-48.065039974167, -1.2162622297219898], [-48.06492259, -1.2163172999999918], [-48.064842513333, -1.2163339780559939], [-48.064795225278, -1.2162861583329976], [-48.064725962222, -1.2161815869439934], [-48.06467926, -1.2160843480560095], [-48.064622660278, -1.2159702583329939], [-48.064604808889, -1.2159119141669938], [-48.064601419167, -1.215846460278004], [-48.064581125, -1.2157768461110001], [-48.064570215, -1.2157148849999992], [-48.062797875556, -1.2155434383330006], [-48.0626016825, -1.2178327111110092], [-48.06246621095051, -1.2178180203499978], [-48.062465664722, -1.2178212180560037]]]]}}, {"type": "Feature", "properties": {"Parcela": "G-124", "ANO": null, "Ha": 13.3, "PLANTAS": "", "VARIEDADE": "", "UDF": null}, "geometry": {"type": "Polygon", "coordinates": [[[-48.066555021944, -1.2323987688889937], [-48.066320577778, -1.2346770658330013], [-48.071017278056, -1.2351788619440025], [-48.071073380556, -1.235161700278008], [-48.071112250278, -1.234391347500006], [-48.071196533056, -1.2328981122220035], [-48.066555021944, -1.2323987688889937]]]}}, {"type": "Feature", "properties": {"Parcela": "J-121", "ANO": 2012, "Ha": 11.5, "PLANTAS": "1.995", "VARIEDADE": "AV do B", "UDF": 9}, "geometry": {"type": "Polygon", "coordinates": [[[-48.072902756389, -1.2144593125000025], [-48.076880313889, -1.214671353889001], [-48.077001854167, -1.2123989313889987], [-48.072772930278, -1.2121672497220068], [-48.07276267, -1.2123514541669995], [-48.072846435, -1.2125001633329977], [-48.072836061667, -1.212636593888997], [-48.072840725, -1.2127353655560047], [-48.072838667222, -1.2127514327779914], [-48.072844453056, -1.2128755466669912], [-48.072819540278, -1.2129825058329962], [-48.072810787222004, -1.213125638889009], [-48.072810777222, -1.2132752199999992], [-48.072840515278, -1.2134351344440033], [-48.072861918333, -1.2136627144440166], [-48.072893308611, -1.2138909402779983], [-48.072896063056, -1.2140130425000053], [-48.07288024555601, -1.2141166991670038], [-48.07291916, -1.2141447847219995], [-48.072919841111, -1.2142250866670035], [-48.072883954722, -1.2143093477780087], [-48.072902756389, -1.2144593125000025]]]}}, {"type": "Feature", "properties": {"Parcela": "J-122", "ANO": 2012, "Ha": 8.54, "PLANTAS": "1.349", "VARIEDADE": "AV do B", "UDF": 9}, "geometry": {"type": "Polygon", "coordinates": [[[-48.0727310675, -1.212137055832988], [-48.077015661667, -1.2123663283330006], [-48.077036065, -1.2116128919439912], [-48.0769757425, -1.211500665278013], [-48.076914906667, -1.21146282472201], [-48.076792076111, -1.2114596136109983], [-48.075025419444, -1.2113395424999915], [-48.075020215556, -1.2112157597219952], [-48.074974463056, -1.211018032222012], [-48.074944279167, -1.210882019166989], [-48.074941394167, -1.2107497350000078], [-48.074910478056, -1.2106269225000148], [-48.074818518056, -1.210531725000001], [-48.074824230833, -1.2103501716670035], [-48.074868391389, -1.2100393869440027], [-48.074855786667, -1.209909727499985], [-48.072828060556, -1.2097869291669971], [-48.072820905556, -1.209910271110997], [-48.072790358889, -1.2103478086109947], [-48.072758261667, -1.211028550277993], [-48.072761468056, -1.2111641236109956], [-48.072731547222, -1.2111973730560046], [-48.072702061111, -1.2112263508330015], [-48.07266046333301, -1.2112584869440048], [-48.072682083056, -1.211319651388992], [-48.072721173889, -1.2114527508329842], [-48.072727534722, -1.2114597261110043], [-48.072727381944, -1.2114664363889933], [-48.072742895833, -1.211542602778002], [-48.072738898056, -1.211619091943998], [-48.072784458889, -1.2117566930559995], [-48.072769653056, -1.2118295122220033], [-48.072784159167, -1.2119111022219966], [-48.072785295556, -1.212018975278002], [-48.072748436667, -1.2120888186110035], [-48.072746338611, -1.2120906838890153], [-48.0727310675, -1.212137055832988]]]}}, {"type": "Feature", "properties": {"Parcela": "J-123", "ANO": 2012, "Ha": 2.84, "PLANTAS": "1.740", "VARIEDADE": "AV do B", "UDF": 9}, "geometry": {"type": "MultiPolygon", "coordinates": [[[[-48.073035033959805, -1.20720173533494], [-48.073031251944, -1.2072665180560005], [-48.07303145366794, -1.2072677185050251], [-48.073035287255635, -1.2072016187188181], [-48.073035033959805, -1.20720173533494]]], [[[-48.074983918056, -1.208559438610995], [-48.075005166667, -1.208295176666996], [-48.075050476111, -1.2078260463890098], [-48.075044319167, -1.2075045525000025], [-48.075045342778, -1.2073001913890011], [-48.074969674444, -1.2072523986110024], [-48.074854656667, -1.207242849167013], [-48.0747621475, -1.207234359444009], [-48.074759886389, -1.2072342125000062], [-48.074674036944, -1.2072259405559995], [-48.074593835, -1.2072445380560126], [-48.074586958889, -1.2072467224999952], [-48.074503327778, -1.20724094500001], [-48.074439932778006, -1.207239282499993], [-48.074346921944, -1.2072750838889943], [-48.074245683889, -1.2072891227780127], [-48.074243433333, -1.2072889694439903], [-48.074158363611, -1.207308861667009], [-48.0740365125, -1.20733974722201], [-48.073940810833, -1.2073343308329845], [-48.073843721389, -1.207305939166987], [-48.073727368889, -1.2073247875000017], [-48.073641948889, -1.207309803610986], [-48.073562546944, -1.2073356788889942], [-48.073560328056, -1.2073355536109986], [-48.073463296944, -1.207335099722001], [-48.073392595833, -1.2073001880559944], [-48.073383568611, -1.2072995422219885], [-48.073376796944004, -1.2072990569439912], [-48.073280133611, -1.2072794038890022], [-48.073277515278, -1.2072766652780005], [-48.073190900833, -1.2073316611109948], [-48.073120766389, -1.2073670561109968], [-48.07305614250001, -1.2074146405559927], [-48.07303145366794, -1.2072677185050251], [-48.073031375833, -1.207269060556], [-48.073055840556, -1.2074133663889954], [-48.072798538889, -1.209750923611015], [-48.074933208056, -1.2098531886110049], [-48.074952857222, -1.2092990127780074], [-48.074942043056, -1.2092726761110064], [-48.074983918056, -1.208559438610995]]]]}}]}