{"type": "FeatureCollection", "features": [{"type": "Feature", "properties": {"Parcela": "J-123", "ANO": 2012, "Ha": 2.84, "PLANTAS": "1.740", "VARIEDADE": "AV do B", "UDF": 9}, "geometry": {"type": "MultiPolygon", "coordinates": [[[[-48.07304295465945, -1.2070694149972394], [-48.073045485833, -1.2070257716669972], [-48.07304301446409, -1.206961513469743], [-48.073045296111, -1.207025953055995], [-48.0730427551164, -1.2070694782668576], [-48.07304295465945, -1.2070694149972394]]], [[[-48.07155700163996, -1.20706159534391], [-48.071772695278, -1.207064686666998], [-48.071814568807646, -1.2070615158941127], [-48.071799556944, -1.2070595961110013], [-48.07155505525797, -1.2070577685592834], [-48.07155700163996, -1.20706159534391]]], [[[-48.07293734166452, -1.2065651868938698], [-48.073008979722, -1.2065989972219993], [-48.073040559722, -1.2067416633330057], [-48.073039258333, -1.2068638502779907], [-48.07304301446409, -1.206961513469743], [-48.07303964194401, -1.206866265000011], [-48.073041443333, -1.2067414952779998], [-48.073009179167, -1.2065989061109978], [-48.072937397222, -1.2065651749999935], [-48.07293734166452, -1.2065651868938698]]], [[[-48.072657243889005, -1.206856594722003], [-48.07275117, -1.2067286866669955], [-48.07280028395948, -1.206648448850421], [-48.072793065, -1.2066568949999932], [-48.072736825833, -1.2067420444440016], [-48.072679333889, -1.2068193872219983], [-48.0726322196904, -1.2068771178864501], [-48.072657243889005, -1.206856594722003]]], [[[-48.07280028395948, -1.206648448850421], [-48.07282291808868, -1.206621967021456], [-48.072807327222, -1.206636942222009], [-48.07280028395948, -1.206648448850421]]], [[[-48.07282291808868, -1.206621967021456], [-48.07286330840271, -1.2065831716733033], [-48.072845023889, -1.2065961033329928], [-48.07282291808868, -1.206621967021456]]], [[[-48.07286330840271, -1.2065831716733033], [-48.072867638732575, -1.2065801090622517], [-48.072866169444, -1.206580423610997], [-48.07286330840271, -1.2065831716733033]]], [[[-48.07293734166452, -1.2065651868938698], [-48.07293571027801, -1.2065644169439937], [-48.072913018333004, -1.2065703186110097], [-48.072872128611, -1.206576933610997], [-48.072867638732575, -1.2065801090622517], [-48.07293734166452, -1.2065651868938698]]], [[[-48.07226624859634, -1.2070948269135022], [-48.072251193056, -1.207097441944009], [-48.07218122592109, -1.2071015731284724], [-48.072215462222, -1.2071040694440025], [-48.072225370556, -1.2071045647219916], [-48.07226624859634, -1.2070948269135022]]], [[[-48.07218122592109, -1.2071015731284724], [-48.072056931389, -1.2070925102779964], [-48.071969668882545, -1.2070813507698994], [-48.072017938333, -1.207089235277997], [-48.072134798056, -1.2071043144440032], [-48.07218122592109, -1.2071015731284724]]], [[[-48.072341616389, -1.2070817361110073], [-48.07235466349089, -1.2070737650560217], [-48.07226624859634, -1.2070948269135022], [-48.072341616389, -1.2070817361110073]]], [[[-48.071814568807646, -1.2070615158941127], [-48.071969668882545, -1.2070813507698994], [-48.071837573889, -1.2070597738890094], [-48.071814568807646, -1.2070615158941127]]], [[[-48.072384198056, -1.2070613036109905], [-48.072508728611, -1.2069783969440044], [-48.072606128021015, -1.2068985165172477], [-48.07254399, -1.2069473761110059], [-48.0724224025, -1.2070323802779999], [-48.07235466349089, -1.2070737650560217], [-48.072377526944, -1.2070683186110018], [-48.072384198056, -1.2070613036109905]]], [[[-48.072630209444, -1.2068795811109965], [-48.0726322196904, -1.2068771178864501], [-48.072606128021015, -1.2068985165172477], [-48.072630209444, -1.2068795811109965]]]]}}, {"type": "Feature", "properties": {"Parcela": "J-124", "ANO": 2012, "Ha": 7.65, "PLANTAS": "1.304", "VARIEDADE": "AV do B", "UDF": 9}, "geometry": {"type": "MultiPolygon", "coordinates": [[[[-48.071538064218565, -1.207024362451502], [-48.0718370975, -1.207051130277995], [-48.071891137778, -1.2070409399999966], [-48.072003335, -1.20707047527801], [-48.072108768889, -1.2070755708329932], [-48.072177761111, -1.2070821811109904], [-48.072281537222, -1.2070585574999875], [-48.072391033611, -1.2070255283329991], [-48.072480845556, -1.2069606330559906], [-48.072574689444, -1.2068775458329994], [-48.0727115225, -1.2066850713889963], [-48.072827442222, -1.2065165511109974], [-48.072828150556, -1.206509745555989], [-48.072868414722, -1.2063805458330106], [-48.07286861333301, -1.2063787491669948], [-48.072896566944, -1.2063129599999902], [-48.073189687778, -1.206330031110995], [-48.073371219722, -1.2063187727779865], [-48.073507695278, -1.2062966455560002], [-48.073586736389, -1.2063009180560051], [-48.073666716111, -1.2063120449999951], [-48.073726733611, -1.206320786944001], [-48.073776580556, -1.206321128055987], [-48.073807306111, -1.2062914763889985], [-48.0738386125, -1.2062031774999902], [-48.073839666389, -1.2061963677780014], [-48.073840089444, -1.2061936386109973], [-48.0738500825, -1.206111596110996], [-48.073833490833, -1.2060557474999978], [-48.073831510833, -1.206051236667007], [-48.073829097778, -1.2060496258329911], [-48.073805708333, -1.2059993238890008], [-48.0738047975, -1.2059962733329934], [-48.073832125556, -1.2059464141669884], [-48.073832786667005, -1.205941854722006], [-48.073856536389, -1.2058542088889992], [-48.073856096111, -1.2058478058329969], [-48.073915375278, -1.2057773911109997], [-48.073959323056, -1.2057392452780094], [-48.0739834, -1.205710672221999], [-48.074037665556, -1.2056695530560013], [-48.074075351944, -1.2055793572219855], [-48.074148847222, -1.2050043483329984], [-48.070415148333, -1.2045862511110093], [-48.070412604444, -1.204578458056002], [-48.07042633833301, -1.2047034133330088], [-48.07050587500001, -1.2047778577780024], [-48.070558146389, -1.2048528438890016], [-48.070613881667, -1.2049079188890053], [-48.070653859722, -1.2049595830560078], [-48.070667515556, -1.205019234167], [-48.070683679167, -1.2050974511110057], [-48.070681696944, -1.2051067708330043], [-48.070681817778, -1.2051138022219923], [-48.070813901667, -1.2052829827779945], [-48.070856154167, -1.205392148888999], [-48.070862434167, -1.205399062500008], [-48.070956146667, -1.2054581694440056], [-48.071051811389, -1.2055659633330142], [-48.071105842778, -1.2056277244439857], [-48.071191330556, -1.2057295647219999], [-48.071195405, -1.205734004443994], [-48.071230824167, -1.2058280036109994], [-48.071349680833, -1.2059584833330066], [-48.071473518611, -1.2060530155559896], [-48.07155210472201, -1.2061417733330038], [-48.071664653611, -1.2062123288890123], [-48.071721726667, -1.2063200002779992], [-48.071838848333, -1.2064108605559922], [-48.071940216389, -1.2064841816670038], [-48.071959338333, -1.2065611983329902], [-48.071950061667, -1.2066584433329925], [-48.072008600000004, -1.206722998889003], [-48.072016292778, -1.2068023099999992], [-48.07203936527801, -1.2068276286109925], [-48.072037356111, -1.2068931158329965], [-48.071959776667, -1.2069359319440043], [-48.071952377222, -1.2069977158330056], [-48.071942257778, -1.2069990658329974], [-48.071933842222, -1.2070063047219992], [-48.0718941475, -1.2070386119439982], [-48.071837716667, -1.2070506427779981], [-48.071537153656855, -1.2070225721948205], [-48.071538064218565, -1.207024362451502]]], [[[-48.07097500409918, -1.2069463844548416], [-48.0709584825, -1.2069101619440008], [-48.070921948333, -1.2068363766669954], [-48.070850236944, -1.2067458500000088], [-48.070814904444, -1.2066781241670015], [-48.070671465278, -1.206536316388997], [-48.070580863611006, -1.206437681667006], [-48.070477955556, -1.2063449338889964], [-48.070392235833, -1.2062452366670002], [-48.070309966111, -1.2061747916669894], [-48.070249976667, -1.206089438333006], [-48.07018865833301, -1.2059826402779967], [-48.070137730278, -1.2058906619439984], [-48.070126602778, -1.205885366944002], [-48.07011993861101, -1.2058826472219955], [-48.070068446944, -1.2058007100000068], [-48.069960896667, -1.205755832222001], [-48.0698872475, -1.2056962880559894], [-48.069803955833, -1.2055983833330048], [-48.069754911944, -1.2055106591670024], [-48.069671979167, -1.2054599655560012], [-48.069590773889, -1.2054209811110037], [-48.0694707, -1.2068268491670031], [-48.070926387698684, -1.2069691541515224], [-48.07097500409918, -1.2069463844548416]]]]}}, {"type": "Feature", "properties": {"Parcela": "K-104", "ANO": 2021, "Ha": 7.53, "PLANTAS": "1.058", "VARIEDADE": "PB-141", "UDF": null}, "geometry": {"type": "MultiPolygon", "coordinates": [[[[-48.091530956389, -1.1976561872220042], [-48.091490920556, -1.1977879108329996], [-48.091463636944, -1.1979968080559995], [-48.0913963475, -1.1982275174999908], [-48.091316887222, -1.198428907221996], [-48.091274699167, -1.1988899344440103], [-48.091446196111, -1.19893318499999], [-48.091459163889, -1.1989344847219958], [-48.091480778333, -1.1989366483330068], [-48.091768045, -1.198934944444009], [-48.091776704444, -1.1989358111110004], [-48.092159804167, -1.1989695097220028], [-48.092471496389, -1.198974142499998], [-48.092475857778, -1.1989745725000027], [-48.092751261111, -1.1989887322220056], [-48.092755610833, -1.1989891625000004], [-48.093103501389, -1.1990235561110079], [-48.093112185, -1.1990244175000078], [-48.093500661667, -1.1990846330559959], [-48.093787058611, -1.1991521694440084], [-48.093795715278, -1.1991530297220054], [-48.093821684167, -1.1991556100000023], [-48.0940863825, -1.1992165244439903], [-48.0941036625, -1.199218220832999], [-48.094449251389, -1.1992478197219931], [-48.094457868611, -1.1992486655560064], [-48.094658303056, -1.1992856491669914], [-48.094671204444005, -1.1992869152779932], [-48.094923068611, -1.1992856205559967], [-48.095074999444, -1.199283204166986], [-48.0950878425, -1.1992844622220022], [-48.095222495, -1.1992803719440088], [-48.095369703056, -1.1992429638890023], [-48.095466395278, -1.1978959722219897], [-48.091559440657825, -1.1974988907228803], [-48.091530956389, -1.1976561872220042]]], [[[-48.088789022778, -1.1990347513889954], [-48.089028694722, -1.1990344777780053], [-48.089226895278, -1.1972640572220044], [-48.090191437291615, -1.1973598533177578], [-48.088979256111, -1.1972366525000036], [-48.088789022778, -1.1990347513889954]]], [[[-48.090191437291615, -1.1973598533177578], [-48.091559440657825, -1.1974988907228803], [-48.091560004722, -1.1974957758330045], [-48.090191437291615, -1.1973598533177578]]]]}}, {"type": "Feature", "properties": {"Parcela": "K-112", "ANO": 2012, "Ha": 6.16, "PLANTAS": "1.087", "VARIEDADE": "AV do B", "UDF": 5}, "geometry": {"type": "Polygon", "coordinates": [[[-48.0863050575, -1.2015916705559926], [-48.079132599166996, -1.2008696002779873], [-48.079066991667, -1.201707704166994], [-48.079136519167, -1.2017237583330032], [-48.07921127000001, -1.201735834443987], [-48.079327690833, -1.2017279325000059], [-48.079402059167, -1.2017301433330025], [-48.079525004722, -1.2017329302779929], [-48.079631461111, -1.2017132255560092], [-48.07970954472201, -1.2017256719440157], [-48.079739571389, -1.2017648577779934], [-48.079840864167, -1.2017808447219864], [-48.079893831667, -1.2017472855560043], [-48.079989224167, -1.2017424755559913], [-48.080153129167, -1.2017307658330032], [-48.080239248056, -1.201744364722015], [-48.080328129444, -1.20175572861099], [-48.080404785833, -1.201767484167001], [-48.080460327222, -1.2017734611109998], [-48.080558394722, -1.2017629836110004], [-48.080667109444, -1.2017409491670057], [-48.080753585278, -1.201782614444012], [-48.080843878056, -1.2018041527780017], [-48.080969238611, -1.2018053205560124], [-48.081086935, -1.201790049166997], [-48.08114712, -1.201802158889011], [-48.081235246389, -1.2018575616670037], [-48.081291055, -1.2018740961109917], [-48.08135631, -1.2018194755560134], [-48.081477867778, -1.2017937441669906], [-48.081548020278, -1.2018233875000084], [-48.081628691389, -1.2018440452780117], [-48.081751521944, -1.2018497949999956], [-48.081816139444, -1.2018808163890073], [-48.081931501389, -1.201874562221989], [-48.082123439444, -1.201895562221996], [-48.082312360556, -1.201929907777995], [-48.082452936667, -1.201894295833002], [-48.082596845833, -1.201927424722007], [-48.082704031389, -1.2019219677779982], [-48.082809722778, -1.2019299613890124], [-48.082902674167, -1.2019442716669948], [-48.082977012222, -1.201925141111004], [-48.08307821722201, -1.201976728056004], [-48.083199775833, -1.201964569444003], [-48.083403136944, -1.2019784255560009], [-48.083522973056, -1.2019739627780095], [-48.083631042222, -1.2019675352780037], [-48.08378485, -1.2020162005560087], [-48.083928930556, -1.2020099025000033], [-48.08401895222201, -1.2019835686109996], [-48.084099343889, -1.2020359336110011], [-48.08424815, -1.2020329211109937], [-48.084338857778, -1.2020323736110057], [-48.084433827222, -1.2020697697219964], [-48.08451201222201, -1.2020783680560065], [-48.08465111111101, -1.2020818444439998], [-48.084780751944, -1.2020663424999987], [-48.084846213056, -1.2020758811110037], [-48.084911201667, -1.2020533344439959], [-48.085008784722, -1.2020589688889993], [-48.085070107222, -1.2020739336110087], [-48.085099110833, -1.202078229444001], [-48.085112273611, -1.2020802033329898], [-48.085259750278, -1.202072952778002], [-48.085359323333, -1.2020551733329987], [-48.085444778056, -1.2021127924999953], [-48.085674371111, -1.2020997397219957], [-48.085677731389, -1.2020972377779968], [-48.0858124725, -1.202118713889004], [-48.086063485000004, -1.2021399386110054], [-48.0862252675, -1.202149030556003], [-48.086271771667, -1.2021222325000074], [-48.0863050575, -1.2015916705559926]]]}}, {"type": "Feature", "properties": {"Parcela": "K-113", "ANO": 2012, "Ha": 14.73, "PLANTAS": "2.672", "VARIEDADE": "AV do B", "UDF": 5}, "geometry": {"type": "Polygon", "coordinates": [[[-48.07915954, -1.2008196624999954], [-48.085626631111, -1.2015017205560004], [-48.085549915278, -1.2014111927779993], [-48.085402457778, -1.2013656725000126], [-48.085260906389, -1.2012828819439996], [-48.085156827778, -1.2011599666670034], [-48.085057257222, -1.2011254533330002], [-48.084989943611, -1.2011199416670022], [-48.084889491389, -1.2010940086109956], [-48.084852886389, -1.2010554761109986], [-48.0847959225, -1.201015232499987], [-48.084710694167, -1.2009556872219989], [-48.0846550425, -1.2009383027780058], [-48.084534971667, -1.2008594330559914], [-48.084416581389, -1.2007709866669993], [-48.084301589167, -1.200671621666999], [-48.084213285, -1.2006131405560008], [-48.084099596111, -1.200513112777993], [-48.084027077778, -1.2004395475000071], [-48.08395549305601, -1.2003712616669966], [-48.083772860556, -1.2002678919439946], [-48.083710571389, -1.200233708056], [-48.083663637778, -1.2001457594440026], [-48.083636578333, -1.2000409466669937], [-48.083603704444, -1.1999665530560006], [-48.083607113611, -1.199887027221993], [-48.083581543056006, -1.1998476349999982], [-48.083501928889, -1.199814741388997], [-48.083396794722, -1.1998053672220055], [-48.083329725556, -1.1997462519440116], [-48.083300097778, -1.1996608105559865], [-48.083312877778, -1.199578335556016], [-48.083357816389, -1.199478716943999], [-48.083434348611, -1.1994400008330024], [-48.0835268025, -1.1994119616670038], [-48.08363974333301, -1.199410066111], [-48.083739921111, -1.1993983319440042], [-48.083842490278, -1.1993567963890017], [-48.083948770833, -1.1993568552780103], [-48.084028333056, -1.1993465572219961], [-48.084088199722, -1.1993051574999944], [-48.084257021667, -1.1992723194440131], [-48.084364210278, -1.1992610316670058], [-48.084481225833, -1.1992646738890016], [-48.08457619, -1.1993258944440015], [-48.084585730833, -1.199327327777996], [-48.084729133611, -1.199417570833002], [-48.084733959444, -1.1994210158329874], [-48.084741143333, -1.199424814167001], [-48.084857838611, -1.1995066183330083], [-48.084869642222, -1.1995163397220108], [-48.084918954167, -1.1995632252780044], [-48.084928255556, -1.1995672280559881], [-48.084939892222, -1.1995742113890007], [-48.085000275833, -1.199575323610997], [-48.085004954167, -1.1995707530559947], [-48.085011937222, -1.1995717922220037], [-48.08502823305601, -1.1995742186110054], [-48.085042234444, -1.1995736624999955], [-48.085123816389, -1.1995830069439968], [-48.08519172916701, -1.1996450063889939], [-48.085205601111, -1.1996469955559972], [-48.085214744444, -1.199650899721995], [-48.085288246667, -1.199671796389009], [-48.085295185, -1.199672792221989], [-48.085306751667005, -1.199674449999991], [-48.085407504722, -1.1996733250000067], [-48.085417581944, -1.1996643363890003], [-48.08542908777801, -1.1996371058329858], [-48.085436721944, -1.199630272222002], [-48.085482630833, -1.1995645591670034], [-48.085489988333, -1.1995629027780093], [-48.085512905556, -1.1994952974999884], [-48.085529956111, -1.1994421174999959], [-48.085535319722, -1.1994372530560056], [-48.085538520278, -1.1994292663890027], [-48.085546862778, -1.19941914833301], [-48.085596120278, -1.1993718452780067], [-48.085712921667, -1.199379695832999], [-48.085775222778, -1.1994426705560044], [-48.085777676667, -1.1994430183330096], [-48.085787128611, -1.1994471858330003], [-48.085860335, -1.1994789319440047], [-48.085862777222, -1.1994793366669858], [-48.085949973056, -1.1994824986110086], [-48.086017536389, -1.1994539883330004], [-48.086028304722, -1.1994500647219928], [-48.086116451111, -1.1994388730560004], [-48.0861189175, -1.1994392822219957], [-48.086128785278, -1.1994409155560102], [-48.086159269167, -1.1994545855560124], [-48.08616366777801, -1.1994581827779884], [-48.086272837222, -1.199496264444003], [-48.08637879888901, -1.1995449727780008], [-48.086385196111, -1.1993022750000053], [-48.086587404722, -1.1993331313890099], [-48.086576288333006, -1.1994207991670045], [-48.086582029444, -1.1994247519440013], [-48.086561714444, -1.1996019797219986], [-48.086561953889, -1.1998532033329945], [-48.086568990833, -1.1998508083329982], [-48.086671564722, -1.1997923666669945], [-48.086675550833, -1.1997896169439934], [-48.086800463056, -1.1998052049999903], [-48.0868027325, -1.1998085713890037], [-48.086814417778, -1.199812873056], [-48.086941263056005, -1.1998222605559945], [-48.087005572778, -1.1997399066670016], [-48.087048504444, -1.1995881136109898], [-48.087058308333, -1.199376006389003], [-48.079413209167, -1.1985325777779956], [-48.07915954, -1.2008196624999954]]]}}, {"type": "Feature", "properties": {"Parcela": "K-114", "ANO": 2012, "Ha": 25.16, "PLANTAS": "4.356", "VARIEDADE": "AV do B", "UDF": 5}, "geometry": {"type": "Polygon", "coordinates": [[[-48.088955113889, -1.1972572402779924], [-48.079631301389, -1.1961968016669988], [-48.079431926667, -1.1985032741670116], [-48.08646207083301, -1.199243754167002], [-48.0865530325, -1.1969882716670008], [-48.086698628333, -1.1970049372219935], [-48.0866035275, -1.1992389641670056], [-48.087062106667, -1.199313925555994], [-48.087087059167, -1.1991714730560123], [-48.087149590833, -1.1990962805560004], [-48.087302314444, -1.199064716944002], [-48.087332975, -1.1990676386110104], [-48.087510378333, -1.199027371110997], [-48.087525787778, -1.1990288397219933], [-48.087811270556, -1.199066257222008], [-48.088031906111, -1.1991037100000062], [-48.088040669167, -1.1991097794439973], [-48.088320166944, -1.199090492777995], [-48.088547285556, -1.1991077344439978], [-48.088752669444, -1.1990762291670038], [-48.088955113889, -1.1972572402779924]]]}}, {"type": "Feature", "properties": {"Parcela": "K-121", "ANO": 2012, "Ha": 17.9, "PLANTAS": "3.428", "VARIEDADE": "AV do B", "UDF": 10}, "geometry": {"type": "Polygon", "coordinates": [[[-48.075319501667, -1.2038894147220103], [-48.075367832222, -1.2027697236110018], [-48.067715615833, -1.2019706747220025], [-48.06778873527801, -1.2021471511109965], [-48.067888171944, -1.2022582002780007], [-48.067933748333, -1.202368533332998], [-48.068000665278, -1.2024755383329846], [-48.068025347222, -1.2025722533330063], [-48.068116550278, -1.2026647613889925], [-48.068211470833, -1.202761553333002], [-48.068322898889, -1.2028962752779944], [-48.068353889722, -1.2029745677779913], [-48.068503743611, -1.2030365916669865], [-48.068624385833, -1.203075183889002], [-48.06862955, -1.2030754333329947], [-48.06873407166701, -1.203109667777996], [-48.068798589444, -1.2031576186110025], [-48.068907765278, -1.203264464443993], [-48.068981400833, -1.203388874167], [-48.069010267500005, -1.2035370911109962], [-48.068979238611, -1.2036239197219998], [-48.06913656527801, -1.203773834166999], [-48.069204268611, -1.203833758611008], [-48.069298057778, -1.2039233563890037], [-48.069341774722, -1.2039960680559891], [-48.069426824167, -1.20404934499999], [-48.069536201944, -1.204110950278004], [-48.069649030833, -1.2040964999999988], [-48.0697623175, -1.2041124300000101], [-48.069875656389, -1.2041284397220053], [-48.069937708333, -1.2041670119440087], [-48.070043656111, -1.2042276133330039], [-48.070197341389, -1.2043463644439987], [-48.070204167222, -1.2043564208330126], [-48.070244169722, -1.2044257747220033], [-48.070285496944, -1.204501207778008], [-48.070285151667, -1.2045058633330008], [-48.070395623611, -1.204560804443997], [-48.0741900725, -1.2049660311109975], [-48.074243336389, -1.2049044908330075], [-48.074256622778, -1.2048023263889949], [-48.074257029444, -1.2047997219439919], [-48.07429795, -1.2046844977779958], [-48.074362086667, -1.2045121380559978], [-48.074377936667, -1.204448871389005], [-48.074559056111, -1.2044765780560032], [-48.074714734722, -1.2044727499999959], [-48.074841693056, -1.2044793586109994], [-48.074939349167, -1.2044847388890059], [-48.075079299167, -1.2045104705560066], [-48.075143614444, -1.2045550872220052], [-48.075217778333, -1.204573616111014], [-48.075263255, -1.2044343416670036], [-48.075280525556, -1.2041292530560024], [-48.075297596111, -1.2039877669439862], [-48.075319501667, -1.2038894147220103]]]}}, {"type": "Feature", "properties": {"Parcela": "K-122", "ANO": 2012, "Ha": 1.69, "PLANTAS": "1.337", "VARIEDADE": "AV do B", "UDF": 10}, "geometry": {"type": "MultiPolygon", "coordinates": [[[[-48.073331302778, -1.2001995108329941], [-48.073340279722, -1.2002281791669949], [-48.073319637222, -1.2003345669439984], [-48.073299370833, -1.2004923536109977], [-48.073329139722, -1.2006918097219996], [-48.073294101667, -1.200761281389007], [-48.0732940975, -1.2009269366670021], [-48.073308078889, -1.2010697752780048], [-48.073305467778, -1.2012665536110034], [-48.073296410556, -1.2014315219439917], [-48.073265210278, -1.2016034069439938], [-48.073230345278, -1.2018018191670032], [-48.073225354444, -1.2018529016670036], [-48.073166863611, -1.2018841047220046], [-48.073076842222, -1.2019060005559972], [-48.072989991111, -1.201945875832995], [-48.072805882778, -1.2019651402780007], [-48.072531820278, -1.2019566383329883], [-48.072333966389, -1.201928084443998], [-48.072165849722, -1.2019059016669984], [-48.071885764722, -1.201923045555999], [-48.071766379722, -1.2019121066669918], [-48.071597868333, -1.2019201127780066], [-48.07137951027801, -1.2019213911109903], [-48.071229106111, -1.2019184766669937], [-48.071023306667, -1.201910489166992], [-48.070923194722, -1.2019144822219974], [-48.070763697778, -1.2019051994439993], [-48.070648087778, -1.201891705833009], [-48.07041273750001, -1.2018769641669957], [-48.070250969722, -1.2018631027779914], [-48.070101488611, -1.2018677055560045], [-48.069974151111005, -1.2018722402780064], [-48.069614917778, -1.2018635511110052], [-48.069516054167, -1.201868840278009], [-48.069260529722, -1.2018427447220101], [-48.069050745278, -1.2018260102779963], [-48.068857107222, -1.2018272375000016], [-48.068573587222, -1.201835256111002], [-48.068393244444, -1.2018325622219967], [-48.068186652778, -1.2018388983330044], [-48.067949774722, -1.2018379772219967], [-48.067675139722, -1.2018194858330062], [-48.067586128611, -1.2018389338889923], [-48.067580600556, -1.2019104527780073], [-48.067661796389, -1.2019465727779943], [-48.074571244444, -1.2026647502780061], [-48.0745781, -1.2025277611109997], [-48.074593561667, -1.2023754533330027], [-48.074522273333, -1.2023027477780022], [-48.074480951944, -1.202288047777993], [-48.074336763056, -1.2022591802780127], [-48.074284179444, -1.2022038249999951], [-48.074308645, -1.2020859916669986], [-48.07430927, -1.2020799830559974], [-48.074311225833, -1.2018493697219987], [-48.074341255278, -1.2016496191670065], [-48.074351490833, -1.2015240155560019], [-48.07428886, -1.201486719444], [-48.074208602778, -1.201434138889008], [-48.074065058333, -1.2013860808329975], [-48.073637771667, -1.2013216863889915], [-48.07375305793897, -1.2002408524364532], [-48.073331302778, -1.2001995108329941]]], [[[-48.079077843333, -1.200835606943983], [-48.073753266667, -1.2002388955560115], [-48.07375305793897, -1.2002408524364532], [-48.073753551667, -1.200240900833012], [-48.076575775278, -1.2005582819439844], [-48.076496806389, -1.200644813055995], [-48.076454235833, -1.2007318977779984], [-48.076406054722, -1.2008164761109925], [-48.076428938333, -1.2008665708329882], [-48.076422654722, -1.2009255913890085], [-48.076409719444, -1.2010288255560035], [-48.076376790833, -1.2011438769439855], [-48.076374089722, -1.2011498147219997], [-48.076331891667, -1.201196274722004], [-48.076331690278, -1.201198321944013], [-48.076333654444, -1.201262429444001], [-48.076333454722, -1.2012644458330006], [-48.076347371667, -1.2013513924999943], [-48.076368036944, -1.2014277850000006], [-48.076406733611, -1.201482078055998], [-48.076500470833004, -1.2015259702780055], [-48.076573825, -1.201551465278006], [-48.076734446111, -1.2015579963890053], [-48.076738412222, -1.2015585394440078], [-48.0768929975, -1.2015564047219986], [-48.077032060556, -1.2015638052779893], [-48.077036032222, -1.2015643519440056], [-48.077170111667, -1.201567139999996], [-48.07730903, -1.2015587602779922], [-48.077380263056, -1.201588192221994], [-48.077390850833, -1.2015955177779891], [-48.077398782500005, -1.2015966088890007], [-48.077405826944, -1.2016014855560087], [-48.077419698056005, -1.2016033927780065], [-48.077427623333, -1.2016044819440104], [-48.077485660833, -1.2016183099999949], [-48.0775616525, -1.2016092099999989], [-48.077688632778, -1.2015952297220007], [-48.07779711972201, -1.2015864405560035], [-48.077863303056, -1.201579680832998], [-48.078043891389, -1.2016025880559948], [-48.078211917222, -1.2016257405560047], [-48.078347256111, -1.2016364425000081], [-48.078437925, -1.2016449622219894], [-48.078584660278, -1.2016512480559924], [-48.078713898889, -1.201663069167003], [-48.078811661111, -1.2016685624999992], [-48.078970528889, -1.2016864455559995], [-48.079023433889, -1.2016980833329975], [-48.079077843333, -1.200835606943983]]]]}}, {"type": "Feature", "properties": {"Parcela": "K-123", "ANO": 2012, "Ha": 23.5, "PLANTAS": "4.018", "VARIEDADE": "AV do B", "UDF": 10}, "geometry": {"type": "Polygon", "coordinates": [[[-48.079366721944, -1.1985038302780031], [-48.077204256389, -1.1982901416669998], [-48.077105963611, -1.198322141667002], [-48.077025197222, -1.198348294722005], [-48.076796884167, -1.198331189166988], [-48.076424532222, -1.1982901838890005], [-48.076330691389, -1.1982704508330009], [-48.076177331389, -1.198259327777992], [-48.076107607222, -1.1982992822219998], [-48.07597221750001, -1.198291336388999], [-48.075914030278, -1.1983121294440056], [-48.075638744722, -1.198292885277994], [-48.075201974444, -1.1982513269440165], [-48.073580513889006, -1.1981325363889936], [-48.073408056111, -1.1981206372220043], [-48.073187334167, -1.1981058319439897], [-48.073158669167, -1.1981496572219974], [-48.072824095278, -1.1981336966669953], [-48.072817323333, -1.1981310302779988], [-48.072765333611, -1.1981266263889927], [-48.072526297500005, -1.1981107388890024], [-48.072250225, -1.198101119166998], [-48.072008545, -1.1980735547220056], [-48.07189020611101, -1.1980644027779987], [-48.071754031944, -1.1980442727780087], [-48.071570093056, -1.198043009443996], [-48.071564953611, -1.198042368611006], [-48.071455338333, -1.1980289886110083], [-48.0713269925, -1.198005920278005], [-48.071185529722, -1.1980020797219908], [-48.071040142778, -1.197983467500012], [-48.070846519722, -1.1979569138889956], [-48.070744647222, -1.1979580013890023], [-48.070552179722, -1.1979481261109985], [-48.070401540278, -1.197933146943997], [-48.070170704167, -1.1999327030560143], [-48.070348925833, -1.1999682852780018], [-48.070352784444, -1.1999687924999938], [-48.070368217222, -1.1999708233330035], [-48.070635138333, -1.1999864702779997], [-48.071255220833, -1.200009073611], [-48.071259139722, -1.2000096216670053], [-48.071665745278, -1.2000334191669957], [-48.072250511667, -1.2000678449999982], [-48.072691129722, -1.2001014780560004], [-48.073196348056, -1.2001399847219965], [-48.0733468075, -1.2001667825000037], [-48.073752692222, -1.2002015797219938], [-48.07495497666701, -1.200364687778002], [-48.079094171944, -1.2007974108330024], [-48.079366721944, -1.1985038302780031]]]}}, {"type": "Feature", "properties": {"Parcela": "K-124", "ANO": 2012, "Ha": 5.98, "PLANTAS": "1.042", "VARIEDADE": "AV do B", "UDF": 10}, "geometry": {"type": "Polygon", "coordinates": [[[-48.077215307222, -1.1982695366669902], [-48.079370531667, -1.1984657166669987], [-48.079590185, -1.1961927936109957], [-48.077572531111, -1.195955968056008], [-48.077535614722, -1.1961185455559948], [-48.077530733889, -1.1963058277779988], [-48.0774895025, -1.1964799705559903], [-48.077448838889, -1.1966044000000036], [-48.077429887778, -1.1969637180559956], [-48.077384859722, -1.197227750277995], [-48.077328363333, -1.1973902344439946], [-48.077292954444, -1.1977334897220018], [-48.077273131944, -1.1979354736110035], [-48.07723079, -1.1980686466670099], [-48.077224989722, -1.1981832786109874], [-48.077215307222, -1.1982695366669902]]]}}, {"type": "Feature", "properties": {"Parcela": "K-133", "ANO": 2012, "Ha": 9.37, "PLANTAS": "2.245", "VARIEDADE": "AV do B", "UDF": 17}, "geometry": {"type": "MultiPolygon", "coordinates": [[[[-48.065586217778, -1.1996392958329989], [-48.06516120655709, -1.199632592283968], [-48.065595521667, -1.1996406730560016], [-48.065844509444, -1.1996520372220092], [-48.06584452568457, -1.1996519707954127], [-48.065843796944, -1.1996519252780045], [-48.065586217778, -1.1996392958329989]]], [[[-48.06511300055601, -1.1996318319440098], [-48.06516120655709, -1.199632592283968], [-48.065111834034916, -1.1996316736654005], [-48.06511300055601, -1.1996318319440098]]], [[[-48.070361005278, -1.197905225278008], [-48.070185153889, -1.1978980244440025], [-48.07009991805601, -1.1978459594439952], [-48.069975594167, -1.1978674913889988], [-48.069875465833, -1.1979032461110082], [-48.06971086416701, -1.197919920556005], [-48.069698402778, -1.197918083055995], [-48.069553920833, -1.1978639661109933], [-48.069412491389, -1.1978424758329944], [-48.069259131389, -1.197873750277989], [-48.069141026667, -1.1978059344439924], [-48.0689546, -1.1977631255559997], [-48.068945659444, -1.197766141943992], [-48.068749298611, -1.197724713611007], [-48.068524305, -1.1977053705559861], [-48.068515886111, -1.1977040036109983], [-48.06827489305601, -1.1976753727780043], [-48.068258416111, -1.197667801389012], [-48.068254195, -1.1976671130559942], [-48.06808974555601, -1.1976354058329874], [-48.068068587222, -1.1976319577780004], [-48.068034746667, -1.1976265436110027], [-48.068013593611, -1.1976231750000033], [-48.067882275556, -1.197607946110997], [-48.067569689167, -1.1976310472220042], [-48.0673892125, -1.1976047827779939], [-48.067195362778, -1.197615528333005], [-48.067175024167, -1.1976077088889912], [-48.066922996944, -1.1975758977780047], [-48.066906761944, -1.197568676389005], [-48.066877413889, -1.1975644044439948], [-48.066665485, -1.197601377222006], [-48.066429988333, -1.1975935172220036], [-48.066413363611, -1.1975913852779918], [-48.066405052222, -1.1975903191669888], [-48.066250454167, -1.1975850791670062], [-48.066211225556, -1.1978547058329942], [-48.06617347972201, -1.1980520691669938], [-48.066110216389, -1.1982956047219961], [-48.066101573056, -1.1983078291670084], [-48.066109266111, -1.198514209444], [-48.066108246389, -1.1985312608330043], [-48.066158614722, -1.1986658911109953], [-48.066123258333, -1.1987368844440163], [-48.066103368611, -1.198746770277996], [-48.066087326667, -1.1987571144440063], [-48.066055355, -1.1988436169440113], [-48.06605132055601, -1.1988471697219971], [-48.065981927222, -1.1990213008330013], [-48.065973865, -1.1990322374999967], [-48.06590554750001, -1.1992244261110077], [-48.065907349444, -1.1993596183330046], [-48.065906713056, -1.1993747627779976], [-48.065902742222, -1.1993818016670015], [-48.065878760278, -1.199521144166994], [-48.065874836389, -1.1995279950000117], [-48.06584452568457, -1.1996519707954127], [-48.070135654167, -1.1999199933330078], [-48.070361005278, -1.197905225278008]]], [[[-48.064929640556, -1.1995130080559921], [-48.064933706667006, -1.1995099150000106], [-48.064961195, -1.1993885738889905], [-48.06493843, -1.199310839999991], [-48.064869424444005, -1.199184260832997], [-48.064863911111, -1.1990794702780065], [-48.06482661111101, -1.1989845391669984], [-48.064804693889, -1.1987531927779986], [-48.0648487925, -1.1985773522219938], [-48.064915140556, -1.1984508569440082], [-48.065004068333, -1.1982809866669892], [-48.06504630833301, -1.1980799047219994], [-48.065156706389, -1.1976507980560007], [-48.065100220833, -1.197506318333008], [-48.0648839325, -1.1974899125000076], [-48.06462878833301, -1.1974966152779924], [-48.064516939722, -1.1976274780559912], [-48.064480776389, -1.1979267452779987], [-48.064453104722, -1.1981817674999904], [-48.064441638056, -1.1984056488889998], [-48.064408167222, -1.1986151602779958], [-48.064380138889, -1.198854265277999], [-48.064338595278, -1.1990828966670042], [-48.064300550833, -1.1993218591669914], [-48.064275255556, -1.1995425899999999], [-48.064923146111, -1.199606072221984], [-48.065111831111, -1.1996316736109953], [-48.065111834034916, -1.1996316736654005], [-48.064920734444, -1.1996057444440025], [-48.064929640556, -1.1995130080559921]]]]}}, {"type": "Feature", "properties": {"Parcela": "L-101", "ANO": 2021, "Ha": 8.49, "PLANTAS": "1.290", "VARIEDADE": "PB-141", "UDF": null}, "geometry": {"type": "MultiPolygon", "coordinates": [[[[-48.08941461853472, -1.1972293853624303], [-48.089414363611, -1.1972316944439985], [-48.091594719167, -1.1974564061109982], [-48.091594623429046, -1.197455017721933], [-48.08941461853472, -1.1972293853624303]]], [[[-48.095633563333, -1.1961685647219893], [-48.094498805556, -1.196050734443991], [-48.0943697925, -1.1960369208329964], [-48.094278972778, -1.196031421388996], [-48.094146804167, -1.1960239130559915], [-48.094060762778, -1.1960058675000003], [-48.093945022778, -1.1960029763890074], [-48.093829464167, -1.1960032163889909], [-48.09368875888901, -1.195968936388988], [-48.093677672778, -1.1959683497220004], [-48.093663504167, -1.1959643050000064], [-48.093544618611, -1.195961402221983], [-48.093484968056, -1.195911684721991], [-48.093377517778, -1.1959605961110107], [-48.093372612778, -1.1959603416670015], [-48.093267367778, -1.1959558733330118], [-48.093260035556, -1.1959555888890074], [-48.093142773333, -1.1959483102780024], [-48.093132960833, -1.195945297499998], [-48.093125566111, -1.1959398419440024], [-48.093000276667006, -1.195921141943994], [-48.092990433889, -1.1959181994439974], [-48.092987990278, -1.195918105555996], [-48.092836451111, -1.195907157222003], [-48.092744889167, -1.1958804805560053], [-48.092737373889, -1.1958775730560014], [-48.092591933611, -1.1958538750000034], [-48.092461841667, -1.1958575444439927], [-48.092315025278, -1.1958782311109901], [-48.092186793889, -1.1958615808330049], [-48.092104119722, -1.1958514325000096], [-48.092011762222, -1.1958434847220074], [-48.091968105278, -1.195990751111002], [-48.091965719167, -1.195990658332994], [-48.091865445, -1.1960398636109837], [-48.09178632, -1.1962259088889844], [-48.091785169444, -1.1964191250000071], [-48.091782932778, -1.1964211933330038], [-48.091765609167, -1.196497633056005], [-48.091718808056, -1.1967438297219932], [-48.091699538611, -1.1970164072219975], [-48.091635095, -1.1971085102780006], [-48.091592875833, -1.1973205022220061], [-48.091586148889, -1.1973321202779996], [-48.091594623429046, -1.197455017721933], [-48.095466663889, -1.1978557738890065], [-48.095633563333, -1.1961685647219893]]], [[[-48.089376473889, -1.1960662263890003], [-48.089265410278, -1.1960721244440122], [-48.089197913889, -1.1960727724999982], [-48.089192517222, -1.1960725300000141], [-48.089119720278, -1.1960695727780024], [-48.089001608611, -1.1971866383330043], [-48.08941461853472, -1.1972293853624303], [-48.089546542222, -1.1960344233329865], [-48.089376473889, -1.1960662263890003]]]]}}, {"type": "Feature", "properties": {"Parcela": "L-111", "ANO": 2012, "Ha": 8.53, "PLANTAS": "1.248", "VARIEDADE": "AV do B", "UDF": 6}, "geometry": {"type": "MultiPolygon", "coordinates": [[[[-48.086676941389, -1.195973849166998], [-48.086679025, -1.196942389721998], [-48.088986571667, -1.1971827369440025], [-48.089096577222, -1.1960664233329918], [-48.08658950834299, -1.1959635721935475], [-48.086676941389, -1.195973849166998]]], [[[-48.086395184167, -1.195975860832987], [-48.086327319444, -1.195980507778002], [-48.086326473611, -1.1959851183330046], [-48.086260525556, -1.1960260069440147], [-48.086207895833006, -1.1960374255559922], [-48.0862004525, -1.1960371149999924], [-48.086110835833004, -1.1960108541670038], [-48.0861015225, -1.1960105205559959], [-48.086094075278, -1.1960102541669875], [-48.086034718889, -1.1959784833330083], [-48.086029123611, -1.1959782866670023], [-48.085973537222, -1.1959740502779952], [-48.085963725556, -1.195978207778005], [-48.085959492778, -1.195982581110999], [-48.085888685556, -1.196038050277992], [-48.085881373056, -1.1960377450000137], [-48.085786809167, -1.1960091747220007], [-48.085781344167, -1.1960087713889915], [-48.085719098889, -1.1960086408330035], [-48.085711821667005, -1.1960081033330006], [-48.085702569167, -1.1960096502779913], [-48.085698932222, -1.1960093816669914], [-48.085598268611, -1.1959795772220054], [-48.085596444444, -1.195979442221987], [-48.085478620833, -1.1960064452779955], [-48.085471244722, -1.1960103316669908], [-48.085391171111, -1.1960330399999937], [-48.085340813611, -1.1960205397220096], [-48.085333593333, -1.196022201666994], [-48.085329989444, -1.1960219366669982], [-48.085209861944, -1.1960457822219985], [-48.085202781389, -1.1960495930560124], [-48.085197456944, -1.1960513627779994], [-48.085080220556, -1.1960619625000055], [-48.085076651667, -1.1960616794439995], [-48.084968187778, -1.196031346943996], [-48.084960875278, -1.1960285777780113], [-48.084953688889, -1.1960279747219913], [-48.08495009583301, -1.196027673610994], [-48.084878555278, -1.1960021891669863], [-48.084873143611, -1.1960017325000076], [-48.084794523611, -1.1960038097220018], [-48.08478931250001, -1.1960055372220078], [-48.084668743056, -1.1960110038890006], [-48.084609524722, -1.1959911791670002], [-48.084602313333, -1.1959905766670058], [-48.084468095, -1.1959664141670066], [-48.084359150278, -1.1959733316669983], [-48.084350416389, -1.1959684277780152], [-48.084239646389, -1.1959457594439902], [-48.084232528611, -1.1959431088889938], [-48.084150283056, -1.1959133419439896], [-48.084146670278, -1.195913078888993], [-48.084061666944, -1.195924290277992], [-48.083984466111, -1.1959341358329867], [-48.083879789722005, -1.195950496667001], [-48.083801540556, -1.1959722127779893], [-48.083735879444, -1.1959695375000043], [-48.083651425278, -1.195930090277989], [-48.083532985278, -1.1959347622220053], [-48.083409297778, -1.1959269769439935], [-48.083328768333, -1.1959384749999966], [-48.083235515278, -1.1959530561109968], [-48.083152314444, -1.1959476216669858], [-48.083040708333, -1.1959236827779998], [-48.082954000833, -1.1959420252779975], [-48.082865602222, -1.1959120647220034], [-48.082733535556, -1.195936681388996], [-48.082634675833, -1.1959535136110027], [-48.082545440000004, -1.1959547408330018], [-48.082492818056, -1.1959136119440048], [-48.0824100125, -1.1959027177780035], [-48.082350113611, -1.1958978555560025], [-48.082235890833, -1.1958874752780007], [-48.082129349444, -1.1958610905560012], [-48.082058866389, -1.1958538897219961], [-48.082038733056, -1.1958875336109938], [-48.0820317225, -1.195887020832989], [-48.081942338056, -1.1958887088889971], [-48.081921374167, -1.1958563266670026], [-48.081847413889, -1.195838515556008], [-48.081762431944, -1.1958135966670036], [-48.081729768333, -1.1958382502780027], [-48.081651457222, -1.19584896111101], [-48.081646193611, -1.195848552500009], [-48.081558093056, -1.1958355375000078], [-48.081554580556, -1.1958352625000046], [-48.081480823889, -1.1958295391670029], [-48.081300545278, -1.195823942778], [-48.081196795, -1.195803434166996], [-48.081105361111, -1.195779609167005], [-48.081103168333, -1.195783624999986], [-48.080956816389, -1.1957970350000136], [-48.080949804167, -1.1957964516669994], [-48.080948050278, -1.1957963063889985], [-48.080854728333, -1.1957947605559986], [-48.080769280556, -1.1957772702780018], [-48.080681289167, -1.1957741030559979], [-48.080607769167, -1.1957492222219983], [-48.080537253056, -1.1957265577779912], [-48.080533713611, -1.1957262650000127], [-48.08044710583301, -1.1957295525000045], [-48.080382058056, -1.1957387819439926], [-48.080336320278, -1.195720321388996], [-48.080273000278, -1.1957297047220012], [-48.080181625, -1.1957202308330026], [-48.080105233333, -1.1956994722219976], [-48.080015499444, -1.195686060556003], [-48.080011961111, -1.1956857827780032], [-48.079937951111006, -1.1956735130560021], [-48.079877612778, -1.1956705769440148], [-48.0798151975, -1.1956803024999967], [-48.079776399722, -1.195672987499995], [-48.079689727778, -1.1956682494440045], [-48.079638760556, -1.1961804291669962], [-48.086518668333, -1.1969078686109955], [-48.08656832731619, -1.1959627032445264], [-48.086544197778, -1.1959617133330107], [-48.086395184167, -1.195975860832987]]], [[[-48.08656832731619, -1.1959627032445264], [-48.08658950834299, -1.1959635721935475], [-48.086568411944, -1.195961092500001], [-48.08656832731619, -1.1959627032445264]]]]}}, {"type": "Feature", "properties": {"Parcela": "L-121", "ANO": 2012, "Ha": 1.11, "PLANTAS": "187", "VARIEDADE": "AV do B", "UDF": 10}, "geometry": {"type": "Polygon", "coordinates": [[[-48.077588750278, -1.195944468889], [-48.079591953611, -1.1961679544439976], [-48.07962873, -1.1957134986109859], [-48.07954821472201, -1.195720296667003], [-48.079499591111, -1.1956812888890074], [-48.079439188333, -1.1956478266670056], [-48.079369733611, -1.1956155208329868], [-48.079281918611, -1.1956484602780042], [-48.079192940833, -1.1956614816669962], [-48.079144236667, -1.1956484022220046], [-48.079136215833, -1.1956450413890072], [-48.079125916944, -1.1956437852780073], [-48.079048603889, -1.1956489330559983], [-48.07898407388901, -1.1956531811110067], [-48.0788994675, -1.195652955833001], [-48.078887203611, -1.1956516541670061], [-48.078885415278, -1.1956467280560077], [-48.078762511944, -1.1956432144440017], [-48.07868962138901, -1.1956215024999963], [-48.078577496111, -1.1956407616670046], [-48.078441642778, -1.1956050363889998], [-48.078433532222, -1.1956041700000088], [-48.078346094722, -1.195580746110995], [-48.078276667222, -1.195556900277998], [-48.078222453333, -1.1956014074999952], [-48.078127974167, -1.1955763233329915], [-48.078120015, -1.1955756027780085], [-48.078036425, -1.1955656808330013], [-48.077932310833, -1.1955494688890045], [-48.077803198889, -1.1955497272220055], [-48.077701704722, -1.1955216355559992], [-48.077693706111, -1.1955209124999995], [-48.077691706389, -1.1955207313890017], [-48.077635683889, -1.1955250958330053], [-48.077614834722, -1.195664296944006], [-48.077614803889, -1.1956688155559998], [-48.077572124722, -1.195698621110999], [-48.077534138611, -1.195774474444012], [-48.077564588611, -1.1958481025000045], [-48.077588750278, -1.195944468889]]]}}]}