{"type": "FeatureCollection", "features": [{"type": "Feature", "properties": {"FID": 0, "ID": "ADM"}, "geometry": {"type": "Polygon", "coordinates": [[[-141.23307997794896, -85.52568652554777], [-141.23307995973371, -85.52568652643677], [-141.2330799517135, -85.52568652770104], [-141.23307994313447, -85.52568652858699], [-141.23307993056375, -85.52568653046254], [-141.2330799246384, -85.52568653054853], [-141.23307991546625, -85.52568653040424], [-141.23307990926455, -85.52568653036417], [-141.23307990010355, -85.52568653043018], [-141.23307989119667, -85.5256865302017], [-141.23307988690155, -85.52568653053952], [-141.23307988476068, -85.5256865308346], [-141.23307988100845, -85.52568653124585], [-141.2330798777893, -85.52568653154128], [-141.23307987241785, -85.52568653191099], [-141.23307987123954, -85.52568653257377], [-141.23307987313413, -85.52568653272037], [-141.23307988122693, -85.52568653284396], [-141.23307988771555, -85.52568653322041], [-141.2330798893582, -85.52568653370355], [-141.2330798853779, -85.52568653490344], [-141.2330798846032, -85.5256865355556], [-141.23307987924755, -85.5256865362302], [-141.23307986879183, -85.52568653730599], [-141.23307986021263, -85.52568653819192], [-141.23307985647196, -85.52568653882398], [-141.23307985247294, -85.5256865396664], [-141.23307984416013, -85.52568654048916], [-141.23307983234523, -85.5256865413551], [-141.23307979844924, -85.5256865426276], [-141.2330797990124, -85.52568654309006], [-141.23307980282922, -85.52568654390896], [-141.2330798104323, -85.525686544979], [-141.23307982984693, -85.52568654512001], [-141.23307988040813, -85.525686542959], [-141.23307991106358, -85.52568654156136], [-141.23307993526257, -85.52568654041809], [-141.2330799737122, -85.5256865385974], [-141.23308000757163, -85.52568653662044], [-141.23308003190894, -85.52568653554023], [-141.23308006416312, -85.5256865337951], [-141.23308007571475, -85.52568653305543], [-141.23308008673172, -85.52568653240002], [-141.23308008343554, -85.52568653122347], [-141.23308007452206, -85.52568653086881], [-141.233080057898, -85.52568652996987], [-141.23308004696253, -85.52568652960537], [-141.2330800354851, -85.52568652918845], [-141.23308003073487, -85.5256865285591], [-141.23308003310763, -85.52568652753845], [-141.23308003320986, -85.52568652691807], [-141.23308002016623, -85.5256865274795], [-141.23308000966043, -85.5256865275985], [-141.2330799950192, -85.52568652724567], [-141.23307999090304, -85.52568652714183], [-141.23307998609496, -85.52568652669125], [-141.23307998365732, -85.52568652646598], [-141.23307998040187, -85.52568652606746], [-141.23307997794896, -85.52568652554777]]]}}]}