{"type": "FeatureCollection", "features": [{"type": "Feature", "properties": {"nome": "PC-01", "descricao": "Patio de compostagem 01"}, "geometry": {"type": "Polygon", "coordinates": [[[-48.03047873470001, -1.228463746138679], [-48.02886906636598, -1.228294346120837], [-48.02911042526424, -1.226008144101508], [-48.03071366070834, -1.226149868759917], [-48.03047873470001, -1.228463746138679]]]}}, {"type": "Feature", "properties": {"nome": "PC-02", "descricao": "Patio de compostagem 01"}, "geometry": {"type": "Polygon", "coordinates": [[[-48.02883478027388, -1.228299397402493], [-48.02706671654536, -1.228053015083561], [-48.02729173169203, -1.225830159187194], [-48.02904678907867, -1.226009888892032], [-48.02883478027388, -1.228299397402493]]]}}, {"type": "Feature", "properties": {"nome": "PC-03", "descricao": "Patio de compostagem 03"}, "geometry": {"type": "Polygon", "coordinates": [[[-48.03022906967606, -1.230562063899815], [-48.02871852364384, -1.230423492776852], [-48.02889991116635, -1.228344043976321], [-48.0304779962668, -1.228516198969535], [-48.03022906967606, -1.230562063899815]]]}}, {"type": "Feature", "properties": {"nome": "PC-04", "descricao": "Patio de compostagem 04"}, "geometry": {"type": "Polygon", "coordinates": [[[-48.02866919286775, -1.230420587681312], [-48.0268432273126, -1.230262920827693], [-48.02707700327174, -1.228107154729184], [-48.02889413282797, -1.228351025772023], [-48.02866919286775, -1.230420587681312]]]}}, {"type": "Feature", "properties": {"nome": "ÁREA DE FERTIRRIGAÇÃO"}, "geometry": {"type": "Polygon", "coordinates": [[[-48.03028850013383, -1.225939182963821], [-48.02954454482513, -1.225932978690474], [-48.02959504905315, -1.225509430627069], [-48.02949780686647, -1.225412488584081], [-48.02939434795537, -1.225348415111469], [-48.02915906281237, -1.225328702632333], [-48.02918446866949, -1.224998645535055], [-48.02893943906489, -1.224981308399098], [-48.0289240872228, -1.225048356961407], [-48.02784562817718, -1.224945763621346], [-48.02790198353165, -1.224456256047679], [-48.02747781364355, -1.224414462662917], [-48.0275439196169, -1.222303995587994], [-48.027901893093, -1.222284042941711], [-48.02910923933901, -1.224093274966389], [-48.02957879603076, -1.22407727507347], [-48.03028850013383, -1.225939182963821]]]}}, {"type": "Feature", "properties": {"nome": "PISCINAS DE TRATAMENTO DE EFLUENTE"}, "geometry": {"type": "Polygon", "coordinates": [[[-48.02787058893365, -1.224467165416816], [-48.02782309559527, -1.224934332143461], [-48.02748439452272, -1.22491516785279], [-48.02752423767378, -1.224433534777617], [-48.02787058893365, -1.224467165416816]]]}}, {"type": "Feature", "properties": {"nome": "TRATAMENTO PRIMARIO - REMOÇÃO DE SOLIDOS"}, "geometry": {"type": "Polygon", "coordinates": [[[-48.02907013487928, -1.225085579028811], [-48.02898857958182, -1.225075163974459], [-48.02898580354631, -1.225011864236448], [-48.02913450028565, -1.225023513225894], [-48.02913127079388, -1.225123243057878], [-48.02906900966079, -1.2251192841503], [-48.02907013487928, -1.225085579028811]]]}}, {"type": "Feature", "properties": {"nome": "PATIO DE ESPERA DE CASCA E COCO-SECO"}, "geometry": {"type": "Polygon", "coordinates": [[[-48.02958586676164, -1.225526016395363], [-48.02953203520045, -1.22592708285379], [-48.02937247444559, -1.225907222793185], [-48.0293721383963, -1.225817041168857], [-48.02932585460962, -1.225810849823287], [-48.02934697906264, -1.225501322410089], [-48.02958586676164, -1.225526016395363]]]}}, {"type": "Feature", "properties": {"nome": "ÁREA DO TRITURADOR"}, "geometry": {"type": "Polygon", "coordinates": [[[-48.02937362078191, -1.225821637178225], [-48.02937360522598, -1.225948453396769], [-48.02932300112744, -1.225940822399791], [-48.02932670768726, -1.225870524888718], [-48.02923293849981, -1.225867464161989], [-48.02924183694232, -1.225724847219777], [-48.02929130559907, -1.22572796183596], [-48.02929401647028, -1.225760218853358], [-48.02932951193054, -1.225766395957319], [-48.02932890578636, -1.225813916767293], [-48.02937362078191, -1.225821637178225]]]}}, {"type": "Feature", "properties": {"nome": "ÁREA DO DESFIBRAMENTO"}, "geometry": {"type": "Polygon", "coordinates": [[[-48.02933818343911, -1.225589202888672], [-48.02932702228771, -1.225718764999438], [-48.02917249383027, -1.225701739517886], [-48.02918481254241, -1.225561481409337], [-48.02933818343911, -1.225589202888672]]]}}, {"type": "Feature", "properties": {"nome": "CONTROLE DO TRITURADOR"}, "geometry": {"type": "Polygon", "coordinates": [[[-48.02923083421194, -1.225843611552236], [-48.02917036349479, -1.225835993858932], [-48.02917123406689, -1.225835145914488], [-48.02917343044257, -1.22579149173955], [-48.02923450495587, -1.225798392914067], [-48.02923083421194, -1.225843611552236]]]}}, {"type": "Feature", "properties": {"nome": "ANEXO DE APOIO - CC3"}, "geometry": {"type": "Polygon", "coordinates": [[[-48.02907721507326, -1.225836370684591], [-48.02900226918582, -1.225827674908905], [-48.02901007766533, -1.225721873889335], [-48.02908513255814, -1.225731358018102], [-48.02908599604667, -1.225731358162301], [-48.02907721507326, -1.225836370684591]]]}}, {"type": "Feature", "properties": {"nome": "PATIO DE ARMAZENAMENTO DE CASCA DE COCO-VERDE"}, "geometry": {"type": "Polygon", "coordinates": [[[-48.02906375500353, -1.225093185679271], [-48.02906426980038, -1.225125152999615], [-48.02910420847495, -1.225126979366833], [-48.02910031271308, -1.225121339299114], [-48.02910417691233, -1.225125097416701], [-48.029087802255, -1.225558587756918], [-48.02899853287098, -1.22555715921169], [-48.02898024324597, -1.225806722106491], [-48.02739766964029, -1.225679192618561], [-48.02747213198234, -1.224948759285833], [-48.02906375500353, -1.225093185679271]]]}}]}