{"type": "FeatureCollection", "features": [{"type": "Feature", "properties": {"Parcela": "L-134", "ANO": 2012, "Ha": 7.24, "PLANTAS": "1.097", "VARIEDADE": "AV do B", "UDF": 18}, "geometry": {"type": "Polygon", "coordinates": [[[-48.062464606111, -1.187232932778007], [-48.0650286275, -1.1874781983329956], [-48.065121988611, -1.1865665675000083], [-48.065102269444, -1.1865085377780074], [-48.065209341667, -1.1851769833330081], [-48.0627202575, -1.1849295116669982], [-48.062464606111, -1.187232932778007]]]}}, {"type": "Feature", "properties": {"Parcela": "L-141", "ANO": 2012, "Ha": 7.44, "PLANTAS": "1.221", "VARIEDADE": "AV do B", "UDF": 27}, "geometry": {"type": "Polygon", "coordinates": [[[-48.05534866666701, -1.193506774443991], [-48.055454243889, -1.1924995211110048], [-48.055650853889, -1.192467869166999], [-48.055695280556, -1.1924121063889894], [-48.055718966667, -1.1921605222220002], [-48.055706558611, -1.1921237299999898], [-48.055703524722006, -1.191913408611003], [-48.055703028056, -1.1917742522219996], [-48.055768293056, -1.19166727444399], [-48.055764035833, -1.1915916891670113], [-48.055734214167, -1.1914929755559995], [-48.055765565556, -1.1912535550000023], [-48.053080239167, -1.1909329077779964], [-48.052830880278, -1.1932179808329886], [-48.05534866666701, -1.193506774443991]]]}}, {"type": "Feature", "properties": {"Parcela": "L-142", "ANO": 2012, "Ha": 7.67, "PLANTAS": "1.388", "VARIEDADE": "AV do B", "UDF": 27}, "geometry": {"type": "Polygon", "coordinates": [[[-48.053088950556, -1.1908978694439951], [-48.055767741667, -1.1912113455559885], [-48.056040592222, -1.1888969969440146], [-48.053313321389, -1.188652333056], [-48.053088950556, -1.1908978694439951]]]}}, {"type": "Feature", "properties": {"Parcela": "L-143", "ANO": 2012, "Ha": 14.02, "PLANTAS": "2.633", "VARIEDADE": "AV do B", "UDF": 27}, "geometry": {"type": "MultiPolygon", "coordinates": [[[[-48.05605942717663, -1.1884235132370335], [-48.05608145751044, -1.1879636402053761], [-48.055985128173354, -1.1879286918100413], [-48.05565731608493, -1.18791668438278], [-48.05548521730668, -1.1879127518791541], [-48.05531311396698, -1.187904695163895], [-48.055198375369685, -1.1878965745462975], [-48.05510823526497, -1.1879007991429538], [-48.054972968423336, -1.187855583523293], [-48.05482541818303, -1.1878186299762479], [-48.05466971375244, -1.1878188033537467], [-48.05454271889663, -1.187843690001802], [-48.05440188379355, -1.1878493922323963], [-48.054280407254055, -1.1877779947238556], [-48.0541164669848, -1.1877410593500972], [-48.053899277477335, -1.1877206800668654], [-48.05367795419303, -1.1876673116718146], [-48.053669655010175, -1.1875724640572756], [-48.05368597700955, -1.1875105827298482], [-48.053718236036836, -1.1870362625952497], [-48.05375682216583, -1.1868697322633253], [-48.0536867655283, -1.1868097706437393], [-48.053594976342936, -1.186731208075004], [-48.05353350044243, -1.1867189038050538], [-48.05331010690384, -1.188511122466904], [-48.05333269751094, -1.188560587855779], [-48.055908280964545, -1.188842288221612], [-48.0559697545406, -1.1888525301898607], [-48.05602706028107, -1.18879885167471], [-48.05605942717663, -1.1884235132370335]]], [[[-48.056248958611, -1.186530297221989], [-48.05616336, -1.1873946030560054], [-48.05636483, -1.1874948513890013], [-48.056371649167, -1.1874987647219997], [-48.056613728889, -1.1876177883329986], [-48.0566204325, -1.187628235832987], [-48.056926540556, -1.1877134991670006], [-48.057221614444, -1.1877921797220086], [-48.057487296944, -1.187903549722004], [-48.057686037778, -1.187983862500001], [-48.05768621, -1.1883588825000024], [-48.057954021111, -1.1883685286109973], [-48.058238657778, -1.1883793763889914], [-48.058398170556, -1.1883994458330103], [-48.058555657222, -1.1883863538890025], [-48.058703543611, -1.188393618610992], [-48.058852418889, -1.1884400569440028], [-48.059024436944, -1.1884610344440114], [-48.059229634167, -1.188469438611003], [-48.059358279722, -1.188460459999993], [-48.059490235, -1.1884907413889925], [-48.05956627250001, -1.1884449130559882], [-48.059720811389, -1.1884557691670095], [-48.0600927075, -1.188524057500004], [-48.060428723333, -1.1885596536109881], [-48.060570862222, -1.1885335872220013], [-48.060758374167, -1.1885798158330025], [-48.060954091111, -1.1885755586109965], [-48.06120832944401, -1.1885603580559958], [-48.061448540833, -1.188598521389003], [-48.061593563611005, -1.1886298244440083], [-48.061739474167, -1.1886491447219991], [-48.061834333056, -1.1886047472220016], [-48.061943602222, -1.1886395038889945], [-48.06209118111101, -1.1886498683330111], [-48.0622962375, -1.1886069238889994], [-48.062435761944, -1.1872642083329947], [-48.056248958611, -1.186530297221989]]]]}}, {"type": "Feature", "properties": {"Parcela": "L-144", "ANO": 2012, "Ha": 22.74, "PLANTAS": "3.948", "VARIEDADE": "AV do B", "UDF": 27}, "geometry": {"type": "MultiPolygon", "coordinates": [[[[-48.062444276667, -1.1872156444440007], [-48.062686441667, -1.1849169191669944], [-48.054933535556, -1.1840866502779936], [-48.054978948889, -1.1842437930560004], [-48.054942202778, -1.1843550952779955], [-48.054840876667, -1.1844183113889948], [-48.054809535556, -1.1845643236109997], [-48.0548660225, -1.1848105441670054], [-48.054916773611, -1.1850123277780142], [-48.054944744722, -1.1853632627780069], [-48.054979500556, -1.1855587441670068], [-48.055046918056, -1.185775655277998], [-48.05512534416701, -1.1859079838889972], [-48.055183189722, -1.186012592777998], [-48.055297276111, -1.186125151666995], [-48.055366841389, -1.186258158332999], [-48.055445578056, -1.1864040772220028], [-48.055495844167005, -1.1864931158330103], [-48.055498048611, -1.1864958461110062], [-48.055589930833, -1.1866181627780072], [-48.055612887222, -1.1866813555559919], [-48.055694068889, -1.1867435074999972], [-48.055779248611, -1.186869667778011], [-48.055823605833, -1.1869317858330057], [-48.056172592500005, -1.1870658241670047], [-48.056223731389, -1.1865098280560125], [-48.062444276667, -1.1872156444440007]]], [[[-48.05360623023572, -1.1857846890896577], [-48.05375369449921, -1.1857432831196328], [-48.05412214245686, -1.1854459306127314], [-48.054203852427555, -1.1852272567551494], [-48.05426859837962, -1.1844848272688189], [-48.05428474879067, -1.1842662262817], [-48.05421483180471, -1.1840291618778132], [-48.05383428086873, -1.183981711606632], [-48.05360623023572, -1.1857846890896577]]]]}}, {"type": "Feature", "properties": {"Parcela": "L-151", "ANO": 2012, "Ha": 22.24, "PLANTAS": "3.953", "VARIEDADE": "AV do B", "UDF": 35}, "geometry": {"type": "Polygon", "coordinates": [[[-48.052728028056, -1.19323778972199], [-48.053000357222, -1.1909553983330061], [-48.042188948056, -1.189769019721997], [-48.042175039722, -1.1898085741669941], [-48.041919658611, -1.190698644444008], [-48.043311183056, -1.1908831544440033], [-48.043436469444, -1.1909258716670006], [-48.0435206675, -1.1909368516669927], [-48.044634645556, -1.1910980988889965], [-48.044788278889, -1.1911159691670081], [-48.044998780556, -1.1911344808329862], [-48.045229232222, -1.1911747169439948], [-48.045520860833, -1.1912164274999968], [-48.04566651750001, -1.1912251905559996], [-48.04585390833301, -1.1912730969440033], [-48.045945249444, -1.1913167550000043], [-48.046002111944, -1.1912823491669968], [-48.046065275, -1.1912819383330033], [-48.046145236389, -1.1912854183329926], [-48.046224817222, -1.1913021913890098], [-48.046287763056, -1.1913084277779853], [-48.046367859722, -1.1913028472220002], [-48.046437127778, -1.1913097680559959], [-48.04652259, -1.1913294966670047], [-48.046704441944, -1.1913496688890004], [-48.046891290556, -1.1913808286109964], [-48.046993945, -1.191361475832987], [-48.047142441944, -1.1913957413889984], [-48.047272341111, -1.1914036011109994], [-48.047398730556, -1.1914242483330104], [-48.0475672575, -1.1914631280559869], [-48.047454275833, -1.1926542855559983], [-48.052728028056, -1.19323778972199]]]}}, {"type": "Feature", "properties": {"Parcela": "L-152", "ANO": 2012, "Ha": 30.51, "PLANTAS": "5.621", "VARIEDADE": "AV do B", "UDF": 35}, "geometry": {"type": "Polygon", "coordinates": [[[-48.042242441944, -1.1897324697219986], [-48.053009556667, -1.1909131041669943], [-48.053260030556, -1.1886061727779935], [-48.042830436944, -1.1874714477779953], [-48.04275805416701, -1.1876069894440036], [-48.042660228333, -1.1878832666669934], [-48.042583673889, -1.1882459183329963], [-48.042422166944, -1.1888525297220007], [-48.042340834167, -1.1891795750000063], [-48.042264725833, -1.1894541930559865], [-48.042242441944, -1.1897324697219986]]]}}, {"type": "Feature", "properties": {"Parcela": "L-153", "ANO": 2012, "Ha": 16.9, "PLANTAS": "3.797", "VARIEDADE": "AV do B", "UDF": 35}, "geometry": {"type": "Polygon", "coordinates": [[[-48.04284064694401, -1.187428325832997], [-48.0532607475, -1.188577808056004], [-48.053458194722, -1.1866969955560067], [-48.053336458056, -1.1867289752780106], [-48.053259931667, -1.1866763974999965], [-48.05311229277801, -1.186679786388998], [-48.053022606944, -1.1867114608329916], [-48.053018641111, -1.1867147961110103], [-48.052870973889, -1.1867483541670079], [-48.052860284722, -1.1867472638889873], [-48.052689795278, -1.1867473783330085], [-48.052590804444, -1.1866866500000073], [-48.052386469722, -1.1866991994439897], [-48.052239316389, -1.1867238783329963], [-48.052123045, -1.1867695522220052], [-48.051989479722, -1.1868101722219877], [-48.051872800556, -1.1868262497219983], [-48.051738166944, -1.1868444666670037], [-48.051616951944006, -1.1867900852779916], [-48.051506414444, -1.1868250433329994], [-48.051346862222, -1.1868001136109982], [-48.051208615833, -1.1868246791669992], [-48.051193816667, -1.186830722221994], [-48.050958899722, -1.1868576858329942], [-48.050792230833, -1.1868869336110133], [-48.050592108056, -1.186907318055997], [-48.050339031389, -1.1868833705559998], [-48.0501489825, -1.1868790597220147], [-48.050004680278, -1.1869046525000067], [-48.0498617425, -1.1869344197220013], [-48.049734320278, -1.1869649041670023], [-48.049466300556, -1.18694930055599], [-48.049289211111, -1.1870011602779973], [-48.049103421667, -1.187006305000001], [-48.049089811389, -1.1870053866670016], [-48.048943720278, -1.1869953361109844], [-48.048818378889, -1.1869902355559996], [-48.048698038056, -1.1869678452779997], [-48.048581561111, -1.1869874286109992], [-48.0484821825, -1.187011704166992], [-48.048381752778, -1.186997119167004], [-48.048328098889, -1.1869930886109887], [-48.048201127222, -1.1869800436109923], [-48.047550791389, -1.1869264486109963], [-48.047350338611, -1.1869023891670012], [-48.047182237222, -1.1869580911109887], [-48.047041074444, -1.186928826111001], [-48.046938420278, -1.1868853963889976], [-48.046751020833, -1.1868906213889963], [-48.046515063333, -1.186879526389002], [-48.046025874722, -1.1868116880559911], [-48.045864543611, -1.1867619183330105], [-48.0458542825, -1.1867609802779928], [-48.045662484722, -1.1867017019439972], [-48.045490616389, -1.1866929580559908], [-48.045208844722, -1.1866779013890016], [-48.045072698889, -1.186585742499999], [-48.044879933333, -1.1865792772220012], [-48.044873083889, -1.1865786763889943], [-48.044646502222, -1.1865657472220146], [-48.044639656389, -1.1865651452779977], [-48.0444203375, -1.1865074013889987], [-48.0442604775, -1.186479183332992], [-48.044066721944, -1.1863950958330036], [-48.043896669444, -1.186358746943992], [-48.043821120556, -1.186315615832992], [-48.043833431111, -1.1860907997219967], [-48.043862594722, -1.1857556888889957], [-48.043898806667, -1.1854949658330005], [-48.04391945750001, -1.1852571705559876], [-48.043178186944004, -1.1851945413889957], [-48.043162339444, -1.185894616389002], [-48.043124606667, -1.1862044283330055], [-48.04284064694401, -1.187428325832997]]]}}, {"type": "Feature", "properties": {"Parcela": "L-154", "ANO": 2012, "Ha": 17.0, "PLANTAS": "2.574", "VARIEDADE": "AV do B", "UDF": 35}, "geometry": {"type": "MultiPolygon", "coordinates": [[[[-48.053748390556, -1.1839818083329894], [-48.049582609444, -1.183517777222009], [-48.049221425278006, -1.1868649936110085], [-48.049366718611005, -1.1868815577780136], [-48.049510974167, -1.1868981352779917], [-48.049671086944, -1.1868836883330005], [-48.049878014444005, -1.1868304411110029], [-48.050081148889, -1.1867897197219959], [-48.050237166111, -1.1867568744439922], [-48.05039683472201, -1.1867091205560012], [-48.05056361472201, -1.1866560966669966], [-48.050817694722, -1.1866093158330036], [-48.050927711944, -1.1866187258329979], [-48.050940114167, -1.1866273533330023], [-48.051087277222, -1.1866500144439973], [-48.051097402778, -1.1866458447220007], [-48.051105113056, -1.186638946667007], [-48.051107685556, -1.1866366444439926], [-48.051210496944, -1.1865717727780023], [-48.051310234167, -1.1866007255560094], [-48.051474781111, -1.1865968841669914], [-48.051572168611, -1.1866024108329978], [-48.051750357222, -1.186563149721996], [-48.052004728611, -1.1865634444439985], [-48.052014806111, -1.1865616780559953], [-48.052024891389, -1.1865599099999926], [-48.052328021111, -1.1864691022219975], [-48.052507156389, -1.186414140000005], [-48.052684364167, -1.1863416052780056], [-48.052910519167, -1.1862589713889906], [-48.053050579722, -1.1861278458329991], [-48.053272809722, -1.1859947430559892], [-48.053502264722, -1.1859416352779875], [-48.053748390556, -1.1839818083329894]]], [[[-48.043947792381225, -1.1828836849841573], [-48.04382694029799, -1.1829065018867397], [-48.043689635148056, -1.1828715974749962], [-48.043206107423906, -1.1828535725257345], [-48.043181553771, -1.1828824694092115], [-48.04316549650827, -1.183187681760197], [-48.04319022109744, -1.1833155062348488], [-48.04315388334879, -1.183810456577989], [-48.04316677914028, -1.1843630920222492], [-48.043175154309935, -1.1845280528172941], [-48.04319620497622, -1.1850435609522558], [-48.043573231302894, -1.185092634672213], [-48.043901060201144, -1.1851170172779346], [-48.04392971581937, -1.1850922400641672], [-48.04401103998349, -1.1845188795319768], [-48.044043806640026, -1.184506470531071], [-48.04416958258206, -1.1833639147599202], [-48.04421828034836, -1.1829308149404996], [-48.04416087460394, -1.1828937601494403], [-48.043947792381225, -1.1828836849841573]]]]}}, {"type": "Feature", "properties": {"Parcela": "M-131", "ANO": 2012, "Ha": 6.95, "PLANTAS": "1.132", "VARIEDADE": "AV do B", "UDF": 19}, "geometry": {"type": "Polygon", "coordinates": [[[-48.062999325833, -1.1826142827779984], [-48.062752865833, -1.1848967483330002], [-48.065248181389, -1.1851345875000001], [-48.065415605, -1.1828554577780013], [-48.062999325833, -1.1826142827779984]]]}}, {"type": "Feature", "properties": {"Parcela": "M-132", "ANO": 2012, "Ha": 7.25, "PLANTAS": "1.162", "VARIEDADE": "AV do B", "UDF": 19}, "geometry": {"type": "Polygon", "coordinates": [[[-48.062965455278004, -1.182579398333], [-48.065487622222, -1.1828656513889944], [-48.065728434167, -1.1805310586110134], [-48.06321907, -1.1802841580560037], [-48.062965455278004, -1.182579398333]]]}}, {"type": "Feature", "properties": {"Parcela": "M-133", "ANO": 2012, "Ha": 2.17, "PLANTAS": "356", "VARIEDADE": "AV do B", "UDF": 19}, "geometry": {"type": "Polygon", "coordinates": [[[-48.063216811944, -1.1802476747220045], [-48.065715002778, -1.1805178219439878], [-48.065735516111, -1.1797870997220006], [-48.063263827778, -1.1795684419439998], [-48.063216811944, -1.1802476747220045]]]}}, {"type": "Feature", "properties": {"Parcela": "M-141", "ANO": 2012, "Ha": 22.44, "PLANTAS": "3.394", "VARIEDADE": "AV do B", "UDF": 28}, "geometry": {"type": "MultiPolygon", "coordinates": [[[[-48.062700786667, -1.1848759188890041], [-48.062933355833, -1.1826087072219944], [-48.05501839027801, -1.1817688719440065], [-48.05509648083301, -1.1819428983329945], [-48.055059146944, -1.1821505644440091], [-48.0550620075, -1.1824163027779981], [-48.055008385, -1.1827202419439908], [-48.054954630278, -1.182978346944009], [-48.054953147778, -1.1829900155559911], [-48.054879144444, -1.1832062699999968], [-48.054878246944, -1.1832136547220105], [-48.054859898611, -1.1834441558330118], [-48.05491725083301, -1.1836216761109914], [-48.055001634444, -1.183826903611002], [-48.055010797778, -1.1840350241669857], [-48.062700786667, -1.1848759188890041]]], [[[-48.053989309646006, -1.1820106114523168], [-48.05384371382196, -1.183759437927761], [-48.05384796712221, -1.183901718465241], [-48.054015970675636, -1.1839077183735207], [-48.05404042006383, -1.1837839649578141], [-48.05410914263979, -1.1829301773825882], [-48.05409673736909, -1.182827085901758], [-48.0541212726075, -1.1827816924000176], [-48.054106859223985, -1.1827157210285921], [-48.054090424179144, -1.1826744971525562], [-48.05413545133406, -1.1826332051497217], [-48.05414563637447, -1.182579579140859], [-48.05420241688909, -1.1820454311430975], [-48.05415523048908, -1.1819856823874064], [-48.054151096931946, -1.1819526932931574], [-48.05406913157148, -1.1819383493591984], [-48.053989309646006, -1.1820106114523168]]]]}}, {"type": "Feature", "properties": {"Parcela": "M-142", "ANO": 2012, "Ha": 22.38, "PLANTAS": "3.778", "VARIEDADE": "AV do B", "UDF": 28}, "geometry": {"type": "Polygon", "coordinates": [[[-48.062931962222, -1.18256473833301], [-48.063173295833, -1.180279753610992], [-48.054328088611, -1.1793207933329881], [-48.0541682725, -1.1806859880559986], [-48.054391875833, -1.1808853141670004], [-48.054477248611, -1.1809731644440085], [-48.0545689125, -1.1810388755560088], [-48.054649861389, -1.1811411333330022], [-48.054652849722, -1.181144548333], [-48.05469463638901, -1.1812756611109938], [-48.054768520556, -1.1813469177779878], [-48.054780324722, -1.1813571666669953], [-48.054851701389, -1.1814635633329957], [-48.054947199444, -1.181388343610992], [-48.055046663056, -1.1812664494440015], [-48.05521844, -1.1812429108330076], [-48.055462253611, -1.1812201447220059], [-48.055712846389, -1.1812133094440014], [-48.055880346389, -1.1811546083330002], [-48.0561179525, -1.181048193332998], [-48.056573190278, -1.180776308056008], [-48.056652776944, -1.1806784108329988], [-48.056658528333, -1.1805161416670096], [-48.056718125, -1.1802695605560058], [-48.056814389722, -1.1801642269439865], [-48.056824904167, -1.1801584130560077], [-48.057036701389, -1.180095584167002], [-48.05716780750001, -1.1801020097219979], [-48.057181703333, -1.1800425336110127], [-48.057182580556, -1.180035407500002], [-48.0571791775, -1.1799287324999894], [-48.057180523889, -1.1799178213889983], [-48.057201208056, -1.179775993056002], [-48.057239381389, -1.1796839027780035], [-48.057313877222, -1.1796533697220066], [-48.0574028425, -1.179666595556], [-48.057389970278, -1.1797394505559908], [-48.0573845875, -1.1798799730560068], [-48.057380262778, -1.1800110325000093], [-48.057385318889, -1.1800225205559918], [-48.057515471944, -1.1801007441670106], [-48.057624865, -1.1801542688889863], [-48.057746218333, -1.1802460413889881], [-48.057847265556, -1.1802964447219981], [-48.057968308056005, -1.1803652230560038], [-48.058091391111, -1.1804228122219989], [-48.058166917778, -1.1804662430559931], [-48.058129087222, -1.1805941433329983], [-48.0580738875, -1.1806710613889946], [-48.057976206944, -1.1807600027780127], [-48.057759661389, -1.1807950130560028], [-48.0575132375, -1.1807715069440103], [-48.057509890278006, -1.18077112583299], [-48.057172554167, -1.1808299244440015], [-48.0569851125, -1.1809807438890048], [-48.056710788889, -1.1810952316669985], [-48.056517047778, -1.1812719038889918], [-48.056516087778, -1.1812825041670063], [-48.056321543889, -1.1814364280560035], [-48.055996826111, -1.1815543947219922], [-48.055765275556, -1.181579774444005], [-48.055448261944, -1.1815757855559932], [-48.055307958056, -1.181608745555988], [-48.055087619444, -1.1817110766670054], [-48.062931962222, -1.18256473833301]]]}}, {"type": "Feature", "properties": {"Parcela": "M-143", "ANO": 2012, "Ha": 11.97, "PLANTAS": "2.148", "VARIEDADE": "AV do B", "UDF": 28}, "geometry": {"type": "Polygon", "coordinates": [[[-48.054330376111, -1.1792762086110025], [-48.063166389444, -1.1802357316669967], [-48.063220944167, -1.1795734091670118], [-48.057884826944, -1.1790248136110129], [-48.057609735556, -1.1790084811109949], [-48.057414344444, -1.1789959672220003], [-48.057233023056, -1.178981234444011], [-48.057038076111, -1.1789579158329984], [-48.056872006944005, -1.178984316110993], [-48.056850512222, -1.1788852044439984], [-48.056945822222, -1.1772503036109998], [-48.056801107222, -1.177261246943992], [-48.056678327222, -1.1772262049999953], [-48.054563886111, -1.1769905763889856], [-48.054330376111, -1.1792762086110025]]]}}, {"type": "Feature", "properties": {"Parcela": "M-144", "ANO": 2012, "Ha": 6.01, "PLANTAS": "1.053", "VARIEDADE": "AV do B", "UDF": 28}, "geometry": {"type": "Polygon", "coordinates": [[[-48.056946442222, -1.1772086480560027], [-48.056659070556, -1.1748621874999912], [-48.056419297778, -1.1748466091670011], [-48.05564422, -1.1747555216670125], [-48.054817426111, -1.1746808513890012], [-48.054555316111, -1.1769529561109942], [-48.056946442222, -1.1772086480560027]]]}}, {"type": "Feature", "properties": {"Parcela": "M-151", "ANO": 2012, "Ha": 22.3, "PLANTAS": "4.167", "VARIEDADE": "AV do B", "UDF": 36}, "geometry": {"type": "Polygon", "coordinates": [[[-48.053775729722, -1.1839353386110014], [-48.053974804722, -1.1816137730560101], [-48.047651371667, -1.1809538566670021], [-48.047489324167, -1.1821366930559893], [-48.043211441111, -1.1816700155559923], [-48.043195775278, -1.1827984413890018], [-48.044149856389, -1.182848826110998], [-48.044199323056, -1.1827664991670055], [-48.044375911111, -1.182754520000006], [-48.044586363611, -1.1827713894439964], [-48.044895028889, -1.1827778158329916], [-48.04522772611101, -1.1827864397219991], [-48.045515893611, -1.1828367377780051], [-48.046067937778, -1.1828697180560073], [-48.046942235, -1.1829126872220024], [-48.047363050556, -1.182951540555993], [-48.047683891389, -1.1829682641669987], [-48.047836112778, -1.1829668083330047], [-48.048036681111, -1.1829877488889946], [-48.048429876944, -1.183049341388985], [-48.0488121425, -1.1830653022219944], [-48.049277736111, -1.183104190833009], [-48.049498652222, -1.1831666022219858], [-48.049540112778, -1.1834604888890028], [-48.053775729722, -1.1839353386110014]]]}}, {"type": "Feature", "properties": {"Parcela": "M-152", "ANO": 2012, "Ha": 15.54, "PLANTAS": "2.958", "VARIEDADE": "AV do B", "UDF": 36}, "geometry": {"type": "MultiPolygon", "coordinates": [[[[-48.05401065, -1.1814194169440055], [-48.053952673056, -1.1813879305560024], [-48.053902520833, -1.1813567774999938], [-48.053822084444, -1.1812987161110058], [-48.053746648333, -1.1812506194440124], [-48.053644084444, -1.1811284855559951], [-48.053490137222, -1.1809100402779964], [-48.053458089444, -1.1808114036110093], [-48.05338803972201, -1.1807194783330017], [-48.0533155775, -1.1806442530559993], [-48.053241218056, -1.1805668647220144], [-48.053150718889, -1.1805155788889878], [-48.053067684167, -1.1804451697220038], [-48.052985225278, -1.1804076730560116], [-48.052806555278, -1.1801964608330042], [-48.052793260278, -1.1800314686109905], [-48.052793969722, -1.1800278508329893], [-48.052797506111, -1.1799250705559994], [-48.052780916944, -1.1798462294440053], [-48.052759541667, -1.179788911388994], [-48.052686326944, -1.1797301711110129], [-48.052580506667, -1.1796862980560052], [-48.05241620861101, -1.179616195277995], [-48.052295734722, -1.1795230841669975], [-48.052118619444, -1.1793305161110077], [-48.05194576, -1.1791514883329917], [-48.051763751944, -1.1790355013889926], [-48.047925397222, -1.1786179161110095], [-48.047655704444, -1.1809046186110028], [-48.0539837375, -1.1815900866670035], [-48.05401065, -1.1814194169440055]]], [[[-48.05304941712399, -1.1791669762511454], [-48.053041271639415, -1.179212351598979], [-48.05311919570258, -1.1792782529173444], [-48.053279091827946, -1.1793646847063988], [-48.053332476014184, -1.1794718552361092], [-48.05334894241362, -1.179541948647621], [-48.053418644536784, -1.1795831137296793], [-48.053500666092056, -1.1796490104575026], [-48.05359909106039, -1.1797272616730152], [-48.053734420331615, -1.1798302173333657], [-48.05377546262065, -1.1798920351148032], [-48.053796035534496, -1.1799703723681787], [-48.05389441549832, -1.1800073814692766], [-48.0539600876812, -1.1801104140923275], [-48.05411588634453, -1.1801968501717566], [-48.054148386996324, -1.179941113248795], [-48.05410735371339, -1.179887543905256], [-48.05412779157328, -1.179842155001638], [-48.05417286380488, -1.1798421051601318], [-48.05422147990934, -1.1793347736962274], [-48.05304941712399, -1.1791669762511454]]]]}}, {"type": "Feature", "properties": {"Parcela": "M-153", "ANO": 2012, "Ha": 13.03, "PLANTAS": "2.540", "VARIEDADE": "AV do B", "UDF": 36}, "geometry": {"type": "MultiPolygon", "coordinates": [[[[-48.05134959356899, -1.1769616960765352], [-48.0514573395656, -1.1770983764181144], [-48.05149437845559, -1.1772468074947344], [-48.05159691872951, -1.1773415514906527], [-48.05164409062002, -1.1775266571462044], [-48.051716082379855, -1.1776507365058726], [-48.05179808589106, -1.1777001366850168], [-48.05194599080835, -1.1777615868726248], [-48.05201131657107, -1.1778483733241853], [-48.052126153820915, -1.1779472278468064], [-48.0521301672986, -1.17801953897379], [-48.05220829658288, -1.1781244785382317], [-48.05227810200676, -1.178260500651454], [-48.05231928350315, -1.178450169152557], [-48.052434156764754, -1.178582017256212], [-48.05257359244614, -1.1786932171284965], [-48.052725356536065, -1.1788373970681634], [-48.0528443003373, -1.1789444952810284], [-48.05302886676677, -1.1791092599646171], [-48.05422546489246, -1.1792316640674791], [-48.05446480621645, -1.1770208240024769], [-48.05134213003736, -1.176657211852546], [-48.05124789243868, -1.1766614399038293], [-48.05122346005317, -1.1768016903234313], [-48.05134959356899, -1.1769616960765352]]], [[[-48.051528183611, -1.1788179727779957], [-48.051280711667, -1.1785496211109945], [-48.050993306667, -1.1782940316669968], [-48.050768265833, -1.1780835502780016], [-48.050765633056, -1.1780802369440027], [-48.050593978333005, -1.177962766667001], [-48.050585801389, -1.1779525788889973], [-48.050329260278, -1.1777599283330054], [-48.050102184167, -1.1776992072219947], [-48.049751412778, -1.1776869936109844], [-48.049548881667, -1.1777201988890023], [-48.049483770556, -1.1776998788890025], [-48.049478022778, -1.1774728033330037], [-48.049469065, -1.1772477738889948], [-48.049551340756686, -1.1764859668556076], [-48.048192105, -1.1763027091670102], [-48.047957070556, -1.1785796072220056], [-48.051679483611, -1.1789618686109944], [-48.051528183611, -1.1788179727779957]]], [[[-48.04960459913955, -1.1764776597635445], [-48.04951102938927, -1.1770963968652575], [-48.04952291169546, -1.1771902099439024], [-48.049573627656976, -1.1771989180542357], [-48.04963147946424, -1.177175655543985], [-48.04966167602121, -1.1771550011437502], [-48.04978967208632, -1.1771084625871508], [-48.049883891889394, -1.1770877376571156], [-48.04992480143758, -1.1770283451245076], [-48.04998720321478, -1.1769494622883627], [-48.0500722462551, -1.1769679276164968], [-48.050174682305375, -1.1769667837101723], [-48.05022755053284, -1.1765996694901406], [-48.05010043991841, -1.1765183560389065], [-48.04960459913955, -1.1764776597635445]]]]}}, {"type": "Feature", "properties": {"Parcela": "M-154", "ANO": 2012, "Ha": 14.33, "PLANTAS": "2.760", "VARIEDADE": "AV do B", "UDF": 36}, "geometry": {"type": "MultiPolygon", "coordinates": [[[[-48.048421797219454, -1.174912784911172], [-48.048387107265036, -1.1750406742186565], [-48.048344224577015, -1.1751706346563766], [-48.04828718867406, -1.175473828406694], [-48.048256750721116, -1.1757439990768301], [-48.04824677790053, -1.1759935260876373], [-48.048252014160134, -1.1761148534789014], [-48.048232542813466, -1.1762677782458957], [-48.05020177760793, -1.1764491636792478], [-48.05021812720503, -1.1764120276545034], [-48.050185275596775, -1.176346076235954], [-48.04997180298363, -1.1759751309935385], [-48.04991436648892, -1.1759092066014598], [-48.049906046070454, -1.175793737439166], [-48.04979939495898, -1.175686624926249], [-48.04967630912185, -1.1755382882034127], [-48.04956145410151, -1.175422936203388], [-48.04940562421944, -1.1753076292403168], [-48.0492169965316, -1.175175861388416], [-48.04898734025249, -1.1749946478352111], [-48.04879870362, -1.1748546313975934], [-48.04844603319807, -1.1745910682266578], [-48.048421797219454, -1.174912784911172]]], [[[-48.054735056111, -1.174650050278009], [-48.049940482778, -1.1740988405559973], [-48.050014855556, -1.1741453280560044], [-48.050015426111, -1.1741961680560056], [-48.049998611389, -1.1742677180559888], [-48.049998639444, -1.1742700491670064], [-48.050005449167, -1.1743624127780017], [-48.050008320278, -1.1744689480559891], [-48.050023510833, -1.1745140463889985], [-48.050076043333, -1.1746302130560091], [-48.050144166389, -1.1747196588890016], [-48.050148374444, -1.1747226469440009], [-48.050252317778, -1.1747891255559886], [-48.0503084925, -1.1748544550000015], [-48.050308698611, -1.1748641777779893], [-48.050270487778, -1.1749999005559937], [-48.050408209444, -1.1750767469439998], [-48.05041016916701, -1.175079232777994], [-48.050537626667, -1.1751605452780065], [-48.050534345278, -1.1752567297220107], [-48.0505577425, -1.1753297711110096], [-48.050561455278, -1.1753322886110036], [-48.05065694750001, -1.1755036797220026], [-48.050667729722, -1.1756257416669837], [-48.050706685833, -1.175765648611005], [-48.050807851111, -1.1759124636110014], [-48.050808026667, -1.1759144813890055], [-48.050861669722, -1.1760646958330074], [-48.050962473889, -1.1762628597220073], [-48.05104302, -1.176341963056002], [-48.051116453333, -1.1764215936110014], [-48.051192323889, -1.1766012747220025], [-48.054514710833, -1.1769366349999948], [-48.054735056111, -1.174650050278009]]]]}}, {"type": "Feature", "properties": {"Parcela": "N-141", "ANO": 2012, "Ha": 4.77, "PLANTAS": "847", "VARIEDADE": "AV do B", "UDF": 29}, "geometry": {"type": "Polygon", "coordinates": [[[-48.055066126111, -1.1723036391669983], [-48.054839265, -1.174614524166993], [-48.056642228333, -1.1747990322220039], [-48.056577686667, -1.1741612288889978], [-48.056676002222, -1.1724979383329905], [-48.055066126111, -1.1723036391669983]]]}}, {"type": "Feature", "properties": {"Parcela": "N-142", "ANO": 2012, "Ha": 4.46, "PLANTAS": "785", "VARIEDADE": "AV do B", "UDF": 29}, "geometry": {"type": "Polygon", "coordinates": [[[-48.055271069722, -1.1700009313889985], [-48.055065861111, -1.1722892041669921], [-48.056680333333, -1.1724586230559992], [-48.0567752325, -1.170124321389003], [-48.055271069722, -1.1700009313889985]]]}}, {"type": "Feature", "properties": {"Parcela": "N-143", "ANO": 2012, "Ha": 4.09, "PLANTAS": "734", "VARIEDADE": "AV do B", "UDF": 29}, "geometry": {"type": "Polygon", "coordinates": [[[-48.056896163056, -1.1678024663890074], [-48.055558761667, -1.167670991110998], [-48.05527067583301, -1.1699937072220108], [-48.0567774875, -1.1701209633329979], [-48.056896163056, -1.1678024663890074]]]}}, {"type": "Feature", "properties": {"Parcela": "N-151", "ANO": 2012, "Ha": 19.28, "PLANTAS": "3.630", "VARIEDADE": "AV do B", "UDF": 37}, "geometry": {"type": "Polygon", "coordinates": [[[-48.054983224722, -1.172317282222003], [-48.046622131667, -1.1714232886109848], [-48.04663623111101, -1.1715638819439957], [-48.046680770278, -1.1716720541670125], [-48.046681024722, -1.1716742074999926], [-48.046780206944, -1.1717762461110066], [-48.046780395278, -1.1717782783330033], [-48.046884066389, -1.1718892022219944], [-48.046887889444, -1.171897106666997], [-48.046999737222, -1.1720176302780034], [-48.0471282225, -1.1721004233329901], [-48.047225136667, -1.172120128056001], [-48.047228812778, -1.1721223844439956], [-48.047302412778, -1.172173184444011], [-48.047365799167, -1.1722324775000004], [-48.047439970556, -1.1722989197220004], [-48.047440511111, -1.1723046388889897], [-48.047530481111, -1.1723738336110068], [-48.047681492778, -1.1724434041669962], [-48.047843926111, -1.172544705832995], [-48.04810441638901, -1.172741209167003], [-48.048226996667, -1.1728336366670042], [-48.048371400833, -1.1729261161110018], [-48.048379861389, -1.172930523610997], [-48.048482483611, -1.1730145569439958], [-48.048585531389, -1.173137250556002], [-48.048719782222, -1.1732323505560005], [-48.048848079722006, -1.173341186667003], [-48.048849945278, -1.1733433663889954], [-48.048973125556, -1.1734175477780042], [-48.049064443056, -1.1734842686110007], [-48.049171938056, -1.1735478813890046], [-48.0492530025, -1.1735981555560102], [-48.049257180000005, -1.1736027127780075], [-48.049341031667, -1.1736351344439997], [-48.049415865833, -1.173696342499996], [-48.049417851111, -1.1736985511110027], [-48.049424058333, -1.1737072549999996], [-48.049499086667, -1.1737550902779983], [-48.049557538333, -1.1738010502779992], [-48.04961334277801, -1.1738282947219918], [-48.049670441111, -1.1738840755560036], [-48.049675905, -1.1738920413890064], [-48.0497644975, -1.1739575424999893], [-48.04987870361101, -1.174073954167003], [-48.054744202222, -1.174614283888994], [-48.054983224722, -1.172317282222003]]]}}, {"type": "Feature", "properties": {"Parcela": "N-152", "ANO": 2012, "Ha": 25.42, "PLANTAS": "4.674", "VARIEDADE": "AV do B", "UDF": 37}, "geometry": {"type": "Polygon", "coordinates": [[[-48.046619104444, -1.1713979008329956], [-48.054975502778, -1.172279756110997], [-48.05523542, -1.170003127221997], [-48.046004601944, -1.169001046667002], [-48.046038333611, -1.1692761438889987], [-48.046027665833, -1.1693499358329924], [-48.04603822222201, -1.1694600297219917], [-48.046055203611, -1.169568600833002], [-48.046099239444, -1.1696472708329895], [-48.046088611111, -1.1697149213890037], [-48.046115608889, -1.169811193611004], [-48.046094060833, -1.1699585113890123], [-48.046089156389, -1.1700413052779932], [-48.046089925, -1.1701663991669857], [-48.046131825556, -1.1702361113889992], [-48.046167147222, -1.1703333636110005], [-48.046212185556, -1.1704052511110148], [-48.046281680833, -1.1704532375000034], [-48.046292798889, -1.170512580555988], [-48.046281925, -1.1706107624999889], [-48.046231865556, -1.1707029633330064], [-48.046272703889, -1.1708064927780009], [-48.046334105, -1.1708749480559977], [-48.046371156944, -1.170957775000006], [-48.046408916667, -1.1710361202779982], [-48.046428605, -1.1711253844440066], [-48.046464436389, -1.1712147994440023], [-48.04653511222201, -1.1713226127780112], [-48.046619104444, -1.1713979008329956]]]}}, {"type": "Feature", "properties": {"Parcela": "N-153", "ANO": 2012, "Ha": 26.91, "PLANTAS": "4.688", "VARIEDADE": "AV do B", "UDF": 37}, "geometry": {"type": "Polygon", "coordinates": [[[-48.055500442222, -1.167678761388994], [-48.045834407222, -1.166642524721996], [-48.045822593889, -1.1667691919439902], [-48.045815002778006, -1.16685460138899], [-48.045829017222, -1.1669378141669855], [-48.045850812778, -1.1671737936109905], [-48.045871903611, -1.167371343055989], [-48.045890500833, -1.1676208538889912], [-48.045899117222, -1.1679372055559982], [-48.045943096944, -1.1683212500000113], [-48.045943260833, -1.1683233238889887], [-48.045971785556, -1.168536400000007], [-48.045966275, -1.1687328644439983], [-48.046016818611, -1.1689594922219981], [-48.055230987222, -1.1699732763890016], [-48.055500442222, -1.167678761388994]]]}}, {"type": "Feature", "properties": {"Parcela": "N-154", "ANO": 2012, "Ha": 14.52, "PLANTAS": "2.736", "VARIEDADE": "AV do B", "UDF": 37}, "geometry": {"type": "Polygon", "coordinates": [[[-48.045828949167, -1.1665937533330142], [-48.055504559722, -1.167630437777997], [-48.055591025278005, -1.166604524444004], [-48.055530873889, -1.166587795556002], [-48.055406006667, -1.1666010080559999], [-48.055196118889, -1.1666087477779867], [-48.055023756389005, -1.1666249408330076], [-48.04574939527801, -1.1651086188890034], [-48.045720105833, -1.1654456652780107], [-48.045728731944, -1.1657345588889865], [-48.045771903056, -1.1663341222219985], [-48.045828949167, -1.1665937533330142]]]}}, {"type": "Feature", "properties": {"Parcela": "K-143", "ANO": 2012, "Ha": 27.13, "PLANTAS": "4.631", "VARIEDADE": "AV do B", "UDF": 26}, "geometry": {"type": "Polygon", "coordinates": [[[-48.052580168056, -1.1955998230559928], [-48.052360539722, -1.1978970250000056], [-48.053847893333, -1.198022946666988], [-48.054281007778, -1.198000787778002], [-48.054760012222, -1.1979305569440004], [-48.054948842222, -1.197951384166992], [-48.055036510278, -1.1979964602780016], [-48.055099391111, -1.1981508361110011], [-48.055011767222, -1.198466370833005], [-48.055160061111, -1.1984894022219943], [-48.0553699675, -1.1985178827779897], [-48.055717233611, -1.1985693261110053], [-48.056011093056, -1.1986048691669944], [-48.056275821944, -1.1986237919440037], [-48.056853701389, -1.198697180556], [-48.05706041500001, -1.1987308202779887], [-48.057215226111, -1.1987539791670059], [-48.0572877675, -1.1987616174999975], [-48.057353455, -1.1987432086109933], [-48.057376986111, -1.1987260913890025], [-48.057542795833, -1.197421867222003], [-48.05778015, -1.1974174833330056], [-48.057928296111, -1.1973807758330055], [-48.057962406389, -1.1975445608329953], [-48.05808692944401, -1.1975665652780092], [-48.058217731944, -1.1976304552779862], [-48.058357444167, -1.1976664230560101], [-48.058427403056, -1.1977016866669943], [-48.058378339167, -1.1980258105560013], [-48.058382127778, -1.1986097386110002], [-48.058441953056, -1.1989726486109933], [-48.058718054722, -1.1990249066669965], [-48.059047895833004, -1.1990603647220142], [-48.059221980278004, -1.1990652813890073], [-48.059224631944, -1.1988392555560086], [-48.059271028611, -1.1987317361110066], [-48.059325711667, -1.1986273391670115], [-48.059350624167, -1.1984178269439987], [-48.05937012888901, -1.1981395138890052], [-48.059424433333, -1.1979240530559996], [-48.059425545833, -1.1979152249999927], [-48.059473585278, -1.1977200586109975], [-48.05948142, -1.1974945433329858], [-48.059492451389, -1.1973467986110014], [-48.059571717778, -1.1972478825000064], [-48.059693097778, -1.197197108056011], [-48.059757521667, -1.1972229372219982], [-48.059862850833, -1.1972491486110046], [-48.059944644722, -1.1972534119439953], [-48.060002938611, -1.1972505394439932], [-48.060081523333, -1.19722508166701], [-48.060082197222, -1.197222133056008], [-48.060130521389006, -1.197090350555995], [-48.060129399722, -1.197084066943999], [-48.060162984722, -1.196916402777996], [-48.060237833056, -1.196870173055999], [-48.060363861389, -1.1968893755560108], [-48.060504552222, -1.1968715416670066], [-48.060586082222, -1.1969101227779964], [-48.060598265278, -1.1970872738889933], [-48.060597836944, -1.1970899938889967], [-48.060580111667, -1.1972487827780016], [-48.060536552778004, -1.1973936694439953], [-48.060505065556, -1.197579936944002], [-48.060504696667, -1.19758225666699], [-48.060458196944, -1.1978449105560058], [-48.0604657425, -1.198017616667007], [-48.060603378611, -1.1980538288889986], [-48.060756655278, -1.1980524324999948], [-48.060907638611, -1.1980475555559886], [-48.061007768056, -1.1980507061109897], [-48.061098572222, -1.1979378374999996], [-48.061205908333, -1.1979046105559914], [-48.061353192222, -1.1978643852780009], [-48.061426236111, -1.1978202680559924], [-48.061437112778, -1.1978290747220035], [-48.061565253333, -1.197919219167007], [-48.061647620833, -1.1980623291670034], [-48.061762628611, -1.1981409755559982], [-48.061764411389, -1.198143574167], [-48.061874163333, -1.1982458333329982], [-48.062000536111, -1.1983216272219865], [-48.062112235833, -1.198419862222004], [-48.062137131667, -1.1985296925000049], [-48.062225736111, -1.1985957244440006], [-48.062310364167, -1.1986672844440065], [-48.062406096667, -1.1987447516669987], [-48.062463230833, -1.1987672175000097], [-48.062463408056, -1.198765043611004], [-48.062535396667, -1.1985943141669986], [-48.062626496389, -1.198532622778007], [-48.062681884722, -1.198416827221997], [-48.062682398889, -1.1984120355560068], [-48.062718808611, -1.1983313877779909], [-48.062719897222, -1.1983215702780012], [-48.062703299722, -1.1981945780559975], [-48.062736249167, -1.1980339177779997], [-48.062809421389, -1.197890225833001], [-48.062966214444, -1.1978057433330063], [-48.06308051305601, -1.1977548486110023], [-48.063252326944, -1.1976814224999937], [-48.063343304722, -1.1976634147219962], [-48.0634648375, -1.1976767736109917], [-48.063536415833, -1.1976820580560044], [-48.063600797778, -1.1977200233330059], [-48.063715555, -1.1977829383330112], [-48.063842146389, -1.197819151111001], [-48.064001753333, -1.1979084786109988], [-48.064052351667, -1.1979992713890033], [-48.064124808333, -1.1980588211109924], [-48.064239131111, -1.1968456883330003], [-48.052580168056, -1.1955998230559928]]]}}, {"type": "Feature", "properties": {"Parcela": "K-144", "ANO": 2012, "Ha": 23.73, "PLANTAS": "4.164", "VARIEDADE": "AV do B", "UDF": 26}, "geometry": {"type": "Polygon", "coordinates": [[[-48.052584127778, -1.1955477716669984], [-48.064227954444, -1.1968156572220103], [-48.064241815278, -1.1962286286109967], [-48.0642156, -1.1962086991669973], [-48.064156567222, -1.1961904294439965], [-48.064060543611, -1.1961601922219898], [-48.064008966111, -1.1961336424999949], [-48.063913984167, -1.1960787741669867], [-48.063909821667, -1.1960728280559982], [-48.063832729722, -1.1960109380560004], [-48.063831233889, -1.1956617950000137], [-48.063803981667, -1.1956510977780022], [-48.063793024167, -1.1955780777780072], [-48.063791047778, -1.1954519613890013], [-48.063844552778, -1.1951889736109875], [-48.063766872222, -1.1952005572219973], [-48.0636996525, -1.1951915163889946], [-48.063645116944, -1.195209613055996], [-48.063581331944, -1.1951778441670007], [-48.063453565556, -1.1951848063890027], [-48.063320699722, -1.1951721086110105], [-48.063218685, -1.1951504894440055], [-48.063126469444, -1.1951364330559953], [-48.063052712778, -1.1951446480560024], [-48.062959383333, -1.195146416944007], [-48.062855837222, -1.1951156161110035], [-48.062826424167, -1.1950763097220007], [-48.062772334722, -1.195091173332993], [-48.062646842778, -1.1951018769439856], [-48.062515615833, -1.195097953333003], [-48.062380952222, -1.1950885199999872], [-48.062167317222, -1.1950459233330004], [-48.062074700556, -1.195046093610986], [-48.061975163056, -1.1950260183329984], [-48.061877965556, -1.1950150830559956], [-48.061766813056, -1.1950160322219934], [-48.061622701667, -1.1949917761110016], [-48.061506726944, -1.1949781288890007], [-48.061285556667, -1.1949586850000071], [-48.061098935278, -1.1949411325000086], [-48.061014291389, -1.1949728402779976], [-48.0609363225, -1.1949358452780103], [-48.060822842778, -1.194916822778004], [-48.060732935, -1.1948769894439917], [-48.060557398056, -1.194863655832997], [-48.060466411111, -1.1949100191670052], [-48.060380001111, -1.194885183611001], [-48.0602634125, -1.1948645713889965], [-48.060210810556, -1.194871058056012], [-48.060079256111, -1.1948935838889991], [-48.060001575, -1.1948458472219978], [-48.059920438611, -1.1947882680560045], [-48.05979891916701, -1.1947636036109897], [-48.059644547222, -1.1947314486110043], [-48.0593963225, -1.1947302558330084], [-48.059171088333, -1.1946926069440067], [-48.058961138889, -1.194685514721997], [-48.058773110833, -1.1946825499999973], [-48.058657170556, -1.1947060197219987], [-48.058547119444, -1.1946811388890062], [-48.058466035556, -1.1946408063889986], [-48.058330319722, -1.1946008830560078], [-48.058195307222, -1.1946226761109886], [-48.058067030556, -1.1946449155559944], [-48.057929339167, -1.1946400794440055], [-48.05784263000001, -1.1945980133330032], [-48.057729280556, -1.194607729721998], [-48.057593061944, -1.1946699172219992], [-48.057522945833, -1.1946381811110034], [-48.05744574138901, -1.194590733056005], [-48.057442761667, -1.194586787777992], [-48.057368397778, -1.194548420555998], [-48.05727186194401, -1.1945296061110093], [-48.057097982222, -1.1945217702780009], [-48.056840423889, -1.1944903658330035], [-48.056707513611, -1.1944426266670078], [-48.0565899775, -1.194418830832996], [-48.056478780556, -1.1944130080560116], [-48.056395428056, -1.1944397011110035], [-48.056231391111, -1.1944136599999846], [-48.056096996944, -1.194379567499991], [-48.056017030278, -1.194381221389007], [-48.055955415, -1.194481264722014], [-48.055874209722, -1.1945012913889959], [-48.055762780556, -1.1944313033330025], [-48.05565566, -1.1944236236110009], [-48.055621309444, -1.1943638469440052], [-48.055507212222, -1.1943723561109953], [-48.055437144722, -1.1943686350000118], [-48.0553623075, -1.1943482897219946], [-48.055276320833, -1.1942868258329915], [-48.055321131944, -1.1937135283329998], [-48.055321955556, -1.193707134166995], [-48.0553196275, -1.193554052778008], [-48.052827282778, -1.1932664400000137], [-48.052584127778, -1.1955477716669984]]]}}, {"type": "Feature", "properties": {"Parcela": "K-152", "ANO": 2012, "Ha": 14.06, "PLANTAS": "2.503", "VARIEDADE": "AV do B", "UDF": 34}, "geometry": {"type": "Polygon", "coordinates": [[[-48.052244925556, -1.1979094597220057], [-48.047217890833004, -1.1973745077780134], [-48.047099886944004, -1.1974433208330078], [-48.047095083333, -1.1975421805560116], [-48.047118631111, -1.1976602636109999], [-48.047102233611, -1.1978101394440126], [-48.0468681175, -1.2008463530560052], [-48.052138536944, -1.198883569166997], [-48.052244925556, -1.1979094597220057]]]}}, {"type": "Feature", "properties": {"Parcela": "K-153", "ANO": 2012, "Ha": 14.61, "PLANTAS": "2.480", "VARIEDADE": "AV do B", "UDF": 34}, "geometry": {"type": "Polygon", "coordinates": [[[-48.047217449722, -1.1973396350000092], [-48.052250292778, -1.1978784430559961], [-48.052484532778, -1.1955839116670048], [-48.047352252778, -1.1950431680560043], [-48.047299278333, -1.195103081667014], [-48.04732182944401, -1.1952139672219988], [-48.047334902222, -1.1952963858330048], [-48.047313827222, -1.1953536794440014], [-48.0472828425, -1.1955374641670151], [-48.047274993611, -1.195736090832992], [-48.047281381111, -1.1958815733329948], [-48.04723626500001, -1.1962006880560094], [-48.047187042778, -1.1966011008330013], [-48.047162731111, -1.1968588177779973], [-48.047171592222, -1.196984267221999], [-48.047178823611006, -1.197167338888988], [-48.047217449722, -1.1973396350000092]]]}}, {"type": "Feature", "properties": {"Parcela": "K-154", "ANO": 2012, "Ha": 14.95, "PLANTAS": "2.568", "VARIEDADE": "AV do B", "UDF": 34}, "geometry": {"type": "Polygon", "coordinates": [[[-48.047394945, -1.195022954722003], [-48.052493625833, -1.1955531563890078], [-48.052731285, -1.1932680694439943], [-48.047461332222, -1.1926988358330102], [-48.047375307778, -1.1937823172219972], [-48.047342196389, -1.1941027247220015], [-48.047335305833, -1.194353115832996], [-48.0473434325, -1.1945362063889908], [-48.047332171111, -1.1947472111109994], [-48.047307238611, -1.1949059336109962], [-48.047346420556, -1.1949834988890087], [-48.047394945, -1.195022954722003]]]}}, {"type": "Feature", "properties": {"Parcela": "L-133", "ANO": 2020, "Ha": 4.07, "PLANTAS": "773", "VARIEDADE": "AV do B", "UDF": 18}, "geometry": {"type": "Polygon", "coordinates": [[[-48.065010818889, -1.1875255499999866], [-48.062495513333, -1.1872682505559973], [-48.062355343611, -1.188623628332994], [-48.062497508333, -1.1886482041670003], [-48.062612953333, -1.188618397221999], [-48.062733989444, -1.1885646302780046], [-48.062794913056, -1.1886046424999976], [-48.062838518056, -1.1886460583329974], [-48.062849203333, -1.188646837777986], [-48.062941627778, -1.1886592050000133], [-48.063045904167, -1.1886430241669887], [-48.06397748, -1.1887687811110126], [-48.064063154444, -1.1886687161109966], [-48.064153894722, -1.188695978888999], [-48.064231050278, -1.1886805052780063], [-48.064315000556, -1.1886864013890013], [-48.064441191111, -1.188665196111009], [-48.064529063611, -1.1886895888889901], [-48.0645907475, -1.1887271766669885], [-48.064655742222, -1.1887499258329954], [-48.064782785278, -1.1887358775000127], [-48.064852618056, -1.188767884721987], [-48.064943538889, -1.18874814500001], [-48.065010818889, -1.1875255499999866]]]}}, {"type": "Feature", "properties": {"Parcela": "", "ANO": null, "Ha": 1.79, "PLANTAS": "", "VARIEDADE": "", "UDF": null}, "geometry": {"type": "Polygon", "coordinates": [[[-48.05695808490942, -1.166516635129148], [-48.05688004044839, -1.16651868443939], [-48.05598256160027, -1.1665726918777233], [-48.05575237484727, -1.1666200774543602], [-48.055709521283724, -1.1666868971543487], [-48.055628259589355, -1.1673232917858858], [-48.05560320424931, -1.167610049576902], [-48.05561494946013, -1.1676453870358825], [-48.05679161548928, -1.1677481853731935], [-48.05689306335637, -1.167736290816515], [-48.05695808490942, -1.166516635129148]]]}}]}