{"type": "FeatureCollection", "features": [{"type": "Feature", "properties": {"Parcela": "J-151", "ANO": 2012, "Ha": 17.88, "PLANTAS": "3.314", "VARIEDADE": "AV do B", "UDF": 33}, "geometry": {"type": "Polygon", "coordinates": [[[-48.050979880833, -1.20955333611101], [-48.04440771250001, -1.2088046788889992], [-48.044368265556, -1.2089646502780056], [-48.044366865556, -1.2089799100000012], [-48.044313246389, -1.2091452861110024], [-48.044318583333, -1.2091576627779912], [-48.044318170556, -1.2091624402779941], [-48.044288931667, -1.2092899902780008], [-48.044336474722, -1.2094942380559968], [-48.044336199444, -1.2094973727780023], [-48.044337527778, -1.2095100352780046], [-48.04435374500001, -1.2096518547219888], [-48.044356124444, -1.2096519863890007], [-48.044442591944, -1.2097164505559914], [-48.044451386667, -1.209722858055998], [-48.044462835278, -1.2097264827779968], [-48.044576642222, -1.2098001197220036], [-48.044578603889, -1.2098031105559914], [-48.044697661111, -1.209915776943988], [-48.044745278056, -1.2100345449999936], [-48.044749321389006, -1.2100375086110005], [-48.044757396667, -1.210043426388995], [-48.044781918889, -1.2101639997220102], [-48.044787169722, -1.2101721044439964], [-48.044806160556, -1.2103246427779968], [-48.044804846667, -1.2103319280560063], [-48.044809923611, -1.2103395983329945], [-48.044845456111, -1.2104357280560079], [-48.044848301944, -1.2104430044439936], [-48.044853231944, -1.2104503936110096], [-48.044906504167, -1.210571529722006], [-48.044907151111, -1.2105783680559972], [-48.044983896389, -1.2106698358330084], [-48.045018661389, -1.2107898883329902], [-48.045017699444, -1.2108766077780158], [-48.0446164975, -1.2108369211110053], [-48.044627073056, -1.2107243119440012], [-48.044558213889, -1.210534327221989], [-48.044540514722, -1.210408937499998], [-48.044449221944, -1.2102935169440088], [-48.044283348611, -1.210189026666986], [-48.044128603333, -1.2100250844439904], [-48.044015128056, -1.210007379166998], [-48.043848794722, -1.2099731033329897], [-48.0437712, -1.2098828744439891], [-48.043765005, -1.2098778305559952], [-48.043708928056, -1.2097714069440064], [-48.043663578333, -1.2095908941669917], [-48.0435926925, -1.2093469847219955], [-48.043519159167, -1.2092705205560095], [-48.043448511389, -1.2091886633330011], [-48.04336077527801, -1.2090913241669876], [-48.043266194722, -1.2089455097220028], [-48.043078956111, -1.2089248197220017], [-48.042974683889, -1.2089519752780042], [-48.042804341944, -1.2088568152779875], [-48.042666874167, -1.208788496944004], [-48.042552555833005, -1.208711538610995], [-48.042469205278, -1.2086434955560146], [-48.042188337778, -1.2085643277779992], [-48.04201569611101, -1.2085080219440072], [-48.042008332778, -1.2086894397220054], [-48.042006303889, -1.2086978744439922], [-48.041890446667, -1.2087954208330027], [-48.04175876000001, -1.208845430556003], [-48.0415557475, -1.208932712221991], [-48.041398063611, -1.2105022372219973], [-48.0417801875, -1.210542981943994], [-48.042108375000005, -1.2105683652780088], [-48.042118298889, -1.2105689780559976], [-48.042429245, -1.210601475556001], [-48.042696956111, -1.2106197625000004], [-48.042959538889, -1.2106465030560078], [-48.04329244, -1.2106985363890113], [-48.043575691944, -1.210737455556008], [-48.044311743056, -1.210822375833001], [-48.045018464167, -1.2108906627779978], [-48.045474716944, -1.2109262391669968], [-48.045783466111, -1.2109444677780101], [-48.046105105556, -1.210989383332998], [-48.046113822222, -1.2109842516669977], [-48.046122688056, -1.210982898055988], [-48.046438407222, -1.2110000583330112], [-48.046742540556, -1.2110357141670087], [-48.047022852778, -1.21107282666699], [-48.047239661111, -1.2111197475], [-48.0474054675, -1.2111598649999882], [-48.047424377222, -1.2107510550000076], [-48.0474338275, -1.2106784883330055], [-48.04743371638901, -1.2106750224999996], [-48.047433436667, -1.2106663355560046], [-48.047422286111, -1.210537372222007], [-48.0474288025, -1.2103266136110054], [-48.047462335833, -1.2102306000000005], [-48.047534312222005, -1.2101984141669928], [-48.04762034805601, -1.2101500150000029], [-48.047724070833, -1.2101382752780152], [-48.047725955, -1.210138429999998], [-48.047852273611, -1.2101379100000056], [-48.048015589722, -1.2101705769439914], [-48.048017746111, -1.2101729155559982], [-48.0481146825, -1.2101711480560005], [-48.048212609722, -1.2101803844440053], [-48.048222524722, -1.2101876361109989], [-48.048310722222, -1.210198320277991], [-48.048421115000004, -1.2102170566669959], [-48.0484248275, -1.210217322777998], [-48.048537973611, -1.2102318802780094], [-48.048655911111, -1.2102531474999927], [-48.048812756944, -1.2102801097220086], [-48.048816403056, -1.210280341389001], [-48.048821692778, -1.2102848747219936], [-48.048974927222, -1.2103134024999913], [-48.048983976944, -1.2103139769440014], [-48.048991055, -1.210316502777989], [-48.049149571111, -1.2103155391669895], [-48.049154087222, -1.210324113889], [-48.049364581111, -1.2103681408329932], [-48.049456852778, -1.2103626936109975], [-48.049571325556, -1.2103913702779916], [-48.049675385278, -1.2104277344439989], [-48.049735164444, -1.210496305833006], [-48.049724026389, -1.2106180105559923], [-48.049728083611, -1.210627461389005], [-48.049753666389, -1.2107818750000077], [-48.049743198056, -1.2109392513889938], [-48.049747016389, -1.2109477497220094], [-48.049733249722, -1.2110862163889868], [-48.049733405556, -1.2110940808329993], [-48.049683897778, -1.2112308438889992], [-48.04970739305601, -1.2113291891669993], [-48.050422617222, -1.2113610408330042], [-48.050604154167, -1.2113711361110155], [-48.050727655556, -1.2113263963889975], [-48.050729340278, -1.2113265183330015], [-48.050789927778, -1.211254719721998], [-48.050979880833, -1.20955333611101]]]}}, {"type": "Feature", "properties": {"Parcela": "I-142", "ANO": 2012, "Ha": 10.83, "PLANTAS": "1.933", "VARIEDADE": "AV do B", "UDF": 24}, "geometry": {"type": "Polygon", "coordinates": [[[-48.059012646389, -1.2174965000000115], [-48.053730624167, -1.2169141361110052], [-48.053648568056005, -1.2175016186110001], [-48.053606018611, -1.2179883944439884], [-48.053570741944, -1.218499929166997], [-48.053759040278, -1.2185596633330105], [-48.053963530833, -1.2185648336109982], [-48.054201005, -1.2186023658329987], [-48.054456858889, -1.218613809721997], [-48.05482664611101, -1.218647370832989], [-48.055146085278, -1.2186980608330034], [-48.055432621111, -1.2187284311109985], [-48.055694445278, -1.2187396783330107], [-48.055878306667005, -1.218782041944], [-48.056050361944, -1.2187987227780028], [-48.056058333056, -1.2187996847220086], [-48.056244991944, -1.2188262488889954], [-48.056441339167, -1.2188499302780005], [-48.056844520833, -1.2189188372220081], [-48.057161234722, -1.218969210555998], [-48.057525700833, -1.2190536705560024], [-48.057899990278, -1.2190952038890044], [-48.058176669722, -1.2191370941669988], [-48.058359483889, -1.2191796561110027], [-48.0586382275, -1.2192221497220026], [-48.058830528333, -1.2192499261109928], [-48.059012646389, -1.2174965000000115]]]}}, {"type": "Feature", "properties": {"Parcela": "I-143", "ANO": 2012, "Ha": 2.9, "PLANTAS": "539", "VARIEDADE": "AV do B", "UDF": 24}, "geometry": {"type": "Polygon", "coordinates": [[[-48.053727917778005, -1.2168989549999971], [-48.059021099722, -1.2174634258330008], [-48.059068744722, -1.216933187222007], [-48.058943215, -1.216942470555991], [-48.058812889444, -1.2169388630559992], [-48.058696442778, -1.216920573333007], [-48.058595621944, -1.216896579722001], [-48.058495562778, -1.2169168000000006], [-48.0583907975, -1.216947617221986], [-48.058366736389, -1.2169604861109988], [-48.058293833056, -1.2169517547219941], [-48.05820038805601, -1.216873513056004], [-48.058189410833, -1.2168722333329987], [-48.058067742778, -1.2168659899999896], [-48.057920721944, -1.2168567769439897], [-48.057917071389, -1.2168563527780107], [-48.057758145833, -1.216857605832987], [-48.0575735575, -1.2168238513889984], [-48.057558981111, -1.216822071666998], [-48.057352993611005, -1.2168207350000015], [-48.057126214722, -1.2167931441669915], [-48.056873476944, -1.2167746097220014], [-48.056638850278, -1.2167628888890036], [-48.056427936389, -1.2167420449999995], [-48.056258200556, -1.2167535716670044], [-48.056135332778, -1.216700825277999], [-48.055929225556, -1.216681836111007], [-48.055742535833, -1.2166533088890144], [-48.055649396389, -1.2166934586110008], [-48.055527946111, -1.2166719350000086], [-48.055359662222, -1.21664460638899], [-48.055183958611, -1.2166241688890094], [-48.055039945556, -1.2166306108329987], [-48.0548865475, -1.2166011677779884], [-48.054785201667, -1.2166318033329937], [-48.054648784722, -1.2166126433330013], [-48.054509765833, -1.2165659327779894], [-48.054369671389, -1.216596087499998], [-48.054282839722, -1.2165669344439964], [-48.054272069722, -1.2165657211110015], [-48.054181983056, -1.216558980000006], [-48.054074966389, -1.2165718866669897], [-48.054070884722, -1.2165752091669855], [-48.053949354167, -1.216589989721991], [-48.0538333575, -1.2165321561109967], [-48.053747081389, -1.2165246069440134], [-48.053697925278, -1.2166982888889855], [-48.053727917778005, -1.2168989549999971]]]}}, {"type": "Feature", "properties": {"Parcela": "G-141", "ANO": 2012, "Ha": 16.45, "PLANTAS": "3.619", "VARIEDADE": "AV do B", "UDF": 22}, "geometry": {"type": "MultiPolygon", "coordinates": [[[[-48.052385649712924, -1.2391120415651118], [-48.052287015, -1.239107077499993], [-48.05224106640482, -1.2390074514718], [-48.052284945833, -1.2391071355559848], [-48.0523854792436, -1.2391123593017166], [-48.052385649712924, -1.2391120415651118]]], [[[-48.052228794444, -1.2389808433330054], [-48.05224106640482, -1.2390074514718], [-48.05222977, -1.2389817886110126], [-48.052242487288346, -1.2389276074186675], [-48.052228794444, -1.2389808433330054]]], [[[-48.052273795, -1.2387473411110006], [-48.0522741675, -1.2387418580559981], [-48.052322586111, -1.2386281019440024], [-48.05232277333301, -1.2386253383329995], [-48.05236752444401, -1.2384877138890096], [-48.052367871667, -1.2384398286110017], [-48.052389868056, -1.2383526152779898], [-48.0524018725, -1.2382677661109935], [-48.052444946944, -1.2381939830559991], [-48.052474230833, -1.2381261052780055], [-48.052532084722, -1.238045091388993], [-48.052558184444, -1.2379651833329983], [-48.050093916944, -1.2377044994439963], [-48.050039152778, -1.238895446944009], [-48.050595589722, -1.2389722288890048], [-48.051035243056, -1.239000797778003], [-48.051857328056, -1.2390407461110027], [-48.051932194444, -1.2389966161110109], [-48.052063719167, -1.238990136388999], [-48.052257470278, -1.238863773333009], [-48.052242487288346, -1.2389276074186675], [-48.052257475, -1.2388693372220028], [-48.052258168333, -1.238858437221998], [-48.052273795, -1.2387473411110006]]]]}}, {"type": "Feature", "properties": {"Parcela": "G-142", "ANO": 2012, "Ha": 14.09, "PLANTAS": "2.371", "VARIEDADE": "AV do B", "UDF": 22}, "geometry": {"type": "Polygon", "coordinates": [[[-48.0482983925, -1.2351339372219925], [-48.048042731389, -1.2374420788889973], [-48.05258213500001, -1.2379292958330002], [-48.05268251777801, -1.2378442041669957], [-48.052742919167, -1.2377957191670024], [-48.052781407778, -1.2376915933330066], [-48.052809464722, -1.237601641111007], [-48.0528178575, -1.2375281233329947], [-48.052863152778, -1.237426900832995], [-48.0529466025, -1.2373245688890036], [-48.053000595556, -1.2372378205559997], [-48.053061730556, -1.2371680158329983], [-48.053165283611, -1.2370384708329993], [-48.053233151944, -1.2369690266670073], [-48.053240826944, -1.2369602811109952], [-48.053316664722, -1.2368590972220053], [-48.053314428889, -1.2368522938890067], [-48.053297008056, -1.2367069461110027], [-48.053297479444, -1.2367036552780084], [-48.053285748056, -1.2365268016669948], [-48.053330111667, -1.2362340930559848], [-48.053324020278, -1.2360629733330146], [-48.053293523611, -1.2359720202780013], [-48.053212661944, -1.2359517172220045], [-48.053136089167, -1.235832111667001], [-48.0531081925, -1.2356791563889935], [-48.0482983925, -1.2351339372219925]]]}}, {"type": "Feature", "properties": {"Parcela": "G-143", "ANO": 2012, "Ha": 12.93, "PLANTAS": "2.220", "VARIEDADE": "AV do B", "UDF": 22}, "geometry": {"type": "Polygon", "coordinates": [[[-48.048317307778, -1.2350994366669914], [-48.053059896111, -1.2356124125000116], [-48.053078321667, -1.2352569300000031], [-48.053111029444, -1.2350658891670028], [-48.053044656944, -1.2349171024999859], [-48.053058944444, -1.2347193702780024], [-48.053035506667, -1.2344823950000123], [-48.052997059444, -1.2343572169440062], [-48.052974029167, -1.2341624122219985], [-48.052903039444, -1.2339740783329942], [-48.052889494167, -1.233733749444013], [-48.052906966667, -1.2335544438889992], [-48.052865329167, -1.2332774405559925], [-48.048574064167, -1.2328241697219933], [-48.048317307778, -1.2350994366669914]]]}}, {"type": "Feature", "properties": {"Parcela": "G-144", "ANO": 2012, "Ha": 11.48, "PLANTAS": "2.108", "VARIEDADE": "AV do B", "UDF": 22}, "geometry": {"type": "Polygon", "coordinates": [[[-48.048577583333, -1.2327879408329931], [-48.052830863611, -1.2332357072219968], [-48.052813483333, -1.2329398513889962], [-48.052814073333, -1.2329362930559984], [-48.052786461111, -1.2327539233329998], [-48.052819167222, -1.2323395361110066], [-48.052742566667, -1.2322059991670056], [-48.052741448889, -1.232010221666997], [-48.052740815556, -1.2317804766670022], [-48.052688441111, -1.2315280136109925], [-48.052606908333, -1.2313831711109917], [-48.052458153611, -1.231127842222005], [-48.05233909, -1.230984959443999], [-48.052305948333, -1.2308511711110044], [-48.048801672222, -1.2304866824999947], [-48.048577583333, -1.2327879408329931]]]}}, {"type": "Feature", "properties": {"Parcela": "H-141", "ANO": 2012, "Ha": 5.94, "PLANTAS": "1.109", "VARIEDADE": "AV do B", "UDF": 23}, "geometry": {"type": "MultiPolygon", "coordinates": [[[[-48.04968706104657, -1.2305353318531371], [-48.049687105556, -1.2305354419439978], [-48.0500333, -1.2305740491670012], [-48.05003227322955, -1.2305713316238722], [-48.04968706104657, -1.2305353318531371]]], [[[-48.049504790556, -1.2301805280560028], [-48.049438475, -1.2300312341669914], [-48.049327736667, -1.2298281583329882], [-48.049246096111, -1.2296688616670024], [-48.049150411111, -1.2294705455560038], [-48.049036853333, -1.2293474497219978], [-48.048942851111, -1.2292122416670017], [-48.048921725, -1.229342302777998], [-48.048885560278, -1.2297114191670049], [-48.048820783056, -1.2304449936109974], [-48.04968706104657, -1.2305353318531371], [-48.0496064725, -1.2303360019439973], [-48.049504790556, -1.2301805280560028]]], [[[-48.052205894444, -1.230687394722008], [-48.052074129167, -1.2305685638890078], [-48.052017959167, -1.230431361943989], [-48.051958801667, -1.2303506016669996], [-48.051900036389, -1.2302355611110039], [-48.051828085, -1.2301296802779922], [-48.051768729444, -1.2299839619440123], [-48.051745566111, -1.2297971483329926], [-48.051722812222, -1.2295988630560037], [-48.05168761000001, -1.229431722777994], [-48.051550098056, -1.2292560469440006], [-48.051389614722005, -1.2291235575000001], [-48.051388239444, -1.229117084999995], [-48.051335476667, -1.2290662041669957], [-48.051295051389, -1.2289270111110022], [-48.051205651667, -1.228834883611007], [-48.05116109277801, -1.2287552913889983], [-48.051071165278, -1.2287015386109992], [-48.050970205833, -1.2286539461109958], [-48.050899150833, -1.228603060277998], [-48.0507635075, -1.228532751943996], [-48.050696805, -1.2285009099999986], [-48.050618635278, -1.2285267380560003], [-48.050550157222, -1.2284744916670105], [-48.050482372222, -1.2284484497219958], [-48.050351593333, -1.2284640944439995], [-48.050230620556, -1.2284641811109955], [-48.050085574722, -1.2284440161110057], [-48.049955257222, -1.2284283794439919], [-48.049949731944, -1.2284278011109961], [-48.049882416667, -1.2284064627780036], [-48.049798449722, -1.2284444438890016], [-48.049796285278, -1.2284502808330038], [-48.049740463889, -1.228504276666994], [-48.0497279, -1.2284968852780012], [-48.049720333889, -1.2285021633329896], [-48.04971826638901, -1.2285080086109967], [-48.04969044, -1.2286183816669975], [-48.049689606944, -1.2287475291669963], [-48.049760723056, -1.228848187221987], [-48.049760464722, -1.2288536524999987], [-48.049746976389, -1.2289213138889892], [-48.049746650833, -1.2289284369440097], [-48.049677888889, -1.2289296116670054], [-48.049591493889, -1.2288808347220042], [-48.049582953611, -1.2288764802779912], [-48.049526062222, -1.2288715080560098], [-48.049474970278, -1.2289626869439858], [-48.049445594444, -1.2290713758330114], [-48.049400875278, -1.2291598819440015], [-48.049397757778, -1.229167851388999], [-48.049397785833, -1.2291694966670088], [-48.04937614, -1.2292976730559941], [-48.049377893333, -1.2293056502779904], [-48.049401474167, -1.2293878283329975], [-48.04940313694401, -1.229394040000011], [-48.049404723056, -1.2293956925000016], [-48.049455273333, -1.2294733052780056], [-48.049652855, -1.2296783922219916], [-48.049693971667, -1.2298741886109983], [-48.049761435833005, -1.2300362297219922], [-48.049882643056, -1.2301917633330017], [-48.049883719722, -1.2301980058329918], [-48.049919884722, -1.2302738741669865], [-48.05003227322955, -1.2305713316238722], [-48.052262720833, -1.2308039286110055], [-48.052205894444, -1.230687394722008]]]]}}, {"type": "Feature", "properties": {"Parcela": "H-151", "ANO": 2012, "Ha": 21.38, "PLANTAS": "4.147", "VARIEDADE": "AV dO B", "UDF": 31}, "geometry": {"type": "Polygon", "coordinates": [[[-48.04820165385234, -1.228093706150374], [-48.04095031614475, -1.2273131184519375], [-48.0409329475, -1.2274022952780026], [-48.040894670556, -1.2274864186109986], [-48.040891272222, -1.2275693394440046], [-48.040848050278, -1.227821958888996], [-48.040762152778, -1.2279027491670005], [-48.040685521667, -1.2280253744439955], [-48.040703373611, -1.2281469711110027], [-48.040764156389, -1.2283235177780047], [-48.04078675694401, -1.2284720772220004], [-48.040875183889, -1.2286092324999964], [-48.040979506944, -1.2287016472219954], [-48.041050853056, -1.2288386597219936], [-48.041096269444, -1.2289362158329868], [-48.041169235278, -1.2289979822220052], [-48.041241598611, -1.2290428391669976], [-48.041320060278, -1.2291173933330157], [-48.041432414167, -1.2291850455559958], [-48.041498725833, -1.2291963033330053], [-48.041510926389, -1.229199990555998], [-48.041581059722, -1.2292548480559924], [-48.041601972222, -1.2293231724999982], [-48.041707080556, -1.2293690808330056], [-48.041767955278, -1.2294590449999854], [-48.041904843889, -1.2295882513889917], [-48.042066773056, -1.2297111699999939], [-48.048733696667, -1.230428222222002], [-48.048831211389, -1.2294210980560092], [-48.048879985833, -1.229058545277994], [-48.04874444525743, -1.2288756550163902], [-48.04860691693403, -1.2286469183882287], [-48.04842841296455, -1.2284182287814063], [-48.04820165385234, -1.228093706150374]]]}}, {"type": "Feature", "properties": {"Parcela": "H-152", "ANO": 2012, "Ha": 19.37, "PLANTAS": "3.499", "VARIEDADE": "AV do B", "UDF": 31}, "geometry": {"type": "Polygon", "coordinates": [[[-48.040971069444, -1.2272443150000092], [-48.04814080972201, -1.2280260538889962], [-48.048132284444, -1.2279598516670034], [-48.048040778611, -1.2278206727780034], [-48.04794667, -1.2276403358330046], [-48.047791805278, -1.2273750366669944], [-48.047694927222, -1.2271906155560004], [-48.047556011667, -1.2269154588890039], [-48.047454802778, -1.2266160147220044], [-48.047416008889, -1.2264709874999942], [-48.047416266111, -1.2264680152780134], [-48.047425965833, -1.2264563444440142], [-48.047411857778, -1.226208492499998], [-48.04741241, -1.226059305833009], [-48.047416883333, -1.225859340555997], [-48.047433210833, -1.2256624716670046], [-48.041050780556, -1.2249198538890096], [-48.041004863889, -1.2251176038890066], [-48.040917095, -1.22523748277799], [-48.040873322222, -1.225367140000013], [-48.040806365278, -1.2254639844440107], [-48.040683529722, -1.2256147191670135], [-48.040609130278, -1.2257294863889885], [-48.040614976944, -1.2258446041670006], [-48.040700066667, -1.2260381222219963], [-48.040701336389, -1.2262597583330102], [-48.040797350278, -1.2265010683330086], [-48.040868682222, -1.2267541722219995], [-48.040903119444, -1.2269779791670146], [-48.040971069444, -1.2272443150000092]]]}}, {"type": "Feature", "properties": {"Parcela": "H-154", "ANO": 2012, "Ha": 33.11, "PLANTAS": "6.110", "VARIEDADE": "AV do B", "UDF": 31}, "geometry": {"type": "Polygon", "coordinates": [[[-48.044155384444, -1.223275674167], [-48.049065857222, -1.2238084402780014], [-48.049283777778, -1.2211177894439869], [-48.040324721111, -1.2201341297220063], [-48.039980521944, -1.2234141550000004], [-48.044081154722, -1.223866509443999], [-48.044155384444, -1.223275674167]]]}}, {"type": "Feature", "properties": {"Parcela": "I-152", "ANO": 2012, "Ha": 18.03, "PLANTAS": "3.266", "VARIEDADE": "AV do B", "UDF": 32}, "geometry": {"type": "Polygon", "coordinates": [[[-48.045095310278, -1.2182523091670017], [-48.049385160833, -1.218722601666989], [-48.049575303611, -1.2164836866669941], [-48.046919763056, -1.2161839999999984], [-48.047029250278, -1.2163974088890044], [-48.047116248611, -1.2164930727780046], [-48.047149756111, -1.216593744722006], [-48.047147649167, -1.2166738219440054], [-48.047143549444, -1.216675564999993], [-48.047132573611, -1.216741489999996], [-48.047207224444, -1.2168558636109965], [-48.047269356667, -1.2169784908329986], [-48.047281239167, -1.2170568472219987], [-48.047393817222, -1.217173300555988], [-48.04743499555601, -1.2172252583330019], [-48.047426829722, -1.2172909822219888], [-48.047405130556, -1.2173384427780023], [-48.047407803611, -1.2174351077780066], [-48.047355290833, -1.2174991041669978], [-48.047298348889, -1.217520198889003], [-48.047289383056, -1.2175192411110054], [-48.047286394167, -1.2175189225000114], [-48.047228685278, -1.2174809663889892], [-48.047202063889, -1.2174050611109897], [-48.0472003825, -1.2174001477779883], [-48.047140804167, -1.2172983900000052], [-48.047139157778, -1.2172965586110056], [-48.047094744167, -1.2171689805560006], [-48.047091218889, -1.2171633344439945], [-48.047027558056, -1.2170795186109997], [-48.047022343611, -1.2170753072220006], [-48.047015454167, -1.2170708949999982], [-48.046940869167, -1.2169497366670057], [-48.04693882583301, -1.2169456422220093], [-48.046861476111, -1.2168661838889978], [-48.046855640556, -1.2168595263890063], [-48.046742465, -1.2167359113889928], [-48.0466457275, -1.2166035216670077], [-48.046527492778, -1.2165178216670112], [-48.04646931472201, -1.2164361383329905], [-48.046422583611, -1.2163791686109953], [-48.046328385, -1.2163305458329947], [-48.046249151667, -1.2162529780559992], [-48.046197748611, -1.2161536924999963], [-48.046196464722, -1.2161431777780145], [-48.046169666111005, -1.2160552233329984], [-48.040831763889, -1.2155204733330023], [-48.040609798611, -1.2177741191669995], [-48.042736870833, -1.2179857294440015], [-48.042720879444, -1.2177809044440027], [-48.042710840278, -1.2175567113889911], [-48.042711239444, -1.2175413872220027], [-48.042717289722, -1.2173752383329925], [-48.042721057222, -1.2172444036110066], [-48.042719604167, -1.217237520832995], [-48.042618926944, -1.2171070822220043], [-48.042616422778, -1.2170894272219976], [-48.042609813889, -1.2170782499999924], [-48.042593910556, -1.2168889197220065], [-48.042579369722, -1.2167156230560092], [-48.042580100278, -1.2167116138889982], [-48.042578932222, -1.2165485227780117], [-48.042597325556, -1.2163986063890004], [-48.04259332, -1.2162059227780024], [-48.042713066667, -1.2161517511109952], [-48.042915494167, -1.2161113830559978], [-48.043095215556, -1.2161400052779985], [-48.043337715833, -1.2161816808329993], [-48.043598032778, -1.216212211389015], [-48.043815391667, -1.2162576261109876], [-48.043971883333, -1.216263858610998], [-48.044130288333, -1.2162663708329948], [-48.044299103333, -1.2163220916669986], [-48.044385508056, -1.2163048269439896], [-48.044596460278, -1.216306460000001], [-48.044846119722, -1.216286566111002], [-48.04498642638901, -1.2163027738890004], [-48.045141609167, -1.2163066438889967], [-48.045236335, -1.2163151816669904], [-48.045252133056, -1.2165578669439854], [-48.045213771944, -1.2169378005559945], [-48.045191985556, -1.217156728610996], [-48.045172979167, -1.2173469613890004], [-48.045145180556, -1.2174518877779974], [-48.045129793333, -1.2175994791670062], [-48.045122038611, -1.2177648080560162], [-48.045104880833, -1.2179111138890018], [-48.045107265833, -1.217922010000007], [-48.04509532, -1.2181011480559956], [-48.045102843333, -1.2181967116670036], [-48.045095310278, -1.2182523091670017]]]}}, {"type": "Feature", "properties": {"Parcela": "I-161", "ANO": 2012, "Ha": 16.72, "PLANTAS": "3.036", "VARIEDADE": "AV do B", "UDF": 41}, "geometry": {"type": "Polygon", "coordinates": [[[-48.031954292222, -1.2192482583329953], [-48.040284716667, -1.220094571944005], [-48.040551215, -1.2178068952779946], [-48.035601489722, -1.2172833172219957], [-48.0355605375, -1.2178456036110026], [-48.035575485, -1.2180931844440046], [-48.035593688333, -1.2183871958329935], [-48.035575515, -1.2186292944440034], [-48.035571193333, -1.2187913044440104], [-48.035504443333, -1.2188277530559983], [-48.035445574444, -1.2188473424999913], [-48.035361321111, -1.2188538655560002], [-48.035290601389, -1.2188569177780026], [-48.035130618056, -1.2188571822220018], [-48.034990956667, -1.2188742175000007], [-48.034847945278, -1.2188485086109957], [-48.034764451111, -1.218824436111001], [-48.034634631667004, -1.2188019780559856], [-48.034566263611, -1.2188019808329955], [-48.034478519722, -1.218813245278003], [-48.034398086111, -1.2188132488889931], [-48.034331302778, -1.218811379721994], [-48.034266610278, -1.2188299038890105], [-48.03416909, -1.2188163597219985], [-48.033991109167, -1.2188079511109855], [-48.033884653611004, -1.2188167797220097], [-48.033715351944, -1.2188102836110015], [-48.033592240278, -1.2187869836109941], [-48.033473556111, -1.2187977175000029], [-48.033371750833, -1.2187839191669994], [-48.033367456111, -1.2187800952780088], [-48.033274839167, -1.218779602221993], [-48.0331562425, -1.2187656786109988], [-48.032987480833, -1.2187628550000058], [-48.032873598611, -1.2187745455559988], [-48.032715864722, -1.2187743469440007], [-48.032580773611, -1.2187625408330016], [-48.032486949167, -1.2187599494439936], [-48.032431445278, -1.218769979167005], [-48.032386557778, -1.2187779713890008], [-48.032322108333, -1.2187673994440005], [-48.032253916389, -1.2187435741669999], [-48.032217744444, -1.2187611677780028], [-48.032125200556, -1.2187721030560126], [-48.032061044167, -1.2187731377779996], [-48.0319832125, -1.2187557319439997], [-48.031919658611, -1.2187679780559975], [-48.031896711667, -1.218814700000001], [-48.031865202222, -1.2188571525000085], [-48.031864736667, -1.2188625802780142], [-48.031826854444, -1.2189376230559983], [-48.031781408056, -1.21898136194399], [-48.031756198333, -1.2190238755559972], [-48.031877145278, -1.2191685177780003], [-48.031954292222, -1.2192482583329953]]]}}, {"type": "Feature", "properties": {"Parcela": "H-143", "ANO": 2012, "Ha": 19.4, "PLANTAS": "3.642", "VARIEDADE": "AV do B", "UDF": 23}, "geometry": {"type": "MultiPolygon", "coordinates": [[[[-48.056199275278, -1.2253198516670072], [-48.056194396389, -1.2253248147220108], [-48.056071606389, -1.2254867000000131], [-48.056069601667, -1.2254933702779933], [-48.056066606944, -1.2255033375000053], [-48.0560646175, -1.2255099552779953], [-48.05601747, -1.2256046477780036], [-48.056015033889, -1.2256076194440042], [-48.055958705833, -1.225733476110995], [-48.055957027778, -1.2257393833329866], [-48.055842547778, -1.2258370255559934], [-48.055835388889, -1.2258419497219974], [-48.055692338056, -1.2258732502780005], [-48.055689209167, -1.2258742861109886], [-48.055531717222, -1.2258999197220073], [-48.055527543611, -1.2258994066669977], [-48.055411444167, -1.2258878627779943], [-48.055305198333, -1.225885846944005], [-48.05520589, -1.2258997461109933], [-48.055070500278, -1.2259136438890061], [-48.054966483333, -1.225971571110989], [-48.054808018889, -1.226003351667001], [-48.054743295833, -1.2260122002780063], [-48.054638187222, -1.2260513177779973], [-48.054545769167, -1.2260926869439996], [-48.054472073889, -1.2261337591669887], [-48.054402325833, -1.2261505433329938], [-48.054314707778, -1.2261805616669974], [-48.054222416389, -1.2262293047220039], [-48.054158834167, -1.2262534497219988], [-48.054090052222, -1.2263121116670102], [-48.054102933056, -1.226442458333006], [-48.054122746667, -1.226582727221986], [-48.054059476944, -1.2266434888889999], [-48.054062481389, -1.226711551944], [-48.054068370278, -1.2267822455560033], [-48.054066744444, -1.2268387050000034], [-48.054066680278, -1.226966306111004], [-48.054142481944, -1.2270546519439929], [-48.05411471250001, -1.2271352608329984], [-48.054111756944, -1.2271349125000073], [-48.054069026111, -1.2272137597219965], [-48.05406779500001, -1.2272722002780103], [-48.054024650556, -1.227456679167001], [-48.054027138056, -1.2275763563889963], [-48.054065072778, -1.2276439108330042], [-48.054117659444, -1.2276894949999997], [-48.054171629167, -1.2276716616670151], [-48.054221905833, -1.227683849166996], [-48.054269484167, -1.2277164430559948], [-48.054362295278, -1.2277308705559942], [-48.054439307778, -1.2277307908330013], [-48.054529656111, -1.2277243730559928], [-48.054639884722, -1.2277250825000074], [-48.054719074722, -1.2277170991670006], [-48.05477229, -1.2277364722219972], [-48.054808729167, -1.227769634721997], [-48.054881851389, -1.2277530858330012], [-48.054972628333, -1.2277676219440004], [-48.055037031111, -1.2277517211110096], [-48.055122720556, -1.2277609469439992], [-48.055192550278, -1.2278127883330032], [-48.055314741389, -1.2278327411109973], [-48.055368113333, -1.2278029891669882], [-48.055459531944, -1.2278129219439988], [-48.055543233056, -1.227821883055987], [-48.055595216667, -1.2278331722219986], [-48.055646450833, -1.227853765556003], [-48.055728218889, -1.2278623302780138], [-48.055805223611, -1.2278530505559955], [-48.055908946111, -1.2278881591670066], [-48.056002903889, -1.2279107458329948], [-48.056060331667, -1.227875346389005], [-48.056130576944, -1.2279062063889978], [-48.056274024722, -1.2279084841670023], [-48.056347126667, -1.227934931943988], [-48.056485811667, -1.2279476197219987], [-48.056630341389, -1.2279547974999956], [-48.056764941389, -1.2279654305560033], [-48.056875029444, -1.2279808338890028], [-48.057162407778, -1.2280285244440021], [-48.057290683889, -1.2280300572220053], [-48.057396647500006, -1.2280444922220013], [-48.057491970833, -1.22805137972201], [-48.057609166667, -1.228057779999992], [-48.057717479167, -1.2280789080560022], [-48.057808183333, -1.2280602858330034], [-48.058109633611, -1.225515921111], [-48.056334762817556, -1.2251821638165987], [-48.056199275278, -1.2253198516670072]]], [[[-48.04916362694401, -1.224062081943992], [-48.049149551667, -1.224169460832992], [-48.049109834444, -1.2242673647220037], [-48.049063425278, -1.2246461041669983], [-48.0488848675, -1.2247794113889985], [-48.048763756389, -1.2248963677779938], [-48.048724264722, -1.2249315747219998], [-48.048860723056, -1.2249675897219992], [-48.049088174444, -1.2249913758329936], [-48.049275792778, -1.2250146447220078], [-48.049392590278, -1.2250291283330015], [-48.049489156111, -1.2250466219439942], [-48.049590160833, -1.2250969697220093], [-48.049731724444, -1.225141138055991], [-48.049735726667, -1.2251416133330093], [-48.0498313275, -1.2251565669439919], [-48.049958610556, -1.225177201666992], [-48.0499977825, -1.2252025319439868], [-48.050059090278005, -1.225220060556008], [-48.050054359444, -1.225408818055993], [-48.050077006667, -1.225560814721999], [-48.050070030556, -1.2255757186110108], [-48.050064274444004, -1.2255840019439939], [-48.050065241111, -1.225715353332993], [-48.050013118333, -1.2259381058330028], [-48.049920045556, -1.2263022208329926], [-48.049845925278, -1.2265023852779993], [-48.049830926944, -1.2266376047220044], [-48.049806740278, -1.2267297252779985], [-48.049744545278, -1.2268083450000087], [-48.049765051389, -1.2269594363890044], [-48.049763249444, -1.227078363889], [-48.049942876667, -1.227109207221998], [-48.050034608056, -1.2271198830559966], [-48.050110145833, -1.2271168841670077], [-48.050140282778, -1.2271627830559935], [-48.050195141944, -1.2272013241670088], [-48.05031457777801, -1.2272167055559995], [-48.050444352778, -1.2272559361110051], [-48.050519042222, -1.2272867666670018], [-48.050559728056, -1.2273117463889962], [-48.050562930833, -1.2273194805560088], [-48.050621435556, -1.227353573056013], [-48.050625805556, -1.2273577088890018], [-48.050730107222, -1.2273217650000003], [-48.050743050556, -1.227191891110993], [-48.050740001111, -1.2271837197219986], [-48.050735540833, -1.2271792947219988], [-48.050745561944, -1.2270454327780018], [-48.050740984444, -1.227040786388996], [-48.050751536389, -1.2269296947220014], [-48.050753911389, -1.226812943332994], [-48.050693961944, -1.226700167777999], [-48.050728159722006, -1.226569298055994], [-48.050720146944, -1.2264605630559902], [-48.050718736944, -1.226457831110996], [-48.050715770278, -1.2263191633330088], [-48.050733736944, -1.2262114508330042], [-48.050712422222, -1.2260204961110015], [-48.050730583333, -1.2258779013890058], [-48.050727440556, -1.225871420556011], [-48.050759279444, -1.225711605000003], [-48.050761267222, -1.2255924822220046], [-48.050804844722, -1.2254910822219938], [-48.050921356111, -1.225444889722], [-48.051003530833, -1.2253644136109973], [-48.051104502222, -1.2253288988890085], [-48.051187993056, -1.2253387286109985], [-48.051280998611, -1.225331048056013], [-48.051404087222, -1.2253267933330063], [-48.051542649167, -1.2253134138890074], [-48.051547259167, -1.2253327724999898], [-48.051631221667, -1.225355917222008], [-48.051698973889, -1.2253424538889923], [-48.051829453611, -1.225386821667], [-48.051836290556004, -1.2253875644440106], [-48.051845409722, -1.225388558611], [-48.051938369167, -1.2253805813889989], [-48.051942925, -1.2253811088890074], [-48.052043505556, -1.2253634533329953], [-48.0521337, -1.2253792394439897], [-48.052246926667, -1.2254019558330023], [-48.052347111389, -1.2254121655559984], [-48.0524439175, -1.225403164166996], [-48.052510815, -1.2253929905559917], [-48.05255993250001, -1.224791493611001], [-48.052660533889004, -1.224739719443988], [-48.052664042222, -1.2247330416670072], [-48.052778453611, -1.2246755280560015], [-48.052856857778, -1.2246588038890052], [-48.052933984167, -1.2246667825000097], [-48.053004955278, -1.2246641408330097], [-48.053069090556, -1.2246875236109915], [-48.053142268333, -1.2247313883329898], [-48.053090606667, -1.2247841330559968], [-48.053032126389, -1.2248487805560093], [-48.053030303056, -1.2248554772220013], [-48.05302909, -1.2248599311109971], [-48.053027040278, -1.2248985808329966], [-48.05305913000001, -1.2249500775000026], [-48.053074465, -1.225050436943992], [-48.053078659444, -1.2250574041669955], [-48.0531049375, -1.2251221583330065], [-48.053198786944, -1.225218642778002], [-48.053238604167, -1.2252560738889995], [-48.053285903889, -1.2253038883330014], [-48.053284327222, -1.2253115566669932], [-48.053387760833, -1.2253814133329914], [-48.053418326667, -1.2254556147220064], [-48.053453075278, -1.2255302094440113], [-48.053450365833, -1.225533506944002], [-48.053463939722, -1.2255876575000062], [-48.053498038333, -1.2256705522220077], [-48.05355441500001, -1.2257334991670064], [-48.053636678056, -1.2257799944440078], [-48.053703701667, -1.225737417777985], [-48.053705024444, -1.2257314205559933], [-48.053770153889, -1.225753761944009], [-48.053851586667, -1.2257329355560027], [-48.053906846389, -1.225714723888985], [-48.054012711944, -1.2257214441670028], [-48.054125982778, -1.2256827797220136], [-48.054203943333, -1.2256366352779926], [-48.054309497778, -1.2256175552779953], [-48.054383070556, -1.2255539300000027], [-48.0543919075, -1.2255505849999948], [-48.054489269444, -1.2255177105559947], [-48.054590900556, -1.225491667777997], [-48.054684278611006, -1.2254382880560102], [-48.05476521500001, -1.2253911413889882], [-48.054845643056, -1.2253329341669985], [-48.054933164167, -1.2252791555560012], [-48.054996361667, -1.2252746961109882], [-48.055064920833004, -1.2252759972220044], [-48.055159924722, -1.225262813333004], [-48.055209591944, -1.2252537111109962], [-48.055292810278, -1.2252385219440038], [-48.055388540278, -1.225235401388991], [-48.055485006667, -1.225224403888988], [-48.055561468611, -1.2251752563889977], [-48.055693828889, -1.2250684063890152], [-48.05569485470001, -1.2250655320801134], [-48.049163995833, -1.2238751974999984], [-48.04916362694401, -1.224062081943992]]], [[[-48.055694892222, -1.2250654269439905], [-48.05569485470001, -1.2250655320801134], [-48.056334653889, -1.2251821433330048], [-48.056334762817556, -1.2251821638165987], [-48.056336214722, -1.2251806883329996], [-48.055694892222, -1.2250654269439905]]]]}}, {"type": "Feature", "properties": {"Parcela": "H-144", "ANO": 2012, "Ha": 13.65, "PLANTAS": "2.382", "VARIEDADE": "AV do B", "UDF": 23}, "geometry": {"type": "Polygon", "coordinates": [[[-48.049332928889, -1.2211289152779943], [-48.049134896111, -1.2238075383330027], [-48.050301410278, -1.2239966947219938], [-48.051232339444, -1.2241669174999998], [-48.051539604444, -1.22421504611101], [-48.05204559583301, -1.2243123161109988], [-48.052680389722, -1.2244393522220125], [-48.053049539722, -1.224490588055999], [-48.053186121389, -1.2229118255560032], [-48.053274396389, -1.2215840347220013], [-48.049332928889, -1.2211289152779943]]]}}, {"type": "Feature", "properties": {"Parcela": "H-153", "ANO": 2013, "Ha": 3.63, "PLANTAS": "647", "VARIEDADE": "AV do B", "UDF": 31}, "geometry": {"type": "Polygon", "coordinates": [[[-48.04906393333301, -1.223867823889001], [-48.044271892778, -1.2233288850000057], [-48.044195202778, -1.2234172975000004], [-48.044092565278, -1.2239013572220037], [-48.048998803333, -1.2244787013890044], [-48.04906393333301, -1.223867823889001]]]}}, {"type": "Feature", "properties": {"Parcela": "H-161", "ANO": 2012, "Ha": 14.89, "PLANTAS": "2.703", "VARIEDADE": "AV do B", "UDF": 39}, "geometry": {"type": "Polygon", "coordinates": [[[-48.040255281667, -1.2271862600000087], [-48.034693981944, -1.226598003611009], [-48.034497193611, -1.2288997630559957], [-48.036816861111, -1.229154026389001], [-48.03697215694401, -1.229117819999998], [-48.037053568889, -1.2290572719440043], [-48.037115009722, -1.2290316463889994], [-48.037203251944, -1.229014236111013], [-48.037294630556, -1.2290460169439987], [-48.037404101667, -1.22907917972201], [-48.037519479167, -1.229088408889002], [-48.037646484722, -1.2290802602780102], [-48.037732078056, -1.2290626569440017], [-48.037824735, -1.2289935377780083], [-48.037880891111, -1.2289457661110053], [-48.037982516944, -1.2289390958329938], [-48.038113783889, -1.2289681033329893], [-48.038194419167, -1.2289597311110063], [-48.038244085, -1.2289774222220002], [-48.03835288861101, -1.2289846336109864], [-48.038399686944, -1.2289730344439869], [-48.038454551944, -1.2289974713890013], [-48.038500033056, -1.2290254063889956], [-48.038503960278, -1.229027922500009], [-48.038592598333, -1.2290394147219943], [-48.0386616375, -1.2290515311109926], [-48.038725360278, -1.2290566241669902], [-48.038810702778, -1.2290502158330083], [-48.038924545833, -1.2290216980559923], [-48.038981391389, -1.229050653333001], [-48.039038633611, -1.229046389444009], [-48.039118741667, -1.2290213277780069], [-48.039172644167, -1.2290384083330093], [-48.039317226667, -1.2291567888890014], [-48.039410828889, -1.2292113091670038], [-48.039518688056, -1.2293048772220103], [-48.039518482222, -1.229306979722009], [-48.03955396944401, -1.229391286111012], [-48.039628279167, -1.2293989994440095], [-48.03970316, -1.2293692708329957], [-48.03976425, -1.229323088055988], [-48.039807789167, -1.2293157277780087], [-48.039859748333, -1.2293091108330023], [-48.0399214225, -1.2293096666669947], [-48.039982840278, -1.2293123427779948], [-48.040050741111, -1.2293026091670027], [-48.040070941111, -1.2291612066670055], [-48.0399718975, -1.22908340277799], [-48.039955810278, -1.2289473583330073], [-48.040017782222, -1.2288748644440028], [-48.040099690833, -1.228826455278004], [-48.040160905833, -1.228741810277993], [-48.040146716944, -1.2286122947219948], [-48.040096994722, -1.2285252155559951], [-48.040093110278, -1.2285198283329979], [-48.040137548333, -1.2281819450000029], [-48.0400962125, -1.2280877652780038], [-48.040072003056, -1.228005500555994], [-48.040078625833, -1.2278118461109995], [-48.040087392222, -1.227680612499996], [-48.040149390278, -1.2275507708330127], [-48.040205246667, -1.227506487778005], [-48.040255281667, -1.2271862600000087]]]}}, {"type": "Feature", "properties": {"Parcela": "H-162", "ANO": 2012, "Ha": 14.82, "PLANTAS": "2.607", "VARIEDADE": "AV do B", "UDF": 39}, "geometry": {"type": "Polygon", "coordinates": [[[-48.034694826111, -1.2265308694440078], [-48.040240071667, -1.2271639822220055], [-48.040223958889, -1.2271064699999952], [-48.040226188889, -1.2270433674999865], [-48.040235802222, -1.2269650544439985], [-48.040274733056, -1.2269367691669995], [-48.040302681944, -1.2268575730560074], [-48.040313745556, -1.2267020716670087], [-48.040327752222, -1.2265834938889895], [-48.040289660556, -1.226546512221989], [-48.040243525, -1.2264988088889999], [-48.040190533611, -1.22645633333301], [-48.040130713889, -1.2264192966669933], [-48.040046021944, -1.2263516305560003], [-48.039984017778, -1.226349265555994], [-48.039895018611, -1.2262630163890043], [-48.039838745556, -1.2262291072220015], [-48.039853663056, -1.2261794705560072], [-48.039859467778, -1.226089332499985], [-48.039859769167, -1.2260846627779902], [-48.039886835556, -1.2259646880560016], [-48.039843602778, -1.2258831386110092], [-48.039859727222, -1.225819867221993], [-48.039898993889, -1.2257816183330108], [-48.039906859167, -1.2257744208329997], [-48.039951288611, -1.225669805278007], [-48.040020847778, -1.2256211824999927], [-48.040038153333, -1.2254962133330125], [-48.039994350278, -1.2254447691670134], [-48.039915621389, -1.2254034913889982], [-48.039874564167, -1.225329350278005], [-48.039830751667, -1.2252909474999938], [-48.039817534722, -1.2252235641669964], [-48.039837758611, -1.2251285686110003], [-48.039840970833, -1.225115945556004], [-48.039867429167, -1.225006013055999], [-48.039921891944, -1.2249023069440004], [-48.039955689444, -1.2248170402779974], [-48.035445072778, -1.2243037880559955], [-48.035304572778, -1.2242995494439928], [-48.035133306667, -1.2242813736110094], [-48.03499831666701, -1.2243130041669954], [-48.034906734722, -1.2244003355559934], [-48.034694826111, -1.2265308694440078]]]}}, {"type": "Feature", "properties": {"Parcela": "H-164", "ANO": 2018, "Ha": 31.2, "PLANTAS": "5.938", "VARIEDADE": "AV do B", "UDF": 40}, "geometry": {"type": "Polygon", "coordinates": [[[-48.039933537222, -1.2233780183329956], [-48.040284038333, -1.2201344497220021], [-48.031920933611, -1.2192659227780023], [-48.03209639555601, -1.219628548333001], [-48.032246348056, -1.2199385174999888], [-48.032405700833, -1.2202059752779983], [-48.03252106, -1.2204502519439973], [-48.032700662778, -1.2206732219439964], [-48.032781870556, -1.2208231797219966], [-48.032861597778, -1.2209759358329924], [-48.032958040833, -1.2211275947220024], [-48.033051625278, -1.2212822600000017], [-48.03312340750001, -1.2213651652779993], [-48.033129065556, -1.221437844999991], [-48.033063784444, -1.221486381110996], [-48.032963427778, -1.221526631944], [-48.032863557222, -1.2215363113890079], [-48.032772183333, -1.2215825875000026], [-48.032705075556, -1.2216178699999918], [-48.032621948611, -1.2216037161110047], [-48.032563103056, -1.2216034952780048], [-48.032436032778, -1.2216349216669944], [-48.032254522222, -1.2216962927780068], [-48.032138838333, -1.2217224352780047], [-48.032122469722005, -1.2217296088889908], [-48.032051676111, -1.221750956944006], [-48.0319715925, -1.221732187777999], [-48.031874560278, -1.221605552777998], [-48.031767081944, -1.2214864550000144], [-48.031671205278, -1.2214018413889982], [-48.031590225556, -1.2214581130559978], [-48.03151836, -1.2215399458329919], [-48.031484488611, -1.2216429586109931], [-48.031413550278, -1.22174113027801], [-48.03135599361101, -1.2217807872220028], [-48.031314363611, -1.221835220555998], [-48.031290683333, -1.2219380952779928], [-48.031328362778, -1.222004388610998], [-48.031333174167, -1.2220012777779967], [-48.031343590833, -1.222001081667014], [-48.03144493972201, -1.2219961383330011], [-48.031479350278, -1.222070374443993], [-48.031474342778, -1.222140846943992], [-48.031438788056, -1.222166982777998], [-48.031399338611, -1.2222411086110103], [-48.031411976111, -1.2223684491670022], [-48.039933537222, -1.2233780183329956]]]}}, {"type": "Feature", "properties": {"Parcela": "I-141", "ANO": 2012, "Ha": 4.76, "PLANTAS": "731", "VARIEDADE": "AV do B", "UDF": 24}, "geometry": {"type": "Polygon", "coordinates": [[[-48.049322519722, -1.2210834838890043], [-48.05327593500001, -1.2215420300000008], [-48.053353831944, -1.2205861722219986], [-48.053351974722, -1.2205465072220054], [-48.053268636389, -1.220568998888991], [-48.053091805, -1.2205712041670103], [-48.052984575833, -1.2205466283329929], [-48.052845599167, -1.2205181749999927], [-48.052841661389, -1.2205176969440046], [-48.05277096, -1.2204731836110068], [-48.052705290556, -1.2205065008329987], [-48.05270594, -1.220568970278006], [-48.052658652778, -1.2205671680560026], [-48.052587665833, -1.220513881111006], [-48.052531929722, -1.2204692063890004], [-48.052448983611, -1.220458202222005], [-48.052382926944, -1.2204563827780002], [-48.052265603889, -1.220429038055997], [-48.0521859575, -1.2204253613889973], [-48.052122946111005, -1.22045615], [-48.052064683056, -1.2204157180560042], [-48.052013224167, -1.2204358972219926], [-48.051939922222, -1.2204819394440019], [-48.051885505556, -1.2204853036110057], [-48.051781600833, -1.2204524922219997], [-48.051739036667, -1.2204035086110112], [-48.051655167222, -1.2204076508329937], [-48.0515853825, -1.2204134141670009], [-48.051500891667004, -1.220383245556004], [-48.051383675556, -1.2203483872220142], [-48.051297436389, -1.220325106667], [-48.051225057778, -1.220312486111002], [-48.051133756944, -1.22027255416701], [-48.051051018056, -1.2202839538889998], [-48.050943424167, -1.220272000000006], [-48.050858193333, -1.2203212072220126], [-48.050781079722, -1.2202991402780092], [-48.05077492083301, -1.2202917155559996], [-48.050725323056, -1.2202564633329978], [-48.050674263611, -1.220225341111009], [-48.050626721389, -1.2202469541669954], [-48.050538206111, -1.2202656533329972], [-48.050528469167, -1.2202644877779887], [-48.050464779167, -1.2202346472220031], [-48.050463754444, -1.2202299822219886], [-48.050378897222, -1.2202040811110049], [-48.050278905278006, -1.2201691022220058], [-48.050195756667, -1.220176740833002], [-48.050036693889, -1.22014389277801], [-48.049952301667, -1.2201470008330002], [-48.049899640278, -1.2202095405560085], [-48.049761608056, -1.2201351447220037], [-48.049619048889, -1.22009845055599], [-48.049531336111, -1.2200652533329992], [-48.0494204175, -1.220040235278002], [-48.049322519722, -1.2210834838890043]]]}}, {"type": "Feature", "properties": {"Parcela": "I-151", "ANO": 2012, "Ha": 22.05, "PLANTAS": "3.934", "VARIEDADE": "AV do B", "UDF": 32}, "geometry": {"type": "Polygon", "coordinates": [[[-48.040331111111, -1.2201106725000133], [-48.049227825278, -1.2210850750000097], [-48.049379530833, -1.2187793655560146], [-48.04510771722201, -1.2183099919440004], [-48.045107546389, -1.2185414808330024], [-48.045090273056, -1.2186898916670048], [-48.045082267778, -1.2188797163890028], [-48.045050726111, -1.2190385830559909], [-48.045042556944, -1.2191968105560085], [-48.045027701667, -1.2193552149999964], [-48.044979709722, -1.219431287778009], [-48.044916514167, -1.2194398266669944], [-48.044729935556, -1.2194615225000034], [-48.044577304167, -1.219465657221994], [-48.044480386667, -1.219482779166991], [-48.044458744167, -1.219631385555997], [-48.044423756944, -1.2198191816669908], [-48.044400035833, -1.219909527777995], [-48.044281595833, -1.2199308399999933], [-48.044198320833, -1.2199016600000032], [-48.044109759444, -1.2198906872220023], [-48.044018915833, -1.219882186944004], [-48.043909855278, -1.219850631943999], [-48.043818466944, -1.2198058591669971], [-48.043743660833, -1.219748527777989], [-48.043651068056, -1.219749743610995], [-48.043567876667005, -1.219765633889007], [-48.043469688333005, -1.2197657555560089], [-48.043362859722, -1.2197295166669897], [-48.043276415556, -1.2196729475000003], [-48.0434204375, -1.2181440352779958], [-48.040580612222, -1.2178511927780036], [-48.040331111111, -1.2201106725000133]]]}}, {"type": "Feature", "properties": {"Parcela": "I-153", "ANO": 2012, "Ha": 21.58, "PLANTAS": "3.973", "VARIEDADE": "AV do B", "UDF": 32}, "geometry": {"type": "MultiPolygon", "coordinates": [[[[-48.04630246078962, -1.2160594895888333], [-48.046800228056, -1.2161128897220015], [-48.046800029802476, -1.2161123178281181], [-48.04630246078962, -1.2160594895888333]]], [[[-48.049554773333, -1.216422071111006], [-48.049740759167, -1.2141716905559938], [-48.049695701389, -1.2141366052779885], [-48.046633432778, -1.2137671977779996], [-48.046598396944, -1.2138023647220038], [-48.046521473056, -1.2139589474999906], [-48.046527905, -1.2139763211109946], [-48.046502218889, -1.2142275586110012], [-48.046492935556, -1.2144353786109887], [-48.046499471667, -1.2144434305560026], [-48.046554470556, -1.2145806316669967], [-48.046632378056, -1.214755625278], [-48.046641933333, -1.214763346388995], [-48.046720484444, -1.2148822808329949], [-48.046723783333, -1.2148823811109988], [-48.046732182222, -1.2150383097220028], [-48.046713008889, -1.2151239086110068], [-48.046663498611, -1.2152370433330055], [-48.046651626667, -1.215413076388991], [-48.046651196944, -1.215419461111003], [-48.046657518611, -1.2156412266670031], [-48.046660126111, -1.2156473952779985], [-48.046703011667, -1.215762813610997], [-48.046739644444, -1.2159381266670073], [-48.046800029802476, -1.2161123178281181], [-48.046800706944005, -1.216112389722009], [-48.049554773333, -1.216422071111006]]], [[[-48.046072440278, -1.2159821705559988], [-48.04609069, -1.2159391588890072], [-48.046113308889005, -1.215890388333016], [-48.046106381389, -1.215837661389004], [-48.046111047222, -1.2157571397220093], [-48.046089689444, -1.2156972608329986], [-48.046090050556, -1.2156935466670102], [-48.046087411944, -1.2156444583330106], [-48.046087593611006, -1.2156425647219986], [-48.046080529722, -1.21555917416701], [-48.04606225527801, -1.2155108400000052], [-48.046039373889, -1.2153976808329885], [-48.046018048333, -1.215270050000004], [-48.045967118056, -1.2151650158330052], [-48.045948503611, -1.2150926461109903], [-48.045948621389, -1.2150908327780037], [-48.045938231389, -1.2150242611109974], [-48.0458856375, -1.2149754699999995], [-48.04584437083301, -1.2148183263890127], [-48.045844639722, -1.2146791858329942], [-48.045813753056, -1.2145117380559953], [-48.045780775833, -1.2143443522219992], [-48.045755351667, -1.2141298272219918], [-48.045660224167, -1.2140141644439997], [-48.045661242222, -1.2140092919439947], [-48.045665428611, -1.2139310608330085], [-48.0456403325, -1.2138062258329998], [-48.045621249722, -1.2137071297219988], [-48.0456078025, -1.2135963733329902], [-48.045549261944, -1.213584401389005], [-48.045529822778, -1.2137217327780119], [-48.045531493056004, -1.213724574444006], [-48.045481974444, -1.2139610952779913], [-48.045485865278, -1.213974047778], [-48.045471538611004, -1.214119919443993], [-48.045469795, -1.2141293538890006], [-48.045474657778, -1.2141366794440054], [-48.0454448125, -1.2143064013890146], [-48.045475329722, -1.2143675472220024], [-48.045477133611, -1.2144498974999969], [-48.045479090278, -1.214449973611002], [-48.045456541667, -1.2145541027780005], [-48.045425406944, -1.2146041569439978], [-48.045349688333, -1.2146397119439936], [-48.045305018056, -1.2146440988889975], [-48.045232434167, -1.2146454094439976], [-48.045148600000005, -1.2146203041669956], [-48.045038368611, -1.2145407572220002], [-48.045036702222, -1.2145386266670108], [-48.044973837778, -1.2144092597220026], [-48.044864151667, -1.2141628652780099], [-48.04484467, -1.2141044369439922], [-48.044809766667, -1.214077922778007], [-48.044762917222, -1.214050674444005], [-48.044708111111, -1.2140313900000061], [-48.044642773333, -1.2140243880559918], [-48.044595913333, -1.2140117919440054], [-48.04454370194401, -1.213992932499996], [-48.044498654444, -1.213914894721999], [-48.044431528611, -1.2138659055559966], [-48.044426795278, -1.2138567286109927], [-48.044362653611, -1.2137908033330125], [-48.0442977675, -1.2137352686109981], [-48.044245262222, -1.2136982425000116], [-48.04418229, -1.213677337222], [-48.044086009722, -1.213652969166994], [-48.044034271111, -1.2135930697220059], [-48.043967686389, -1.2135862877779975], [-48.043837939167, -1.2135230469440108], [-48.043786017222, -1.2134913711110127], [-48.043682477222, -1.213480661666995], [-48.041093923889, -1.2131738524999929], [-48.0408474225, -1.215480308889004], [-48.04630246078962, -1.2160594895888333], [-48.04607653333301, -1.2160352522219964], [-48.046072440278, -1.2159821705559988]]]]}}, {"type": "Feature", "properties": {"Parcela": "I-154", "ANO": 2012, "Ha": 22.82, "PLANTAS": "4.364", "VARIEDADE": "AV do B", "UDF": 32}, "geometry": {"type": "MultiPolygon", "coordinates": [[[[-48.04594035890088, -1.2110083156950036], [-48.045977050278, -1.211012938332993], [-48.046035916389, -1.211021774443988], [-48.0460443975, -1.211168526666987], [-48.046046000556, -1.211175235278002], [-48.04605195666701, -1.2113129172219983], [-48.046052085, -1.2114311644439972], [-48.046050938333, -1.2114374191669879], [-48.046079595278, -1.2115412105559993], [-48.046085169722, -1.211553706110998], [-48.046086638889, -1.211559886943988], [-48.046151899167, -1.211644048055995], [-48.046162770278, -1.211733136944003], [-48.046242194167, -1.2117940977779962], [-48.046272431944, -1.2118670955560014], [-48.046249642222, -1.2119405022220067], [-48.04629024138901, -1.212238375277987], [-48.046356253056, -1.2124796591670002], [-48.046447922222, -1.2126092694439956], [-48.046486716944, -1.2126662075000119], [-48.046497115278, -1.2127503030559956], [-48.046498384444, -1.2128993316669996], [-48.046557715000006, -1.212955833333002], [-48.046578403889, -1.2129904427780005], [-48.046555703889, -1.2130817636109983], [-48.046616795556, -1.213117741110996], [-48.046655365278, -1.2131631608330034], [-48.046641246667, -1.2133740466670073], [-48.046604880556, -1.2134554938890114], [-48.046651074444, -1.2135483794440152], [-48.046634450833, -1.2137572808329937], [-48.049737892222, -1.2140681041669958], [-48.049951839444, -1.2114210905559897], [-48.049854033333, -1.21143091111099], [-48.049691938056, -1.2114358408329986], [-48.049245228889, -1.2113976047220034], [-48.048979828611, -1.2113856877780054], [-48.048644123611, -1.2113548338889966], [-48.0482671375, -1.2113161616670058], [-48.048258371944, -1.211315743611006], [-48.048084971667, -1.2113075058329887], [-48.047419230556, -1.2112137208329854], [-48.047198485278, -1.2111667341670096], [-48.047069040556, -1.2111353511110035], [-48.046905232222, -1.2111069897220095], [-48.046231364722, -1.2110334952779913], [-48.046038919444, -1.2110183108330124], [-48.04594035890088, -1.2110083156950036]]], [[[-48.041078876944, -1.2131657855560012], [-48.043703787222, -1.2134705702780062], [-48.043792321111, -1.2133571500000018], [-48.043849886111, -1.2132308691670068], [-48.043850600278, -1.2132236300000014], [-48.043887683333, -1.213084515832998], [-48.043889580833, -1.2130657908330105], [-48.043919001111, -1.2129096655560083], [-48.043952243889, -1.2128201683329978], [-48.044149244444, -1.212757894999992], [-48.044596802778, -1.2128069088890017], [-48.044949070833, -1.2128709616670112], [-48.045173263333, -1.2128893752779988], [-48.045326086944, -1.2128752027779959], [-48.045428035, -1.2128136091670076], [-48.045414746944, -1.2124810730559983], [-48.045279541667, -1.2123217155559993], [-48.045145181389, -1.212166341667007], [-48.045023359722, -1.2118033588889872], [-48.045014636389, -1.2117792597219934], [-48.044814930278, -1.211511093332999], [-48.044814491667, -1.2113163225000103], [-48.044806696389, -1.2113063725000104], [-48.044801272778, -1.2113061730559889], [-48.044718350556, -1.2111387833329978], [-48.044715664722, -1.2111353325000023], [-48.044656977778, -1.2110004244439996], [-48.044655281111005, -1.2109308516669988], [-48.04465421194401, -1.2108819377779898], [-48.045047463333, -1.2109181941669929], [-48.045214128889, -1.210935470833003], [-48.04536008, -1.210950106111002], [-48.045495650556, -1.2109635538890013], [-48.045748619722, -1.2109897336110016], [-48.045771185308276, -1.2109911595999339], [-48.041360459167, -1.2105438597220053], [-48.041078876944, -1.2131657855560012]]], [[[-48.045771185308276, -1.2109911595999339], [-48.04594035890088, -1.2110083156950036], [-48.04583739527801, -1.2109953436109924], [-48.045771185308276, -1.2109911595999339]]]]}}, {"type": "Feature", "properties": {"Parcela": "I-162", "ANO": 2012, "Ha": 14.62, "PLANTAS": "2.711", "VARIEDADE": "AV do B", "UDF": 41}, "geometry": {"type": "Polygon", "coordinates": [[[-48.035616442778, -1.217270614999999], [-48.040559044167, -1.2177891841669901], [-48.040779515, -1.2154924519440076], [-48.035603414722, -1.2149098188890042], [-48.035544199722, -1.2150038719439966], [-48.035551628056005, -1.215136241666992], [-48.035548630278, -1.2152626247220064], [-48.035571035, -1.2154732005559992], [-48.035591688333, -1.2156182883329971], [-48.035595591944, -1.2158412644439862], [-48.035595800556, -1.2158466450000076], [-48.035561176389, -1.2161184619439926], [-48.035648646667, -1.216227696111009], [-48.035612955, -1.2162905499999985], [-48.035629625278, -1.2163995272220056], [-48.0356013775, -1.2165414716669973], [-48.035602961389, -1.2165429697220003], [-48.035587466111, -1.21672016138901], [-48.035609239167, -1.2168712522220049], [-48.035626430556, -1.216958169166995], [-48.035629594167, -1.2169611822220021], [-48.035642088333, -1.2170519816670122], [-48.035614285278, -1.2171773886109993], [-48.035616442778, -1.217270614999999]]]}}, {"type": "Feature", "properties": {"Parcela": "I-163", "ANO": 2012, "Ha": 15.27, "PLANTAS": "2.950", "VARIEDADE": "AV do B", "UDF": 41}, "geometry": {"type": "Polygon", "coordinates": [[[-48.040783252778, -1.2154380511110114], [-48.04101275333301, -1.2131621819440044], [-48.035461240556, -1.2125747005559901], [-48.035466992222, -1.2127295755560004], [-48.035469358056, -1.2127348997219984], [-48.035480861111, -1.2129305349999866], [-48.0354782425, -1.2130847566670047], [-48.035468394444, -1.2132429919439875], [-48.035468147778, -1.2133762863890023], [-48.035481768333, -1.2135127900000031], [-48.035483255556, -1.2136793508329933], [-48.035508933333, -1.2138003466669982], [-48.035503960556, -1.2139063344440026], [-48.035504046667, -1.2139088716670012], [-48.035495791944, -1.2140856991669888], [-48.035527040556, -1.2143045772220025], [-48.035522925278, -1.2144722305560105], [-48.035535150833, -1.214773236667002], [-48.035565840556, -1.2148789152780084], [-48.040783252778, -1.2154380511110114]]]}}, {"type": "Feature", "properties": {"Parcela": "I-164", "ANO": 2012, "Ha": 16.85, "PLANTAS": "3.146", "VARIEDADE": "AV do B", "UDF": 41}, "geometry": {"type": "Polygon", "coordinates": [[[-48.04102825361101, -1.2131214927779965], [-48.041316878056, -1.2105446636110073], [-48.039561826111, -1.2104566799999896], [-48.039283185556, -1.210453383888992], [-48.039009988611, -1.210432755277994], [-48.038741456667, -1.2104222566670064], [-48.038332234444, -1.2104292541669988], [-48.037810140278005, -1.2104812586109908], [-48.037160560278, -1.2105658697219979], [-48.035373404722, -1.2107229108330022], [-48.0352709775, -1.210830426667005], [-48.035175908056, -1.2108597852779923], [-48.0351318175, -1.210908552499998], [-48.035057512778, -1.2109923794439839], [-48.035038619444, -1.211064414443999], [-48.035002764722, -1.211121543610995], [-48.03492510694401, -1.2112106822219975], [-48.034812248056, -1.2112916586109892], [-48.034810381389, -1.2113085847219875], [-48.034703313889, -1.2113914975000084], [-48.034656965278, -1.2115114566670044], [-48.03465737472201, -1.2115154749999897], [-48.034733351667, -1.2116049194440035], [-48.034878113889, -1.211620202778013], [-48.035046043056, -1.2116445811110008], [-48.035059073889, -1.2116483677780054], [-48.035130015278, -1.2116592174999976], [-48.035238763889, -1.2116615177779988], [-48.035328115, -1.2116562419440036], [-48.035411204722, -1.2116478886110074], [-48.035438091667, -1.2116998338890033], [-48.035434486944, -1.2118166752780042], [-48.035438130556, -1.2119684363889984], [-48.035441813611, -1.2121194602779974], [-48.0354308125, -1.2122820744439857], [-48.035453866944, -1.212372104722001], [-48.035492568611, -1.2125423124999968], [-48.04102825361101, -1.2131214927779965]]]}}, {"type": "Feature", "properties": {"Parcela": "J-161", "ANO": 2012, "Ha": 10.79, "PLANTAS": "2.096", "VARIEDADE": "AV do B", "UDF": 41}, "geometry": {"type": "Polygon", "coordinates": [[[-48.039400898611, -1.210432455277998], [-48.04131618, -1.2105137716669894], [-48.041483376389, -1.208921277221991], [-48.041530661944, -1.2088534555560038], [-48.041605199167, -1.2088208336110007], [-48.041685152778, -1.2087908722219989], [-48.041745895000005, -1.2087605447219931], [-48.041757493056, -1.208704978610993], [-48.0417327275, -1.2086797369440054], [-48.041692048611, -1.2086824841670005], [-48.041618132222, -1.208663167499999], [-48.041610973611, -1.208605564999991], [-48.041565551111, -1.2085696491669895], [-48.0414973775, -1.2085199688889838], [-48.041439205, -1.208499420555991], [-48.04139641, -1.2085189138890013], [-48.041372397222, -1.2085745322220012], [-48.041351538056, -1.208670654166996], [-48.041316792222, -1.2087052044440032], [-48.041259206667, -1.2086954816670006], [-48.041221438056, -1.2086921461110083], [-48.041209134444, -1.2086825966669972], [-48.041206602778, -1.2086825849999998], [-48.041142031111, -1.2086310816670016], [-48.041068425833, -1.208597981111012], [-48.041014683333, -1.2085614416669967], [-48.040965695000004, -1.208587164443998], [-48.040886521944, -1.208625635832999], [-48.040775505278, -1.2086731816669958], [-48.040685316111, -1.2087009449999992], [-48.040571819722, -1.2087446472219976], [-48.040480355, -1.208794058611007], [-48.040477859444, -1.2087940474999948], [-48.040393721667, -1.2087729241669931], [-48.040286453333, -1.2087974966670008], [-48.040211364167, -1.208794444444005], [-48.040141250833, -1.2087357547220152], [-48.0400479275, -1.2087489791669965], [-48.040037922778005, -1.208749040277999], [-48.040035865556, -1.2087521155560021], [-48.039951538889, -1.2087735616670061], [-48.039916488056, -1.2088760422219909], [-48.039759251389, -1.2088904649999899], [-48.039618105, -1.2088845888889908], [-48.039504817778, -1.2088727866670077], [-48.039403686944, -1.2088220905560099], [-48.039392881944, -1.2087275097220063], [-48.039396400278, -1.208721311111004], [-48.03942254138901, -1.208575408888989], [-48.0394217775, -1.2085721644440044], [-48.039394113056, -1.2084536463890116], [-48.039392583611, -1.2084469869439993], [-48.039379468611, -1.2083317836110035], [-48.039375225833, -1.2083248888889924], [-48.039287746389, -1.208315670833002], [-48.0391961, -1.2083066941670064], [-48.039135202222, -1.2082521716670105], [-48.039071788333004, -1.2082869080559953], [-48.038999517222, -1.2082678613890006], [-48.038935175556, -1.2082782200000046], [-48.038855391944, -1.2082797750000016], [-48.038853300278, -1.2082775463889874], [-48.038794611667, -1.2082352797219935], [-48.038751931667, -1.2082681722220057], [-48.038684411944, -1.208248967222007], [-48.0386173975, -1.208222724166991], [-48.038564261944, -1.2082168744439932], [-48.038495482222, -1.2082182797219845], [-48.038406693056, -1.2081900513890016], [-48.0383545025, -1.208226945000005], [-48.0383415175, -1.2083023966670112], [-48.038278415, -1.2083381902780006], [-48.03826093277801, -1.2083931011110023], [-48.038174550556, -1.2084401172219987], [-48.038169148333, -1.2084402575000053], [-48.038165553333, -1.2084424619440028], [-48.038085320278, -1.2085864133329898], [-48.0380003775, -1.2087133536109986], [-48.037993628333, -1.2087154019440083], [-48.037898943056, -1.2088283352780067], [-48.037895705, -1.2088301919440037], [-48.037853894167, -1.208934573888987], [-48.037749192778, -1.2090127183330017], [-48.037744645278, -1.2090161294440085], [-48.037683467222, -1.2091248124999943], [-48.037676836944, -1.2091249063889953], [-48.037608939722, -1.2092030405559944], [-48.0375350275, -1.2092331286109985], [-48.037446544444, -1.2092425597219867], [-48.037363927222, -1.2092868727780075], [-48.037333763611, -1.2093335302780064], [-48.037288992222, -1.2093859255560018], [-48.037239469444, -1.2094276430559943], [-48.037233529722, -1.2094308194439938], [-48.037181166111004, -1.209451422500015], [-48.037096264722, -1.2094532816670043], [-48.037027695833, -1.2095259552780067], [-48.036926774167, -1.20954650666699], [-48.036835150278, -1.2095831352779944], [-48.036832026389, -1.2095847816669998], [-48.036754269167, -1.2096191008329904], [-48.036669121389, -1.2096702536110067], [-48.036608146111, -1.2097111280560005], [-48.036533014167, -1.20975440305601], [-48.036527148889, -1.209828563888996], [-48.036523950556, -1.2098285775000135], [-48.036457393333, -1.2098516886110058], [-48.036403252222, -1.2098502863890026], [-48.036317430278, -1.2098492277780089], [-48.036279452778, -1.209922848332987], [-48.036221735556, -1.2099410744440073], [-48.036143645278, -1.2099656499999984], [-48.036139342778, -1.209968841943994], [-48.036088884722, -1.2100296269439899], [-48.036084979444, -1.2100357563890054], [-48.036063758056, -1.2100901380559963], [-48.036018666944, -1.2101598066669996], [-48.035929038056, -1.2102316247219933], [-48.035818246111, -1.210311172500001], [-48.035707462222, -1.2103892955559976], [-48.035625496944, -1.210449267777992], [-48.035549988889, -1.2104980908329932], [-48.035507037778, -1.2105728902780015], [-48.035450083333, -1.210647526111007], [-48.03544765, -1.2107076969439967], [-48.037356813056, -1.2105296580559985], [-48.037643046944005, -1.2104810919440097], [-48.037946903889, -1.2104590211109933], [-48.038117979444, -1.2104391016669944], [-48.038310063889, -1.2104135711109894], [-48.03857285972201, -1.2104041022219958], [-48.038971168056, -1.210395515000001], [-48.039093786111, -1.2104011722219967], [-48.039400898611, -1.210432455277998]]]}}, {"type": "Feature", "properties": {"Parcela": "G-154", "ANO": 2012, "Ha": 17.77, "PLANTAS": "3.237", "VARIEDADE": "AV do B", "UDF": 30}, "geometry": {"type": "Polygon", "coordinates": [[[-48.042144457199235, -1.2298235970602929], [-48.04219349371773, -1.2298892482083417], [-48.04239494970502, -1.2300368586223758], [-48.042569216981605, -1.230195451431452], [-48.042612782251034, -1.2302337307210334], [-48.04265088246014, -1.2302501138115822], [-48.04269714300747, -1.230266487526552], [-48.04273797264151, -1.230291080904686], [-48.042789645471025, -1.2302828081186377], [-48.04286582104339, -1.2302936718440511], [-48.0429637450906, -1.2302935593468345], [-48.04303994781971, -1.2303283788545472], [-48.04309980658647, -1.2303426835738678], [-48.04316783733063, -1.2303672456800738], [-48.0431543144024, -1.2304357064132874], [-48.04322509631488, -1.2304876434259835], [-48.04328769770567, -1.2305217940822992], [-48.0433856108524, -1.2305120992358183], [-48.043488984400035, -1.230520193857455], [-48.04352987303583, -1.2305968054580374], [-48.04355168362412, -1.230640585299101], [-48.04360134894903, -1.2306610617641347], [-48.04361156567394, -1.230675423505682], [-48.043630617323565, -1.2306849839299683], [-48.04362792128771, -1.230706205030147], [-48.04362526952123, -1.230766439823857], [-48.043641652322336, -1.2308211771227082], [-48.04368523313053, -1.2308731453451225], [-48.043671688501654, -1.2309224414336184], [-48.04369621921629, -1.2309662181335752], [-48.04376158578048, -1.2310400637470367], [-48.0438432916614, -1.2311303173969907], [-48.043911356590534, -1.23118499524218], [-48.0439467211383, -1.2311876923774216], [-48.043973975083134, -1.2312342037311936], [-48.044116923097775, -1.2313592939176359], [-48.044156384905136, -1.2313770442596852], [-48.044172756862466, -1.2314221992128331], [-48.04414292658425, -1.2315023143324655], [-48.04414025932824, -1.2315488600908122], [-48.04416206996026, -1.2315926398822303], [-48.0442001950387, -1.2316309252907065], [-48.04435672888005, -1.2317429951791785], [-48.044441080283526, -1.2317675383536202], [-48.044502316968796, -1.231797583731251], [-48.044609829732195, -1.2318576916904063], [-48.04465067181333, -1.231893236135716], [-48.04464531247025, -1.2319644252079227], [-48.04461001325826, -1.2320192219199422], [-48.04459508687312, -1.232049354946594], [-48.04455165844141, -1.2321315390633885], [-48.04451364534266, -1.2321918145172652], [-48.04449192801668, -1.232230168779431], [-48.04450287690706, -1.232290387870466], [-48.04453691251275, -1.2323204645323766], [-48.04849109975804, -1.2327676450489828], [-48.0487170159983, -1.2305059670062095], [-48.04215526939556, -1.2297633528184146], [-48.042144457199235, -1.2298235970602929]]]}}]}