{"type": "FeatureCollection", "features": [{"type": "Feature", "properties": {"Parcela": "G-104", "ANO": 2014, "Ha": 6.48, "PLANTAS": "750", "VARIEDADE": "PB-123", "UDF": 1}, "geometry": {"type": "Polygon", "coordinates": [[[-48.089024980556005, -1.2347441874999958], [-48.085622926111, -1.2344417883329988], [-48.085621070833, -1.2351030936110066], [-48.085628183611, -1.2355859786109893], [-48.085636363889, -1.2358449308330057], [-48.085582899722, -1.2360900347219992], [-48.085538439167, -1.236247513055997], [-48.0856143025, -1.2363155330559967], [-48.085682319722, -1.2364043452779958], [-48.085679364167, -1.2364226694439866], [-48.085696475833, -1.236554768611], [-48.08572777, -1.236678297500009], [-48.085841545, -1.2367351772220019], [-48.086015386667, -1.2367292505560026], [-48.086158528333, -1.2366788497220071], [-48.086288501944, -1.236632895278006], [-48.086427937778, -1.2365421819439995], [-48.086613043889, -1.2365090636109939], [-48.086882992222, -1.2364091358330074], [-48.087033036389, -1.2363103808330018], [-48.087232821667, -1.2362108475000033], [-48.087367393333, -1.2361667483329921], [-48.08751335666701, -1.2360535311109961], [-48.087658974444, -1.235924691110999], [-48.087759167778, -1.2357986505560001], [-48.08785441, -1.2357581058330074], [-48.088065679722, -1.2356636730559978], [-48.088243059444, -1.2356866572220118], [-48.088470306111, -1.2356725577780048], [-48.088599531389, -1.235638838888998], [-48.088801974444, -1.2355135019439962], [-48.088931916944, -1.235437667499996], [-48.089013710278, -1.2353258311110136], [-48.089139677778, -1.2351823763889989], [-48.089223860833, -1.2351115927780092], [-48.089024980556005, -1.2347441874999958]]]}}, {"type": "Feature", "properties": {"Parcela": "H-101", "ANO": 2014, "Ha": 11.9, "PLANTAS": "1.375", "VARIEDADE": "PB-123", "UDF": 1}, "geometry": {"type": "Polygon", "coordinates": [[[-48.089462121111005, -1.232396094167], [-48.085155328611, -1.231899628056002], [-48.085139705556, -1.2325062072220032], [-48.085312986944, -1.2330749099999914], [-48.08548560972201, -1.2334032100000087], [-48.085539797222, -1.233631730833003], [-48.0855634275, -1.2340505036109946], [-48.085548572222, -1.2343924961110004], [-48.089046112778, -1.2347253816669965], [-48.089165424722, -1.2344900611109857], [-48.089262088333, -1.2342680958329997], [-48.089263008333, -1.2342632847219952], [-48.089339374722, -1.2340704944439949], [-48.089411145556, -1.2339300980560126], [-48.08946132, -1.232545166944001], [-48.089462121111005, -1.232396094167]]]}}, {"type": "Feature", "properties": {"Parcela": "H-102", "ANO": 2014, "Ha": 11.89, "PLANTAS": "1.286", "VARIEDADE": "PB-123", "UDF": 1}, "geometry": {"type": "Polygon", "coordinates": [[[-48.085154113611, -1.2318563158329945], [-48.089480215, -1.2323535152780059], [-48.089512928611, -1.2316393383330038], [-48.089444196667, -1.2315452680559908], [-48.089371384167, -1.231408674443989], [-48.089368904722, -1.231186164722005], [-48.089382078611, -1.2308254380559964], [-48.089439711667, -1.2300023941669924], [-48.085359237222, -1.229594757500008], [-48.085154113611, -1.2318563158329945]]]}}, {"type": "Feature", "properties": {"Parcela": "H-103", "ANO": 2014, "Ha": 11.6, "PLANTAS": "1.987", "VARIEDADE": "AV do B", "UDF": 1}, "geometry": {"type": "Polygon", "coordinates": [[[-48.085382760833, -1.2295607583329942], [-48.089437721944, -1.2299868680559984], [-48.089481083611, -1.229715876111009], [-48.089494980278, -1.2294723311110043], [-48.089521241667, -1.2292863824999962], [-48.089581379167, -1.2291821847219926], [-48.089626184444, -1.229080887778], [-48.089644665556, -1.228964057777994], [-48.089620983333, -1.2288842527779964], [-48.089739578611, -1.2288585655560047], [-48.08975876027801, -1.2287827225000034], [-48.08979113, -1.2285425166670068], [-48.08985830722201, -1.2277884374999948], [-48.085552687222, -1.2273293433329924], [-48.085382760833, -1.2295607583329942]]]}}, {"type": "Feature", "properties": {"Parcela": "H-104", "ANO": 2011, "Ha": 25.64, "PLANTAS": "4.003", "VARIEDADE": "AV do B", "UDF": 1}, "geometry": {"type": "Polygon", "coordinates": [[[-48.085540934444, -1.2272952655559999], [-48.091997761389, -1.227980285833001], [-48.092316489167, -1.2280015433330007], [-48.092611629167, -1.228021077222009], [-48.092771129722, -1.2280228847219952], [-48.092988991944, -1.2280577747219947], [-48.093204351389, -1.228082723610995], [-48.09350983, -1.2281277299999926], [-48.093964401111, -1.2281845258330013], [-48.093986284722, -1.2281861691669962], [-48.093995663333, -1.2281868722219975], [-48.094193647222, -1.2281922158330068], [-48.094319884444, -1.228192130000013], [-48.094403929444, -1.228179114167006], [-48.094552915, -1.228196926666999], [-48.094767652222, -1.228180853332999], [-48.094787751944, -1.228120406666998], [-48.094824746111, -1.2278902502780003], [-48.094850737222, -1.2276297722219967], [-48.094862846389, -1.2272881161110138], [-48.094873814722, -1.2269499463890026], [-48.094872283611, -1.2266359936109903], [-48.094893980833, -1.2263926911110017], [-48.09490597, -1.2262746208329993], [-48.094882271944, -1.226145694443997], [-48.094874203611006, -1.2260238416669937], [-48.085662378333, -1.225052018332996], [-48.085540934444, -1.2272952655559999]]]}}, {"type": "Feature", "properties": {"Parcela": "H-111", "ANO": 2011, "Ha": 11.86, "PLANTAS": "2.269", "VARIEDADE": "AV do B", "UDF": 3}, "geometry": {"type": "Polygon", "coordinates": [[[-48.084729939444, -1.2318712575000006], [-48.076126365833, -1.230965557221996], [-48.076045560278, -1.2320581905559953], [-48.076162907778, -1.2321031088890093], [-48.076371551944, -1.2321138755559982], [-48.076574690833, -1.2321377919440009], [-48.076718736944, -1.2321513505559905], [-48.076834819722, -1.2321664652780007], [-48.076920381667, -1.2321697719440028], [-48.0770334825, -1.2321741361110063], [-48.077154299444, -1.2321920380560099], [-48.077290783889, -1.2322183861110005], [-48.077416313889, -1.2322337261110043], [-48.077469679444, -1.2322173794440054], [-48.077648923611, -1.232245281944], [-48.077651425278, -1.2322479980559973], [-48.077787103611, -1.2322636772219924], [-48.077962477222, -1.2322886461110028], [-48.078098015, -1.2322990438889934], [-48.078287919167, -1.2323115011109986], [-48.078435136111, -1.232332661389003], [-48.078629283611, -1.2323632900000125], [-48.078881803333, -1.2323886033329958], [-48.079132731667, -1.2324176747219902], [-48.079360505556, -1.2324403497219905], [-48.079567464444, -1.232442996110997], [-48.079736955278, -1.2324741513890063], [-48.079904958333, -1.232475124722001], [-48.080043297778, -1.2324858852780076], [-48.080137649444, -1.2325058438890002], [-48.080440265278, -1.2325499730560021], [-48.080645886389, -1.2325497391669937], [-48.080867639722, -1.2325582413890006], [-48.081128910556, -1.232589550555997], [-48.081390599444, -1.2326179280559941], [-48.081665841667, -1.232633339167002], [-48.081927533611, -1.2326565102780014], [-48.082104787222, -1.2327205224999922], [-48.082403088333, -1.2327311041669886], [-48.082632103056, -1.2327647622220017], [-48.082761964167, -1.2327835238890001], [-48.083149159722, -1.2328322811110082], [-48.0834500625, -1.232857799444011], [-48.083748393056, -1.2328744558330065], [-48.083911820556, -1.2328957319439893], [-48.084081614444, -1.2329055655559988], [-48.084177396667, -1.2329269119440043], [-48.084350533611, -1.232948431110993], [-48.084563533056, -1.2329779105560128], [-48.084640381667, -1.2329438872219993], [-48.084702990556, -1.2329119008330043], [-48.084729939444, -1.2318712575000006]]]}}, {"type": "Feature", "properties": {"Parcela": "H-112", "ANO": 2011, "Ha": 25.25, "PLANTAS": "4.586", "VARIEDADE": "AV do B", "UDF": 3}, "geometry": {"type": "Polygon", "coordinates": [[[-48.076123976944, -1.230907252499999], [-48.084819431667, -1.2318510716670088], [-48.084957651944, -1.2318573777780104], [-48.085040838056, -1.2318293563889948], [-48.085079048056, -1.2317676536110065], [-48.085126971389, -1.2315037513889988], [-48.085159976944, -1.2313482030560103], [-48.085288202778, -1.2296183288889928], [-48.076281789444, -1.2286445844440028], [-48.076123976944, -1.230907252499999]]]}}, {"type": "Feature", "properties": {"Parcela": "H-113", "ANO": 2011, "Ha": 25.08, "PLANTAS": "4.504", "VARIEDADE": "AV do B", "UDF": 3}, "geometry": {"type": "Polygon", "coordinates": [[[-48.076285126111, -1.2286166236110039], [-48.085297126944, -1.2296040424999997], [-48.085487648333, -1.2273448861109877], [-48.076387039444, -1.2264053655559937], [-48.076285126111, -1.2286166236110039]]]}}, {"type": "Feature", "properties": {"Parcela": "H-114", "ANO": 2011, "Ha": 25.8, "PLANTAS": "4.686", "VARIEDADE": "AV do B", "UDF": 3}, "geometry": {"type": "Polygon", "coordinates": [[[-48.076379160833, -1.2263627647219957], [-48.085503333611, -1.2272898058330066], [-48.085591006389, -1.224998493333001], [-48.076546141944, -1.2240654702779992], [-48.076379160833, -1.2263627647219957]]]}}, {"type": "Feature", "properties": {"Parcela": "I-101", "ANO": 2011, "Ha": 26.16, "PLANTAS": "4.342", "VARIEDADE": "AV do B", "UDF": 2}, "geometry": {"type": "Polygon", "coordinates": [[[-48.085663961667, -1.2250173677779979], [-48.094916041944, -1.2260062769439946], [-48.094930638056, -1.2258180594439976], [-48.0949257325, -1.2256744930559886], [-48.094925504444, -1.2253922133330015], [-48.094956911667005, -1.225116840555995], [-48.0949725525, -1.2246338850000094], [-48.094977631944, -1.224362909167011], [-48.094979334167, -1.2243510652779854], [-48.094992415833, -1.224179314167003], [-48.094997625, -1.2239371572220001], [-48.095018649722, -1.2237250755559952], [-48.08575595, -1.2227237816669994], [-48.085663961667, -1.2250173677779979]]]}}, {"type": "Feature", "properties": {"Parcela": "I-102", "ANO": 2011, "Ha": 26.51, "PLANTAS": "4.424", "VARIEDADE": "AV do B", "UDF": 2}, "geometry": {"type": "Polygon", "coordinates": [[[-48.085734966944, -1.2227021947220025], [-48.095019183889, -1.2237108288890002], [-48.095098196667, -1.2224218811110021], [-48.095115001389, -1.222119997221993], [-48.095128286944, -1.221838625832998], [-48.095151146667, -1.2216378466670073], [-48.095148826667, -1.221397412777999], [-48.085848657778, -1.2204070966669944], [-48.085734966944, -1.2227021947220025]]]}}, {"type": "Feature", "properties": {"Parcela": "I-103", "ANO": 2011, "Ha": 18.07, "PLANTAS": "2.769", "VARIEDADE": "AV do B", "UDF": 2}, "geometry": {"type": "MultiPolygon", "coordinates": [[[[-48.08795961146392, -1.2206108461774932], [-48.087959941111, -1.220612040278009], [-48.088072731389, -1.2206227258330065], [-48.088072731454524, -1.2206227240598888], [-48.08795961146392, -1.2206108461774932]]], [[[-48.095233321944, -1.2194172769440128], [-48.094881511667, -1.2194008908329936], [-48.094717320556, -1.219394832777999], [-48.094531524167, -1.2193486983329958], [-48.094517581667, -1.2193472919439892], [-48.094514096111, -1.219346940278006], [-48.094355506389, -1.219365721667003], [-48.094244753889, -1.2193387213889988], [-48.094062945278, -1.219355134722003], [-48.093899342222, -1.2193761697219974], [-48.0938854525, -1.219374675277999], [-48.093777188333, -1.2193245486109885], [-48.093630549444, -1.2193126083330081], [-48.093519425278, -1.219319924722002], [-48.093512440278, -1.2193191727779957], [-48.093398356944, -1.219329952778001], [-48.09327178027801, -1.2193373552779962], [-48.093173944444, -1.2193025894440062], [-48.093153328611, -1.2193008322219925], [-48.093146738611, -1.2193040661110024], [-48.09305702, -1.219292416389], [-48.093043933611, -1.2192988852779996], [-48.093037063889, -1.2192982849999998], [-48.092883274167, -1.2192855999999892], [-48.092876455556, -1.219285047500001], [-48.092693806389, -1.2192846927779895], [-48.092686528889, -1.2192802997220036], [-48.092286881111, -1.219288169721988], [-48.092008451111, -1.2192552663889982], [-48.091742388056, -1.2192376152779985], [-48.091455415, -1.219228932222008], [-48.091203279722, -1.2192134230559986], [-48.090922787222, -1.2192189811110081], [-48.090542914167, -1.2192107174999984], [-48.090265437222, -1.219187085833], [-48.089853837222, -1.2191723433330088], [-48.089850416389, -1.2191719899999967], [-48.089593612222, -1.2191491152779974], [-48.089348056944, -1.2191717069440047], [-48.089341226111, -1.21917099916701], [-48.089180633611, -1.219157854721996], [-48.088847343889, -1.2191397938890007], [-48.088521344444, -1.2191336905560057], [-48.088157569722, -1.219093904722003], [-48.08792449, -1.219104059722008], [-48.087716943056, -1.2191133563890055], [-48.087574919167004, -1.2191033788890018], [-48.087449824167, -1.2190734833329921], [-48.087250819722, -1.2190762672219884], [-48.087208465833, -1.2192041477779916], [-48.087208593056, -1.2192076652780068], [-48.087214208056, -1.2193631058329892], [-48.087269841111, -1.2194754997219963], [-48.087401074722, -1.2195869222219988], [-48.08743105861101, -1.2196700419440132], [-48.087431108333, -1.2196732188889916], [-48.087494504444, -1.2197542263890047], [-48.087605681944005, -1.2198468838890066], [-48.087654914444, -1.219965914721997], [-48.087712375278, -1.2200766641669933], [-48.087760056944, -1.220152786111001], [-48.08785949277801, -1.2202002236110046], [-48.087944745, -1.2202972983329918], [-48.087994111667, -1.22033343638901], [-48.087979646111, -1.2204033808329984], [-48.088079225, -1.220466260277993], [-48.088078346667004, -1.2204707769440106], [-48.088072731454524, -1.2206227240598888], [-48.095154144167, -1.2213662827780059], [-48.095233321944, -1.2194172769440128]]], [[[-48.087945285833, -1.220542300833012], [-48.087867863056, -1.2204928444439884], [-48.08774121, -1.2204859413889988], [-48.087646291667, -1.220487355000003], [-48.087635345278, -1.2204453613890074], [-48.087623755556, -1.220393307777995], [-48.087596864167, -1.2203460550000003], [-48.087591869167, -1.220343690555998], [-48.087586621667, -1.2203431825000137], [-48.087578120833, -1.220340476943993], [-48.087574621667, -1.2203401377779899], [-48.087564123333, -1.2203391208329972], [-48.087495285833, -1.2203059261109985], [-48.087467534444, -1.2202472327780023], [-48.087462776111, -1.2202408952780082], [-48.087436498611, -1.220194770278007], [-48.087342498056, -1.2201635583330146], [-48.087339016667, -1.220161213611001], [-48.087274001111, -1.2201184797219948], [-48.087176241944, -1.2200823555559992], [-48.087170726111, -1.2200818238890054], [-48.087156022222004, -1.2200804333329958], [-48.087132350833, -1.2201393969439878], [-48.087126716667, -1.2201469425000122], [-48.087123052222, -1.2201486200000025], [-48.087098693056, -1.2201941813889907], [-48.087074751111, -1.220248431666991], [-48.087028880556, -1.2202480733329863], [-48.087027118333, -1.220247911666989], [-48.086833742778005, -1.2202756972220135], [-48.086781611944, -1.2202081513890046], [-48.086781400556, -1.220204269444003], [-48.086815609167, -1.2201446797219941], [-48.086840236111, -1.2200886502779849], [-48.086783864167, -1.2200465030559942], [-48.086774703889, -1.220045646389011], [-48.086721893056, -1.220073588055989], [-48.086661038611, -1.2200557713889892], [-48.086656903611, -1.2200492216670067], [-48.086636125833, -1.2199952191669905], [-48.086631723056, -1.2199863702779967], [-48.086627669722, -1.2199817677779958], [-48.086610613611, -1.2198896463890048], [-48.08660796611101, -1.2198805963890145], [-48.086595294167, -1.2198213727779974], [-48.086646420556, -1.2197453677780021], [-48.086730444722, -1.2196915336110072], [-48.086754799444, -1.2196307511109996], [-48.086764219444, -1.2194978038889963], [-48.086778976389, -1.2193988583329944], [-48.086776794444, -1.219396053333005], [-48.0867317875, -1.21931792472199], [-48.0867134475, -1.2192401838890028], [-48.086711046944004, -1.219234457500001], [-48.086636816667, -1.2192057636110085], [-48.086623253333, -1.219122870832997], [-48.086623086111, -1.2191200116669951], [-48.086585886389, -1.219047693332986], [-48.086576671389, -1.2190410658330006], [-48.086509011389, -1.2189881730560064], [-48.086500111667, -1.2189874061109973], [-48.086420897222, -1.2190155341670035], [-48.086414245833005, -1.219014916111], [-48.086407594444, -1.2190142988889947], [-48.086284495833, -1.2190272302779923], [-48.086280817222, -1.219032801110989], [-48.086206831389, -1.219079044722007], [-48.086202495, -1.219078688333], [-48.086129233889004, -1.2190610905559929], [-48.086095378333, -1.2190162763890018], [-48.086089345556, -1.2190115630559906], [-48.086046811944, -1.2189657338890045], [-48.085952484167, -1.2189802188890049], [-48.08589490972201, -1.2190026663889995], [-48.085833653333005, -1.2199997016670046], [-48.085854455833, -1.220389798888995], [-48.08795961146392, -1.2206108461774932], [-48.087947905833, -1.220568444167], [-48.087945285833, -1.220542300833012]]]]}}, {"type": "Feature", "properties": {"Parcela": "I-111", "ANO": 2011, "Ha": 25.64, "PLANTAS": "4.748", "VARIEDADE": "AV do B", "UDF": 4}, "geometry": {"type": "Polygon", "coordinates": [[[-48.076541564444, -1.2240389155559979], [-48.08558986, -1.2249842727779892], [-48.085647406111, -1.2226965130559893], [-48.076632013056, -1.2217287574999929], [-48.076541564444, -1.2240389155559979]]]}}, {"type": "Feature", "properties": {"Parcela": "I-112", "ANO": 2011, "Ha": 27.89, "PLANTAS": "5.029", "VARIEDADE": "AV do B", "UDF": 4}, "geometry": {"type": "Polygon", "coordinates": [[[-48.076661010556, -1.2217203644439993], [-48.085646526111, -1.2226876427780125], [-48.085786201111, -1.220073419443997], [-48.085736504444, -1.2200155280559994], [-48.085684225833, -1.2199741852780088], [-48.085612043056, -1.2199515502779972], [-48.076795354722, -1.2194265963890012], [-48.076661010556, -1.2217203644439993]]]}}, {"type": "Feature", "properties": {"Parcela": "I-113", "ANO": null, "Ha": 23.13, "PLANTAS": "4.039", "VARIEDADE": "AV do B", "UDF": 9}, "geometry": {"type": "Polygon", "coordinates": [[[-48.076789082222, -1.2193803327779966], [-48.08582831777801, -1.2199952847220032], [-48.085888610556, -1.2189976519440084], [-48.085844655556, -1.2189857169439977], [-48.085807023889, -1.2188662075000078], [-48.085822891667, -1.2187161452780129], [-48.085802130556, -1.2186156225000104], [-48.085818596389, -1.2184955522219938], [-48.085773078333, -1.2184577224999897], [-48.085681626389, -1.2183781888890004], [-48.085590434722, -1.2183571452779984], [-48.085532132222006, -1.2184190952779994], [-48.085429108611, -1.2184183052779949], [-48.085344654722, -1.2184877658329965], [-48.085308239444, -1.2185703213890033], [-48.0852525525, -1.2186883222219977], [-48.085239499444, -1.2188145791669989], [-48.085118228333, -1.2188978236110064], [-48.085024351944, -1.2189850369440123], [-48.084911661944, -1.2190851563889922], [-48.084825473611, -1.2191580647220115], [-48.084754058056, -1.2192400988889955], [-48.084698126944, -1.219326313056003], [-48.08463646111101, -1.219438421666991], [-48.084638567778, -1.2194386036110048], [-48.084594913889, -1.2194840047219895], [-48.08453538, -1.2194979788889857], [-48.084435754444, -1.2195126597219905], [-48.084332897222, -1.2194743002779993], [-48.084241875000004, -1.2194368102779969], [-48.084214238333, -1.2193633991669883], [-48.084216326944, -1.2192336047220063], [-48.084228373611, -1.219110005277995], [-48.084278301389, -1.219034816667], [-48.0843370925, -1.2189245699999924], [-48.084502825278, -1.2188019663889977], [-48.084505460556, -1.2187981111110098], [-48.084510741944, -1.2187903908329965], [-48.084544256667, -1.2187189972219954], [-48.084557470833005, -1.2185870527780136], [-48.08452814083301, -1.2185087824999838], [-48.084478870278, -1.2184605016669947], [-48.084486161389, -1.218311031944007], [-48.084471540556, -1.2182059602779964], [-48.084413823611, -1.2181347780559975], [-48.084336438333, -1.218006588611002], [-48.084189671944, -1.2178966788889896], [-48.084138548056, -1.2178712616669967], [-48.084055449167, -1.217812179999996], [-48.0839664675, -1.2177564725000016], [-48.083891933333, -1.2177666619440044], [-48.083808180556, -1.2178447022219985], [-48.083736051389, -1.2179368163889968], [-48.083662846111, -1.2179745075000021], [-48.083587102222, -1.2181455599999924], [-48.083226362222, -1.2179993491669936], [-48.083232262778, -1.2179477313890006], [-48.083233303889, -1.217938680833002], [-48.083267668333, -1.217872413333009], [-48.083323283611, -1.217764270277988], [-48.083353107778, -1.2176877280559975], [-48.083362573333, -1.2175933311109928], [-48.083384128611, -1.2174575980559987], [-48.076882038611, -1.2170677361110045], [-48.076789082222, -1.2193803327779966]]]}}, {"type": "Feature", "properties": {"Parcela": "I-114", "ANO": 2012, "Ha": 8.24, "PLANTAS": "1.430", "VARIEDADE": "AV do B", "UDF": 9}, "geometry": {"type": "Polygon", "coordinates": [[[-48.076881722778, -1.2170325388890044], [-48.082217613333, -1.2173650875000022], [-48.082245489444, -1.2171993866669997], [-48.082175683889, -1.2171300552780007], [-48.082089941667, -1.217077449721999], [-48.082024450556, -1.2170873977779995], [-48.081925534722, -1.217113029166999], [-48.081863520833, -1.2171267613889922], [-48.081734021944, -1.2171322936110076], [-48.081595924167004, -1.2170509930560065], [-48.081485786667, -1.2170326611110085], [-48.081302899444, -1.2169332586110162], [-48.0812060275, -1.2168381080559965], [-48.081067011944, -1.2167680038889925], [-48.081020344167, -1.2166642438890007], [-48.081018131389, -1.2165807402779885], [-48.081129284722, -1.2164791002780075], [-48.081219835833, -1.2163750788890002], [-48.081248756944, -1.2162432774999972], [-48.081336638333, -1.2161407430559965], [-48.081378896667, -1.2160263466670058], [-48.081355711667, -1.2159404752780023], [-48.0813258975, -1.215845790832999], [-48.081266195556, -1.2157833622220053], [-48.0811337425, -1.2157739250000015], [-48.081001286667, -1.2157643830559999], [-48.080879880278, -1.2157913147220052], [-48.080648621944, -1.2157648663890017], [-48.080518465556, -1.215771977500013], [-48.080234240278, -1.2157153613889902], [-48.079841368333, -1.2157344250000017], [-48.079622186111, -1.2157328733330057], [-48.079438686667, -1.2157456725000053], [-48.079215533056, -1.2157218344439933], [-48.079044671389, -1.2156970977779988], [-48.078896338611, -1.2156699366669943], [-48.078652447222, -1.215649500000007], [-48.078553126389, -1.2156595441669935], [-48.078447690556, -1.2156578155560005], [-48.078286189722, -1.2156304163889946], [-48.078138422222, -1.2156177505559966], [-48.078077299722, -1.2156100677780055], [-48.077979926389006, -1.2156038500000026], [-48.077848181667, -1.215561397221999], [-48.077773394444, -1.215617076110989], [-48.077662079722, -1.215606188888998], [-48.077503902222, -1.2155839058329865], [-48.07741024250001, -1.215549756666998], [-48.07726664111101, -1.2155946280560044], [-48.077153469167, -1.215592910833002], [-48.077047574167, -1.2155842477780028], [-48.076919840833, -1.2155473008330113], [-48.076881722778, -1.2170325388890044]]]}}]}