{"type": "FeatureCollection", "features": [{"type": "Feature", "properties": {"Parcela": "E-164", "ANO": 2012, "Ha": 4.8, "PLANTAS": "765", "VARIEDADE": "AV do B", "UDF": 38}, "geometry": {"type": "Polygon", "coordinates": [[[-48.035347306667, -1.2478210936109915], [-48.029272259444, -1.2471723516669924], [-48.02924526388901, -1.2473024038889957], [-48.029320845556, -1.2474763711110048], [-48.029320941111, -1.2474800322220052], [-48.029436108889, -1.247617476111005], [-48.029656445556, -1.2478138811110089], [-48.02982773, -1.2480099880560145], [-48.029972046667, -1.2481382763889999], [-48.030120993056, -1.2481717941669919], [-48.030440735833, -1.248172653055998], [-48.030841481389, -1.248166708332987], [-48.031302269167, -1.2481672666670072], [-48.031706991944, -1.2481666552780053], [-48.032085768889, -1.2481693147220072], [-48.032692075278, -1.2481665805559987], [-48.033658741389, -1.2481949730560136], [-48.034846789167, -1.248225639721996], [-48.03500627416701, -1.2482278166669993], [-48.035184044722, -1.2482396558330031], [-48.035294299722004, -1.2482414127779877], [-48.035347306667, -1.2478210936109915]]]}}, {"type": "Feature", "properties": {"Parcela": "E-174", "ANO": 2012, "Ha": 11.73, "PLANTAS": "2.267", "VARIEDADE": "AV do B", "UDF": 42}, "geometry": {"type": "MultiPolygon", "coordinates": [[[[-48.02592970984417, -1.2498565259902903], [-48.025930258889, -1.2499762369439873], [-48.025906596111, -1.2501326611110017], [-48.02598324750001, -1.250174880555995], [-48.026153219444, -1.2501882574999992], [-48.026160765556, -1.250182480278006], [-48.026329783056, -1.2501922744440026], [-48.026335509722, -1.2501926044439917], [-48.026349826667, -1.250193426666999], [-48.026573990556, -1.2502322944440076], [-48.02658257416701, -1.2502328263890081], [-48.026698596944, -1.2502275072219962], [-48.0267152125, -1.2502223255559948], [-48.0267177975, -1.2502193802780064], [-48.026734994722005, -1.2502204336109979], [-48.02683958722201, -1.2502080527779962], [-48.026842229722, -1.2502050916669925], [-48.027002461944, -1.250205183056], [-48.027198196389, -1.2502354177780024], [-48.027206791111, -1.2502359236110006], [-48.027398770556, -1.250247698332997], [-48.027571361389, -1.2502302127780094], [-48.0276798025, -1.2502519258329852], [-48.027847299444, -1.25024280333299], [-48.0279188775, -1.2502501944439972], [-48.027930106667, -1.2502540497219987], [-48.028080374167, -1.250279540832997], [-48.028188996667, -1.2502862197219935], [-48.028275915833, -1.2503041566669886], [-48.02844169000001, -1.2502666316670004], [-48.028664345278, -1.250235808333005], [-48.02884640861101, -1.250241319443999], [-48.02897893666701, -1.2502681430559939], [-48.029115748611, -1.2502710836110074], [-48.029089099444, -1.2501386191669956], [-48.029212744444, -1.2498699413890062], [-48.029328587778, -1.249590890556007], [-48.029469805833, -1.2490871752780135], [-48.029545361111, -1.2487340344439979], [-48.029471795, -1.2485136663889953], [-48.02932598801421, -1.2483494098097745], [-48.02673933504599, -1.2471530945750928], [-48.026608793889, -1.247230452500002], [-48.026532600556, -1.247311280556002], [-48.026381373333, -1.2473915624999963], [-48.026323732222, -1.2475250913889955], [-48.026299191389, -1.2476835069440002], [-48.026204425, -1.2477748624999903], [-48.026176008333, -1.248011323333], [-48.026166918889, -1.2481786397219874], [-48.026153270556, -1.2483495955560033], [-48.026125875556, -1.2484956641669895], [-48.02609438943852, -1.2485687404579646], [-48.02592970984417, -1.2498565259902903]]], [[[-48.02141184358928, -1.247054007121591], [-48.021477423292396, -1.2470683664629407], [-48.02158810359883, -1.2471053574817494], [-48.021666025830825, -1.2471630080326799], [-48.0217684824765, -1.2471752625447288], [-48.02185445885468, -1.2471091738047773], [-48.02200611142021, -1.2471419930738108], [-48.02228473612873, -1.247125173501168], [-48.02247730911024, -1.247108453442773], [-48.023079651687965, -1.2470912593492942], [-48.023145153584956, -1.247037567319846], [-48.02312848024057, -1.2467901269890265], [-48.023070938294325, -1.2466375934361416], [-48.022939680230806, -1.2465222640522813], [-48.02266509225327, -1.246485462587782], [-48.02154628887046, -1.2463712745510358], [-48.021484856298606, -1.2464002158770444], [-48.02141184358928, -1.247054007121591]]]]}}, {"type": "Feature", "properties": {"Parcela": "F-171", "ANO": 2012, "Ha": 3.0, "PLANTAS": "1.479", "VARIEDADE": "AV do B", "UDF": 42}, "geometry": {"type": "MultiPolygon", "coordinates": [[[[-48.028143173056, -1.244877453332992], [-48.028146098333, -1.2448807130560045], [-48.028253976389, -1.2450236541669961], [-48.028287696389, -1.2451775075000064], [-48.028292020833, -1.2453734533329912], [-48.028271649167, -1.2455943169440045], [-48.028271736944, -1.2455976897219938], [-48.028293723611, -1.2456874144440062], [-48.028396986111, -1.2458345805559943], [-48.028505125556, -1.2459750375000023], [-48.028540981111, -1.246064581943999], [-48.0285145575, -1.2461774086109951], [-48.028491358056, -1.2462789080559895], [-48.02854306, -1.2464393305560035], [-48.028559683056, -1.246656165000005], [-48.028627836667, -1.2468003458330015], [-48.028635481389, -1.246803489721998], [-48.02864311, -1.24680393833301], [-48.028769681389, -1.2468290786110001], [-48.028906646667, -1.2468581680559905], [-48.029024005, -1.2468424666669953], [-48.0290832825, -1.2468259755560058], [-48.029140965, -1.246839667778003], [-48.029177859167, -1.246938923610997], [-48.02922552957256, -1.246965568285176], [-48.029459848889, -1.2448266330560005], [-48.02813030348409, -1.2446760194319118], [-48.028096817778, -1.244724164999997], [-48.028143173056, -1.244877453332992]]], [[[-48.02173047638901, -1.2439793447220013], [-48.021520825833, -1.2462600966670005], [-48.022886111111, -1.246454771667002], [-48.023057081111, -1.2462755252779865], [-48.023178004722, -1.246069427499992], [-48.023270120278, -1.2458947197219885], [-48.023411940556, -1.245761433332998], [-48.023491146944, -1.2455944824999974], [-48.023527701389, -1.245378775832996], [-48.023521239444, -1.2452074008330103], [-48.023578665278, -1.2451135744440058], [-48.023695830278, -1.2449568483330071], [-48.023903229722, -1.2448378319439966], [-48.0239699725, -1.2447077633330053], [-48.0239715925, -1.2446025344440024], [-48.0238982825, -1.2444435047220082], [-48.023728093889, -1.2442938716669985], [-48.02357137121302, -1.2441610758742705], [-48.0235700025, -1.2441609244439964], [-48.02173047638901, -1.2439793447220013]]], [[[-48.02414021400964, -1.2442240108775184], [-48.02813030348409, -1.2446760194319118], [-48.02813712333301, -1.244666213888999], [-48.02414021400964, -1.2442240108775184]]], [[[-48.02357137121302, -1.2441610758742705], [-48.02414021400964, -1.2442240108775184], [-48.023569320278, -1.2441593380559892], [-48.02357137121302, -1.2441610758742705]]]]}}, {"type": "Feature", "properties": {"Parcela": "F-172", "ANO": 2012, "Ha": 10.13, "PLANTAS": "1.820", "VARIEDADE": "AV do B", "UDF": null}, "geometry": {"type": "MultiPolygon", "coordinates": [[[[-48.02354041526955, -1.2441466798194587], [-48.023543423056, -1.2441590438890078], [-48.02787099487843, -1.2446297135807436], [-48.02354041526955, -1.2441466798194587]]], [[[-48.029580866389, -1.243653854444], [-48.029528532222, -1.2436072627779962], [-48.029454523611, -1.2435463858330036], [-48.029366878333, -1.2435051030559985], [-48.029287324167, -1.2434561341670036], [-48.029211293056, -1.243419326667012], [-48.029145293611, -1.2433994344440085], [-48.029047953056, -1.2433761194440003], [-48.028994266667, -1.243362020832996], [-48.028884631389, -1.2433427169439988], [-48.0288106175, -1.2433197138889942], [-48.028741143889, -1.2433744841670022], [-48.028663391389, -1.2434200491669973], [-48.028613077222, -1.2435162775000022], [-48.028533872222, -1.243627625832996], [-48.028454806389, -1.243750474166997], [-48.028430304444, -1.2438965030560132], [-48.028450870556, -1.244000055278001], [-48.028465885556, -1.2441344205560085], [-48.028453896667, -1.244274332777991], [-48.02840213, -1.2443895502780111], [-48.028394183333, -1.2444622008330029], [-48.0284057025, -1.244563712500003], [-48.028385371944, -1.2446856572219966], [-48.02787099487843, -1.2446297135807436], [-48.029472614722, -1.2448083572220092], [-48.029580866389, -1.243653854444]]], [[[-48.023565134167, -1.243854749167005], [-48.023559274444, -1.2437423563889947], [-48.023589938889, -1.2436478544439928], [-48.02366005833301, -1.243608599166991], [-48.023682696111, -1.2435457241670078], [-48.023789936667, -1.243526388333], [-48.023832506111, -1.2434540913890006], [-48.023855944167, -1.2433978661109952], [-48.023963939167, -1.2433119791669982], [-48.024274223056, -1.2432578694440026], [-48.024298552222, -1.2432260594439988], [-48.024332253611, -1.243130516666998], [-48.024364399167, -1.2430086438890127], [-48.024396144167, -1.2428523316670095], [-48.024383662222, -1.242797932222005], [-48.024386068889, -1.2427960891670067], [-48.024433011111, -1.242756500556003], [-48.024518099444, -1.2426783755559951], [-48.024638551389, -1.2426114652779925], [-48.024797072222, -1.2425822686109955], [-48.024907930556, -1.242601466389005], [-48.02501341638901, -1.2426044022219962], [-48.025107008611, -1.2426222677780085], [-48.025113441667, -1.242622861388993], [-48.025247341389, -1.242609843055988], [-48.025286130556005, -1.242627371388999], [-48.025385110278, -1.2426061944439937], [-48.025445459444, -1.2425567222220055], [-48.025500041389, -1.242568356110992], [-48.0256034025, -1.2425722266670054], [-48.02573569, -1.2425898269439943], [-48.02579955416701, -1.2426165436110057], [-48.025916703056, -1.2426240480560073], [-48.0260018675, -1.2426271802779891], [-48.026130946389, -1.2426314449999984], [-48.026250463333, -1.2426130686109993], [-48.026365032222, -1.2426280494440014], [-48.026369454444, -1.2426284861109995], [-48.026472224167, -1.242661924721999], [-48.026558350556, -1.2426638313889968], [-48.026620479167, -1.2426717141670005], [-48.026656035833, -1.2426700152780101], [-48.026707143611, -1.2426523638889977], [-48.026712069444, -1.2426528580560106], [-48.026785690556, -1.2426548424999857], [-48.02686899138901, -1.242645094167001], [-48.026919730278, -1.242622764721985], [-48.026976101389, -1.2426264616669869], [-48.027005456111, -1.2426705180560036], [-48.027083504722, -1.2426945727779912], [-48.027157577778, -1.2426544174999963], [-48.027227326111, -1.2426291741670021], [-48.027300047778, -1.2426460158330044], [-48.027387456667, -1.2426834908330076], [-48.027421859444, -1.242647706110986], [-48.027446604722, -1.242578575556007], [-48.027539839167, -1.2424816727780008], [-48.027570170556, -1.242273031666995], [-48.021956980833, -1.2416706599999923], [-48.021734283889, -1.2439452219439924], [-48.02354041526955, -1.2441466798194587], [-48.023533736111, -1.2441192238890102], [-48.023565134167, -1.243854749167005]]]]}}, {"type": "Feature", "properties": {"Parcela": "F-173", "ANO": 2012, "Ha": 19.32, "PLANTAS": "3.132", "VARIEDADE": "AV do B", "UDF": 42}, "geometry": {"type": "Polygon", "coordinates": [[[-48.021952845556, -1.2416182922219963], [-48.027566629722, -1.2422428377780008], [-48.027512545, -1.2421869363889924], [-48.027516388889, -1.2421122383330074], [-48.027521120278, -1.2420289036109948], [-48.02765156805601, -1.2420526266669956], [-48.027760223611, -1.242032521944], [-48.028025423611, -1.2420789344440046], [-48.028132138333, -1.2420518944440144], [-48.028207271667, -1.2419754219440031], [-48.028309949444, -1.2418543711110046], [-48.028407826944, -1.2417809586110085], [-48.02847660111101, -1.241731159444002], [-48.028495353333, -1.2416468619440075], [-48.028570646111, -1.2415640877780023], [-48.028575588056, -1.2415599663890104], [-48.028631476667, -1.241423608611012], [-48.028760789722, -1.2412015002779964], [-48.028809583889, -1.2410002583329933], [-48.028768237778, -1.2409192738889954], [-48.02872803555601, -1.2408390288890034], [-48.028635548333, -1.2406426047219985], [-48.028549816111, -1.2405151816669995], [-48.028467979722, -1.24041168194399], [-48.028389856667, -1.2403096775000046], [-48.028308306667, -1.240232845278008], [-48.028232404722, -1.2401857049999985], [-48.028202350833, -1.2401454427780103], [-48.028186449444, -1.2400564258329956], [-48.028187245278, -1.239987654999994], [-48.020340860833, -1.2391313333330047], [-48.020329543611, -1.2395763974999923], [-48.020461779444, -1.2396441341669908], [-48.022095761944, -1.2398559000000062], [-48.021952845556, -1.2416182922219963]]]}}, {"type": "Feature", "properties": {"Parcela": "F-183", "ANO": 2021, "Ha": 1.31, "PLANTAS": "176", "VARIEDADE": "PB-141", "UDF": 45}, "geometry": {"type": "Polygon", "coordinates": [[[-48.020282372222, -1.2391183180560001], [-48.018272598889006, -1.2388805883330027], [-48.018270904444, -1.238962822777984], [-48.018244097778, -1.2390615913889915], [-48.018246181667, -1.2390683211109852], [-48.018230651389, -1.2391854080560012], [-48.018210445833, -1.2392953497219983], [-48.018275729444, -1.2394153119440015], [-48.019375320833, -1.2395394777779916], [-48.019544131944, -1.2395509499999908], [-48.019684511667, -1.2395734652780146], [-48.019835743611, -1.2395869533330017], [-48.019978543333, -1.2396054452780085], [-48.020098001667, -1.239615836389004], [-48.020249224167, -1.2396150247220004], [-48.020282372222, -1.2391183180560001]]]}}, {"type": "Feature", "properties": {"Parcela": "F-161", "ANO": 2012, "Ha": 17.24, "PLANTAS": "3.194", "VARIEDADE": "AV do B", "UDF": 38}, "geometry": {"type": "Polygon", "coordinates": [[[-48.035533941667, -1.245517913055985], [-48.029511928889, -1.2448460316669967], [-48.029249793351966, -1.247131543378507], [-48.035341776944, -1.247807354722005], [-48.035533941667, -1.245517913055985]]]}}, {"type": "Feature", "properties": {"Parcela": "F-162", "ANO": 2012, "Ha": 16.85, "PLANTAS": "3.121", "VARIEDADE": "AV do B", "UDF": 38}, "geometry": {"type": "Polygon", "coordinates": [[[-48.035747873611, -1.2431810038889979], [-48.030234190278, -1.2425474525000002], [-48.030077800556, -1.2428022969439998], [-48.029963524722, -1.2430397097220003], [-48.029873009444, -1.2432448419440087], [-48.029738710278, -1.243521265277995], [-48.029659538611, -1.2437046780560137], [-48.029611389167, -1.24392714222199], [-48.029536972778, -1.2446299572220034], [-48.02951242472201, -1.244812269166993], [-48.035544427778, -1.2454687838890022], [-48.035574648056, -1.2452310452779953], [-48.035597666111, -1.2447364388889985], [-48.035636061944, -1.2443159952780152], [-48.035747873611, -1.2431810038889979]]]}}, {"type": "Feature", "properties": {"Parcela": "F-163", "ANO": 2012, "Ha": 12.7, "PLANTAS": "2.262", "VARIEDADE": "AV do B", "UDF": 38}, "geometry": {"type": "Polygon", "coordinates": [[[-48.0302609925, -1.242513467777993], [-48.035744841111, -1.2431747400000037], [-48.035740406111, -1.2430530522219958], [-48.035765205, -1.2428376944439923], [-48.035749100278, -1.2426265650000017], [-48.035775079722, -1.24242863972201], [-48.035783720556, -1.2421824766670013], [-48.035782199167, -1.2420938586109993], [-48.035770395, -1.2420172097220126], [-48.03573327305601, -1.2418709247219912], [-48.035757538611, -1.241677364443998], [-48.035763218611, -1.2415335502780087], [-48.035744533333, -1.2414710461109957], [-48.035684568333, -1.2414204630559986], [-48.03565603861101, -1.241372086667002], [-48.035616538889, -1.2413159316669986], [-48.035552303611, -1.2412438763890083], [-48.035483810556, -1.2411563872219995], [-48.0354958675, -1.2410233908329895], [-48.035477277222, -1.2408842238889914], [-48.035372247778, -1.2408342019439955], [-48.035271785833, -1.240723296388994], [-48.0351430975, -1.2406682080559943], [-48.034998713889, -1.2406568794440087], [-48.034842138611, -1.2406265905560072], [-48.034658738056, -1.240680246111005], [-48.034414379444, -1.2407287136110077], [-48.034019892778, -1.2406318983329883], [-48.033690986111, -1.2406061980559955], [-48.033274155, -1.2406275261109925], [-48.032800956667, -1.2406560927780017], [-48.032256146667, -1.240803834721998], [-48.031674904167, -1.241022136388997], [-48.031279209722, -1.2412917966669872], [-48.03086802583301, -1.2415243691670095], [-48.030616540833, -1.241894902221996], [-48.030612100556, -1.2418991736110045], [-48.0302609925, -1.242513467777993]]]}}]}