{"type": "FeatureCollection", "features": [{"type": "Feature", "properties": {"Parcela": "F-174", "ANO": 2021, "Ha": 22.44, "PLANTAS": "3.340", "VARIEDADE": "PB-141", "UDF": 45}, "geometry": {"type": "Polygon", "coordinates": [[[-48.020342779444, -1.2390910627779859], [-48.028184903611, -1.2399712174999857], [-48.028176024722, -1.2397628316669993], [-48.0281172025, -1.2397635944440053], [-48.028031778333, -1.2398089133330095], [-48.027958353056, -1.2398085847219982], [-48.027882756389, -1.2397954344440067], [-48.027832950278, -1.2397583019439884], [-48.027828539167, -1.2397486558330093], [-48.0277277825, -1.2396712463890047], [-48.027700279444, -1.2396270736109858], [-48.027673546667, -1.239535635000003], [-48.027665961667, -1.2393712350000066], [-48.027717778333006, -1.2388889458330088], [-48.027760026389, -1.2385112011109973], [-48.027743720278, -1.2384154005560006], [-48.027658325278, -1.2383708688889983], [-48.027588646111, -1.2383150630559894], [-48.027493580556, -1.2382690477780025], [-48.027433971111, -1.2382110625], [-48.027361495, -1.2381533694440108], [-48.027327335833, -1.2380649286110013], [-48.027325413889, -1.238062604444004], [-48.027253229444, -1.2379846527780058], [-48.027245299722, -1.2379773861109888], [-48.027180486111, -1.2379590511110046], [-48.027116360833, -1.2378731766670132], [-48.027092438611, -1.237802802222007], [-48.0270283025, -1.237761198333008], [-48.026955041111, -1.237678611389002], [-48.026889448611, -1.2376382955560006], [-48.026839674167, -1.2375744475000128], [-48.026715123611, -1.2374626583330106], [-48.027662745833, -1.2375676319439997], [-48.027686966389, -1.237615449166998], [-48.02777995, -1.2376713372219958], [-48.027783433889, -1.2376760744439879], [-48.027804706389006, -1.237699802777993], [-48.027808112222, -1.2377046080559964], [-48.027949401944, -1.2378451005559992], [-48.028072509722, -1.2379851261109855], [-48.028192775278, -1.2380966983330053], [-48.028199210278, -1.2381057955559946], [-48.028302800556, -1.2382369611110005], [-48.028392138333, -1.238372731389012], [-48.028397751944, -1.2383854091669835], [-48.0285459625, -1.2385574780559938], [-48.028692946667, -1.2386677061109874], [-48.028817704722, -1.238786038055993], [-48.028962236389006, -1.238950297500015], [-48.029136734444, -1.2390482800000024], [-48.029508926944, -1.239275878332989], [-48.029672435, -1.237781073889001], [-48.020605834444, -1.236798129722008], [-48.020342779444, -1.2390910627779859]]]}}, {"type": "Feature", "properties": {"Parcela": "F-184", "ANO": 2021, "Ha": 10.4, "PLANTAS": "1.512", "VARIEDADE": "PB-141", "UDF": 45}, "geometry": {"type": "MultiPolygon", "coordinates": [[[[-48.017424971667, -1.2364359955560005], [-48.01734754388901, -1.2364709752779999], [-48.017245865556, -1.2366209586110064], [-48.017165380556, -1.2368363283329937], [-48.017056566111, -1.2371177161110027], [-48.017057049167, -1.2371208280559947], [-48.016981391389, -1.2372576605559946], [-48.016976098889, -1.237264166944013], [-48.016873250278, -1.2373614841670124], [-48.016870148611, -1.2373650205559987], [-48.016760088889, -1.237444120556003], [-48.016723260833, -1.2374737424999993], [-48.016682443611, -1.2374912836109888], [-48.01664649697757, -1.237505596367985], [-48.0166483625, -1.2375055980559995], [-48.016734813889, -1.237469498332992], [-48.016765499444, -1.2375474188889999], [-48.016772798056, -1.2375588961110051], [-48.016809175556, -1.2376954055560037], [-48.016915836944, -1.2376698669440074], [-48.017025269722, -1.237670364999993], [-48.017111344722, -1.2376772938889915], [-48.017117910556, -1.237685834722002], [-48.017126381667, -1.237796020277988], [-48.01712661, -1.2378012200000006], [-48.017076574167, -1.237933226943996], [-48.017072961389005, -1.2379402900000052], [-48.017080843889, -1.2380394908330075], [-48.017083246667, -1.2380469763890098], [-48.017151489722, -1.2381646869439953], [-48.017218886111, -1.238186095555986], [-48.017230163056, -1.2381823672220056], [-48.017319658611, -1.2381711711110104], [-48.017462456111, -1.2381151888890016], [-48.017586816944, -1.2380805608329954], [-48.017624921389, -1.2380400622219974], [-48.0176948875, -1.2379926122219975], [-48.0177654725, -1.237975439166998], [-48.017806659722, -1.237998974722002], [-48.017808900833, -1.2380039988890001], [-48.017803077778005, -1.238081819444009], [-48.017785741944, -1.2381888088889985], [-48.017773942222, -1.2383308355559943], [-48.0177674375, -1.2384699113890005], [-48.017711155556, -1.2385593766670104], [-48.017723223889, -1.2386346397219912], [-48.017728952222, -1.2386391419439997], [-48.017816018056, -1.238706522222004], [-48.017966221389, -1.238809370000002], [-48.020290555278, -1.2390845255560037], [-48.020573525, -1.2367738869439937], [-48.017473387222, -1.2363996461110092], [-48.017424971667, -1.2364359955560005]]], [[[-48.01642342987654, -1.2374998203624048], [-48.016428883611, -1.2375021227779983], [-48.016519820833, -1.237507651389001], [-48.016580831389, -1.2375097072219978], [-48.016632863611, -1.2375110247219903], [-48.01664649697757, -1.237505596367985], [-48.016538155278, -1.2375054983330023], [-48.01642342987654, -1.2374998203624048]]], [[[-48.016407073056, -1.2374990108329946], [-48.01642342987654, -1.2374998203624048], [-48.01640742928039, -1.237493065354023], [-48.016407073056, -1.2374990108329946]]], [[[-48.01613782747143, -1.237342033369864], [-48.016137830278, -1.2373421069440103], [-48.016274187778, -1.2374065044440008], [-48.016358274167, -1.2374593683329982], [-48.016398485278, -1.2374892894440008], [-48.01640742928039, -1.237493065354023], [-48.0164074775, -1.2374922605560035], [-48.016291554722, -1.2374130444439955], [-48.01613782747143, -1.237342033369864]]], [[[-48.01610299416701, -1.2370858802780096], [-48.016174106667, -1.2369685616669974], [-48.016181389167, -1.2369638347220029], [-48.016265559444, -1.2368453430560005], [-48.016324304722, -1.2367089547220036], [-48.016334064444, -1.2367020224999945], [-48.016416991944, -1.2365695575000089], [-48.016490448056, -1.236482676666988], [-48.01653331000001, -1.2363858636109977], [-48.015393053333, -1.2362253527780056], [-48.015291373056, -1.2372185086109921], [-48.015286661667, -1.2374331661110003], [-48.015980631667, -1.2373429163890037], [-48.016116034722, -1.2373319666669937], [-48.01613782747143, -1.237342033369864], [-48.016135871389, -1.2372907547219936], [-48.016126407778, -1.2371885172220043], [-48.01610299416701, -1.2370858802780096]]]]}}, {"type": "Feature", "properties": {"Parcela": "G-161", "ANO": 2012, "Ha": 15.13, "PLANTAS": "1.889", "VARIEDADE": "AV do B", "UDF": 39}, "geometry": {"type": "Polygon", "coordinates": [[[-48.030414849722, -1.236961341666993], [-48.030415688333, -1.2366682905560042], [-48.030423001111, -1.2366613788889942], [-48.030450343889, -1.236392764999995], [-48.030482841389, -1.236089971944004], [-48.030424284167, -1.235943476667011], [-48.030356689444, -1.2357539897220018], [-48.030260093611, -1.235552583888997], [-48.029964114167, -1.2354421302779943], [-48.029698570556, -1.237768240000001], [-48.030297259167, -1.2378535811109956], [-48.030306721111, -1.2378354583330051], [-48.030342745278, -1.2376895955560028], [-48.030357055278, -1.2373274950000073], [-48.030363815556, -1.2373250224999923], [-48.030414849722, -1.236961341666993]]]}}, {"type": "Feature", "properties": {"Parcela": "G-162", "ANO": 2012, "Ha": 16.12, "PLANTAS": "2.937", "VARIEDADE": "AV do B", "UDF": 39}, "geometry": {"type": "Polygon", "coordinates": [[[-48.030084832778, -1.2344248113890155], [-48.030118844444, -1.2344320658330021], [-48.030123961389, -1.2344326516669981], [-48.0301324925, -1.2344336280560138], [-48.030250813333, -1.234447238889006], [-48.030257616944, -1.234449708333008], [-48.030395679444005, -1.2344605738890022], [-48.030577899444, -1.234474808610996], [-48.030686341389, -1.234478824722004], [-48.03082287, -1.2344911555560092], [-48.030991599444, -1.2344336591670093], [-48.031158835228666, -1.2332351465993052], [-48.030220547778, -1.2331272119440027], [-48.03005768, -1.2344166591669903], [-48.030084832778, -1.2344248113890155]]]}}, {"type": "Feature", "properties": {"Parcela": "G-163", "ANO": 2012, "Ha": 17.99, "PLANTAS": "3.279", "VARIEDADE": "AV do B", "UDF": 39}, "geometry": {"type": "Polygon", "coordinates": [[[-48.030442846667, -1.230783079721998], [-48.030220841667, -1.233103502499997], [-48.03117919, -1.2332321063889895], [-48.031229934167, -1.2332362986109988], [-48.031574393056, -1.2309638227779875], [-48.030442846667, -1.230783079721998]]]}}, {"type": "Feature", "properties": {"Parcela": "G-171", "ANO": 2021, "Ha": 23.88, "PLANTAS": "3.573", "VARIEDADE": "PB-141", "UDF": 45}, "geometry": {"type": "Polygon", "coordinates": [[[-48.020611280278, -1.2367524577779987], [-48.0266881925, -1.2374203377780046], [-48.026575947222, -1.2372344222219949], [-48.026525790278, -1.2371409236110096], [-48.026492672778, -1.2370577222219998], [-48.026428842222, -1.236976674721996], [-48.026376446667, -1.2368627002780015], [-48.026372418056, -1.2368577283330062], [-48.026304243333, -1.2368052519439958], [-48.026253033333, -1.2367383883329934], [-48.026141508611005, -1.2366438438889917], [-48.026042605833, -1.2365937497220056], [-48.025961393056, -1.2365696102780075], [-48.025838303056, -1.2365201058329918], [-48.025786368333, -1.2364597747220067], [-48.025730765833, -1.2364140058329924], [-48.025701923056, -1.236352920833003], [-48.025701944444, -1.236350535556002], [-48.025663776389, -1.2362958649999907], [-48.025634967778, -1.2362153133330016], [-48.025581385833, -1.236174538611004], [-48.02547747916701, -1.2361021699999954], [-48.025412975278, -1.2360597238890092], [-48.025410693333, -1.235944658889009], [-48.025421539167, -1.2358081672220034], [-48.025380822778, -1.235791177222013], [-48.025372966389, -1.2357153897220117], [-48.025266331944, -1.235671070277988], [-48.025154011667, -1.2355792563889942], [-48.02516089, -1.2353957866669971], [-48.025160748611, -1.235392299721993], [-48.025176275833, -1.2351774847219987], [-48.025285100278, -1.2351205322220067], [-48.025403866389, -1.2351479355559902], [-48.025516191944, -1.2352399863889951], [-48.025674663611, -1.23534108055599], [-48.025780205278004, -1.2354211991669943], [-48.025847380278, -1.2354518322219938], [-48.025946056389, -1.23550159722199], [-48.025954324444, -1.2355106858330018], [-48.026017658889, -1.235603565833001], [-48.026018166944, -1.2356118552780024], [-48.026068893611, -1.2356944311109956], [-48.026038306389, -1.2358171372219984], [-48.026122880833, -1.2359202888890028], [-48.02623471, -1.235997006389005], [-48.026384186667, -1.236037008610995], [-48.026449162222, -1.236130871943998], [-48.026560675833, -1.2362531319439864], [-48.026552276111, -1.236338920832997], [-48.026603480833, -1.2364596966669994], [-48.026668057778, -1.2365332947220042], [-48.02680118, -1.2366103094440009], [-48.026944892778, -1.2366208319439898], [-48.027062641111, -1.2366862627780058], [-48.027066218333, -1.2366902402780013], [-48.027123129444, -1.236785501944], [-48.027165249167005, -1.2368955972219928], [-48.027175610556, -1.2369104877780046], [-48.027240314444, -1.2370127758329965], [-48.027280416389, -1.2370945500000097], [-48.0272837875, -1.2370947922220146], [-48.027364041944, -1.237182501110994], [-48.027416805278, -1.2372571680559867], [-48.027467979722005, -1.2373566183329934], [-48.027517108333, -1.2375024458329977], [-48.029674706944, -1.2377216672219988], [-48.029901133056, -1.2354420000000008], [-48.020818610556, -1.2344312472220036], [-48.020611280278, -1.2367524577779987]]]}}, {"type": "Feature", "properties": {"Parcela": "G-172", "ANO": 2019, "Ha": 24.42, "PLANTAS": "4.484", "VARIEDADE": "AV do B", "UDF": 45}, "geometry": {"type": "Polygon", "coordinates": [[[-48.0208371975, -1.2344084963890114], [-48.02990608833301, -1.2354234619439979], [-48.030159846111, -1.2331172330560014], [-48.024851655278, -1.2325176147219983], [-48.024676039722, -1.2326772708329892], [-48.024413428333, -1.2326781669440052], [-48.024062557222, -1.2326514658330057], [-48.02354406972201, -1.2325826308329944], [-48.022510709444, -1.232463498332989], [-48.022275202778, -1.2324376841669915], [-48.021981442222, -1.2323516030559998], [-48.021841524444, -1.2324141102779929], [-48.021767826667, -1.2325496777779943], [-48.021705545556, -1.232712430555986], [-48.021652055278, -1.2328403416669935], [-48.021580731389, -1.232970697500003], [-48.021485911944, -1.2330784530559973], [-48.021427865833, -1.2331902822219987], [-48.021373213056, -1.2333320813889956], [-48.021282319444, -1.2333419047219862], [-48.021178719722, -1.2333433186110077], [-48.020997829444, -1.2333257511109885], [-48.020928542222, -1.2334308763889983], [-48.0208371975, -1.2344084963890114]]]}}, {"type": "Feature", "properties": {"Parcela": "G-173", "ANO": 2019, "Ha": 12.75, "PLANTAS": "2.414", "VARIEDADE": "AV do B", "UDF": 44}, "geometry": {"type": "Polygon", "coordinates": [[[-48.024868735278, -1.232482786110997], [-48.030165553333, -1.2330930652779974], [-48.030409360833, -1.2307905022220074], [-48.026854614167, -1.2303690724999983], [-48.026581916944, -1.2306837244439979], [-48.026303396667, -1.2309584927780097], [-48.025680154444, -1.2316018977780026], [-48.025275116111, -1.2320113419440002], [-48.024868735278, -1.232482786110997]]]}}, {"type": "Feature", "properties": {"Parcela": "G-181", "ANO": 2021, "Ha": 2.82, "PLANTAS": "1.775", "VARIEDADE": "PB-141", "UDF": 45}, "geometry": {"type": "MultiPolygon", "coordinates": [[[[-48.020571590833, -1.236730974722006], [-48.020766548611, -1.234423450000001], [-48.019328382222, -1.2342777108330063], [-48.019166129167004, -1.2342804986110012], [-48.019010238611, -1.234359866111004], [-48.018876863889, -1.2344216258330039], [-48.018742820833, -1.2344275405559975], [-48.018664390833, -1.2344628058330043], [-48.018604087778, -1.2345434633330064], [-48.018477888333, -1.2346789797219964], [-48.01827788, -1.2349368063889878], [-48.018275598333, -1.2349365761109925], [-48.018147360833, -1.2351665216669927], [-48.018023775833, -1.2352920444439965], [-48.018022108611, -1.2353010702779958], [-48.017858256667, -1.2354964611110058], [-48.017751943611, -1.2356450044439995], [-48.017623179444, -1.2358198469439992], [-48.017564811667, -1.2359198319439992], [-48.017549031111, -1.2360234602780034], [-48.017545078333, -1.236141804722003], [-48.017460466389, -1.236225083332993], [-48.017410559167, -1.2362967419440065], [-48.017406423611, -1.2362984555560084], [-48.017405885278, -1.2363769622219907], [-48.01661451502502, -1.236276227980639], [-48.0166145175, -1.2362764122220038], [-48.017406161944, -1.2363776844440035], [-48.020571590833, -1.236730974722006]]], [[[-48.016612874167, -1.2361540808329952], [-48.016660743333, -1.2359613647220056], [-48.016737226111, -1.2357761138890055], [-48.016803601667, -1.2356924633330062], [-48.016903685833, -1.235584714722005], [-48.0169695825, -1.2354427524999962], [-48.016973123333, -1.2354399477779872], [-48.01704046, -1.2352767749999938], [-48.017138415278, -1.235180970833011], [-48.017237913333, -1.235127180833003], [-48.017321663056, -1.2348920100000071], [-48.017483540556, -1.2345658708330147], [-48.017626120833, -1.2343228191670015], [-48.017726116667, -1.2340415783329963], [-48.015640042778, -1.2338821161110087], [-48.015417478889, -1.2361238558329948], [-48.01661451502502, -1.236276227980639], [-48.016612874167, -1.2361540808329952]]]]}}, {"type": "Feature", "properties": {"Parcela": "G-182", "ANO": 2021, "Ha": 4.59, "PLANTAS": "941", "VARIEDADE": "AV do B", "UDF": null}, "geometry": {"type": "MultiPolygon", "coordinates": [[[[-48.019459603611, -1.2342691980559948], [-48.01946616249054, -1.2342489763298907], [-48.01800195186934, -1.234081658042179], [-48.019459603611, -1.2342691980559948]]], [[[-48.01775356889408, -1.234049978154477], [-48.017761670556, -1.2340542005559985], [-48.01800195186934, -1.234081658042179], [-48.017760383611, -1.2340505780560047], [-48.01775356889408, -1.234049978154477]]], [[[-48.020695120278, -1.2335534236109837], [-48.020613804444, -1.2336215277780032], [-48.02049919166701, -1.2336381622220058], [-48.020386176944, -1.2337109494439995], [-48.02027103, -1.2337621908330065], [-48.020154157222, -1.2337736480559998], [-48.020149555278, -1.2337733255559937], [-48.020068059444, -1.2338580999999984], [-48.019974022778, -1.233918310556009], [-48.019810084444, -1.2339696719440063], [-48.01965339694401, -1.2340125130560158], [-48.019646683056, -1.2340118341670039], [-48.019637736389, -1.2340109333330072], [-48.019531971944, -1.2340531391669995], [-48.019529753333, -1.234052918889012], [-48.01946616249054, -1.2342489763298907], [-48.020768637222, -1.2343978122220016], [-48.020841579167, -1.2334578625000134], [-48.020695120278, -1.2335534236109837]]], [[[-48.017802911111005, -1.233857363888998], [-48.017715156111, -1.2338153725000078], [-48.017629342222, -1.2337499077779925], [-48.017526349722, -1.2336691158329995], [-48.017477316667, -1.2335615880560018], [-48.017483924167, -1.2334327733329944], [-48.017487786944, -1.233429428332999], [-48.017544219444, -1.2333194780560066], [-48.017652619722, -1.2331913186109915], [-48.017730554444, -1.233106459167003], [-48.017757104167, -1.2329254341669997], [-48.017755091944, -1.232747847221994], [-48.017764735556, -1.2326389544439904], [-48.0177566325, -1.2324879894439857], [-48.017739482222, -1.2321967466669974], [-48.017739420556, -1.232047271666999], [-48.0177437125, -1.2318962699999985], [-48.015714435278, -1.2317040708330014], [-48.015710021667, -1.232165722778005], [-48.015658061389, -1.232618794721993], [-48.015587405556, -1.233859289444006], [-48.01775356889408, -1.234049978154477], [-48.017712816944, -1.2340287391670055], [-48.017802911111005, -1.233857363888998]]]]}}, {"type": "Feature", "properties": {"Parcela": "F-164", "ANO": 2012, "Ha": 1.46, "PLANTAS": "725", "VARIEDADE": "AV do B", "UDF": 38}, "geometry": {"type": "Polygon", "coordinates": [[[-48.029688003611, -1.237802641666999], [-48.029514076667, -1.2392895830560124], [-48.029560503889, -1.2393437222219912], [-48.029566149444, -1.2393468872219944], [-48.029695186111, -1.2394690086110118], [-48.029799785833, -1.2395472566670065], [-48.029807602222, -1.239547798333005], [-48.029818536944, -1.239553941944004], [-48.02996343, -1.239570656110995], [-48.029971326944, -1.239571301111], [-48.029987118333, -1.2395725919439942], [-48.030136015, -1.23955550861099], [-48.030197809444, -1.2394774630559968], [-48.030254642222, -1.2392838755560005], [-48.03025456750001, -1.239275253332986], [-48.03029825972201, -1.2390482383330068], [-48.030314922778, -1.2388012802780064], [-48.030317839444, -1.238785024166994], [-48.030330230556, -1.2385208874999973], [-48.030339378333, -1.2385002600000068], [-48.030353335833, -1.2381621930560105], [-48.030338881944, -1.2379192461110118], [-48.030220965, -1.237888714722012], [-48.029688003611, -1.237802641666999]]]}}]}