{"type": "FeatureCollection", "features": [{"type": "Feature", "properties": {"Parcela": "G-151", "ANO": 2012, "Ha": 13.72, "PLANTAS": "1.926", "VARIEDADE": "AV do B", "UDF": 30}, "geometry": {"type": "Polygon", "coordinates": [[[-48.04993921770547, -1.237706307516788], [-48.039085359722, -1.236478165833001], [-48.038966434722, -1.237576215833], [-48.039050397222, -1.237599554999999], [-48.039155347222, -1.2375937100000005], [-48.039369105, -1.2376354511110055], [-48.039522416389, -1.2376410716670019], [-48.03966879, -1.2376539144440064], [-48.039882846944, -1.2376817988890059], [-48.040021098889, -1.237698864443992], [-48.040219883333, -1.2377132622219948], [-48.040227578056, -1.2377141419439925], [-48.040436778889, -1.2377611494440008], [-48.040582163333006, -1.2377771649999942], [-48.040750401389, -1.2377870658329964], [-48.04095000166701, -1.2378090430560083], [-48.041168958611, -1.2378317261109937], [-48.041359541389, -1.2378662205559923], [-48.041506341667, -1.237889388055996], [-48.041676486389, -1.2379002027780042], [-48.0416841475, -1.237904942221996], [-48.041842795833, -1.2379300972219947], [-48.042056036667, -1.2379649424999897], [-48.042196288889, -1.2379724202779985], [-48.042200114167, -1.237972843889008], [-48.042209678611, -1.2379739016669877], [-48.042324331111, -1.237959448888999], [-48.042387375833, -1.2379991349999961], [-48.042509081667, -1.238000540278003], [-48.042688625833, -1.2380252661110032], [-48.04279753, -1.2380469255560103], [-48.042897677778, -1.2380769011109851], [-48.043093495, -1.2380863008330085], [-48.0433043575, -1.238120945555994], [-48.043415784167, -1.2381197966670046], [-48.043526643333, -1.2381318555560072], [-48.043532436111, -1.2381325263890055], [-48.043649776389, -1.238155075278004], [-48.043783024167, -1.2381691652779974], [-48.043944739444, -1.2381934247220088], [-48.0440285125, -1.238213861388998], [-48.044228719167, -1.2382408058329952], [-48.04439847777801, -1.2382644527780027], [-48.044402306667, -1.2382648663890092], [-48.044649176111, -1.238276184722], [-48.044811584444, -1.2382989177779957], [-48.044899460833, -1.2383081213889997], [-48.044901377222, -1.238308325832998], [-48.044985793889, -1.2383135861109928], [-48.0450454775, -1.2383334363889948], [-48.045056990278006, -1.2383365844439966], [-48.045066572778, -1.2383376108329913], [-48.045078071667, -1.2383388416670011], [-48.045091489444, -1.2383402772220085], [-48.045183594444, -1.2383442566670138], [-48.045299041389, -1.238352498056], [-48.045386681944, -1.2383791950000071], [-48.045479845833, -1.2383949333330067], [-48.045629826111, -1.2384206358330019], [-48.045728061667, -1.2384501575000109], [-48.045733773889, -1.2384507619440075], [-48.045741391667, -1.2384515711110065], [-48.045832424167, -1.2384382469439987], [-48.04583614666701, -1.2384328591670057], [-48.045935973056, -1.238435566944], [-48.046058730278, -1.2384596083329922], [-48.046484446111, -1.2385220474999972], [-48.04648636166701, -1.2385222483329914], [-48.046627795556, -1.2385079608329923], [-48.04677372527801, -1.2385407894439995], [-48.046777743889, -1.2385450741670037], [-48.046874051667, -1.238522537222006], [-48.046898674167, -1.2384382322220042], [-48.046898631111006, -1.2384341933329885], [-48.046898500833, -1.2384220427779988], [-48.046901971111, -1.2383321636110076], [-48.046837226111, -1.2382418972219866], [-48.046798796667005, -1.2381939269439943], [-48.046750782222, -1.2381413127779934], [-48.046746449444, -1.2381385277780006], [-48.0467219975, -1.238051673055998], [-48.046673751389, -1.2379732922220006], [-48.046670421111, -1.2378587844440052], [-48.046586016389, -1.2376897094440076], [-48.046528317778, -1.2375316491669892], [-48.04648494717058, -1.2373319813149422], [-48.04699063492328, -1.2373849379866844], [-48.04747146023811, -1.2374337890634186], [-48.047488263333, -1.237547056111001], [-48.047545648333, -1.2376073463889972], [-48.047614990556, -1.2376449391669981], [-48.047645023056, -1.237721535277992], [-48.047681140556, -1.2378406686109948], [-48.047719528889004, -1.2378951505559954], [-48.04779438300117, -1.2379273755681688], [-48.04783741473495, -1.2379335120940926], [-48.047857377222, -1.2379890597220045], [-48.047897015948195, -1.2380963502535796], [-48.047951517222, -1.2382040052780032], [-48.047951237222, -1.2382079794440133], [-48.048085509167, -1.238306176389006], [-48.048150396667, -1.2384300358330083], [-48.048229413227354, -1.2385269474365226], [-48.048301111667, -1.2385853880560036], [-48.048403814722, -1.238612131944003], [-48.04848563498639, -1.2386338805591428], [-48.048487545278, -1.2386966008330111], [-48.0498189625, -1.2388594694440007], [-48.04993921770547, -1.237706307516788]]]}}, {"type": "Feature", "properties": {"Parcela": "G-152", "ANO": 2012, "Ha": 13.52, "PLANTAS": "3.815", "VARIEDADE": "AV do B", "UDF": 30}, "geometry": {"type": "MultiPolygon", "coordinates": [[[[-48.047236165833, -1.2373437916670054], [-48.047236037291334, -1.2373414499227933], [-48.04703444803712, -1.2373215946757574], [-48.047236165833, -1.2373437916670054]]], [[[-48.0465538875, -1.2372742625000004], [-48.04703444803712, -1.2373215946757574], [-48.0465509845426, -1.23726839438893], [-48.0465538875, -1.2372742625000004]]], [[[-48.046823722778, -1.2350093941669893], [-48.046860965278, -1.235110527777996], [-48.046863296667006, -1.2351168397219943], [-48.046901337222, -1.235157233610996], [-48.046909966667, -1.2352157386109948], [-48.0468249, -1.2352430083329953], [-48.046809208889, -1.2352474272220013], [-48.046799195556, -1.2352554627780095], [-48.0467958575, -1.2352581422219966], [-48.046762517778, -1.2352848861110117], [-48.0467525275, -1.2352928974999866], [-48.046742212778, -1.2353038797220022], [-48.046701676944, -1.235368951943998], [-48.046694367222, -1.2353802386110049], [-48.046690366667, -1.2354432619439948], [-48.046689046389, -1.2354551794440085], [-48.046674553056, -1.2355862402780073], [-48.046672057778, -1.2356914413890001], [-48.046760366667, -1.2358007622220148], [-48.046826823056, -1.2358867205560018], [-48.046796273056, -1.235943823055994], [-48.046798953333, -1.2359471511110083], [-48.046854896667, -1.2360439805559977], [-48.046854559444, -1.2360469583330032], [-48.046860922222, -1.2361500386109945], [-48.046908465278, -1.2362092444439938], [-48.046962713056, -1.2362361161110123], [-48.047041537778, -1.2363211444440092], [-48.047046835833, -1.2363830330559993], [-48.047070891111, -1.236468231389007], [-48.047109396111004, -1.2365608749999957], [-48.047125257778, -1.2366903183329911], [-48.047121907222, -1.236692984444015], [-48.047102956389, -1.236833274443997], [-48.047141436111, -1.236999915556008], [-48.047141094444, -1.2370028794439996], [-48.047133694722, -1.2370953969439886], [-48.047193478889, -1.237156065833011], [-48.047263957222, -1.237199422499999], [-48.047232871944, -1.237266237221991], [-48.047232239722, -1.237272266666985], [-48.047236037291334, -1.2373414499227933], [-48.047986530833, -1.237415368611003], [-48.048234213611, -1.2351557288889994], [-48.046823722778, -1.2350093941669893]]], [[[-48.04651275861101, -1.2371857908330024], [-48.0464497575, -1.2371266419439908], [-48.046331141667, -1.2371052861110077], [-48.046258794444, -1.237050464443992], [-48.046168820278, -1.236930087221988], [-48.04606681666701, -1.2368326124999978], [-48.046058721111, -1.2368289297219965], [-48.046001638056, -1.2367302133330078], [-48.045914938333, -1.2366685277780056], [-48.045838471667, -1.2366574869439932], [-48.0457697575, -1.2366309894439982], [-48.045727424722, -1.2366155494439894], [-48.045672832222, -1.2365555027779973], [-48.045631906944, -1.2365100941670026], [-48.045573495, -1.2364489091670148], [-48.045434101944, -1.2363341644439974], [-48.045331608889, -1.236233868333002], [-48.045254392778, -1.236149706110996], [-48.045155945556, -1.236048566943996], [-48.045153801389, -1.2360426747220152], [-48.04499953, -1.2359433444440042], [-48.044936275278, -1.2358682724999972], [-48.044911201111, -1.2357855372219961], [-48.044889262778, -1.2357417327779934], [-48.044825578611, -1.2356963672220136], [-48.044823516667, -1.2356906502780047], [-48.044770775, -1.2356300155559943], [-48.044798502222, -1.2355614163890072], [-48.044711717778, -1.2355161444439973], [-48.044706530278, -1.2355128080559983], [-48.044640649722005, -1.235455744166999], [-48.04457118833301, -1.2354092869439905], [-48.044542825556, -1.2353700616669983], [-48.04454453750001, -1.2353563661109914], [-48.044522648333, -1.235309424721988], [-48.044391084722, -1.2352221338890075], [-48.044375554444, -1.2352119919439988], [-48.044344607222, -1.235146818888999], [-48.0442700875, -1.235090571110992], [-48.044243958889, -1.2350310750000044], [-48.044245051667, -1.235022703333004], [-48.044247247222, -1.235005945555996], [-48.044252429444, -1.234901294443998], [-48.044283508333, -1.2348416086109948], [-48.044218077778, -1.2347177805559888], [-48.03934192305601, -1.2341757347219966], [-48.039091181944, -1.2364475097219951], [-48.0465509845426, -1.23726839438893], [-48.046509961667, -1.2371854697219966], [-48.04651275861101, -1.2371857908330024]]]]}}, {"type": "Feature", "properties": {"Parcela": "G-153", "ANO": 2012, "Ha": 4.32, "PLANTAS": "3.477", "VARIEDADE": "AV do B", "UDF": 30}, "geometry": {"type": "MultiPolygon", "coordinates": [[[[-48.048495475833, -1.2328361161110035], [-48.044691419167, -1.2324291811110033], [-48.0447569, -1.2325653961109995], [-48.044843967222, -1.2325705288889943], [-48.044923332222, -1.232599670832993], [-48.044923300833005, -1.2326037538890149], [-48.044960390278, -1.2326914291669888], [-48.044956453333, -1.2327074288889979], [-48.045069266667, -1.2327545586109923], [-48.045113585278, -1.232825863332997], [-48.045078156944, -1.232932299443998], [-48.045078044722, -1.2329403027780061], [-48.0450572775, -1.2330985397219951], [-48.045057224444, -1.2331024986110009], [-48.045014991389, -1.2332066450000063], [-48.045152294722, -1.2332865169440035], [-48.045208260556, -1.2332263222219932], [-48.04524792, -1.2330979394439938], [-48.045322421111, -1.2329914936109927], [-48.045432696111, -1.2328835211109943], [-48.045562519444, -1.2327924513889972], [-48.045698793611, -1.2327622780560006], [-48.045809375, -1.2328071891670058], [-48.0458582625, -1.232843283332997], [-48.045937680833, -1.2328856819439904], [-48.045969485556, -1.2329565875000068], [-48.045959139167, -1.2330199633330063], [-48.045967987222, -1.2330845991669988], [-48.045967653333, -1.2330925486109905], [-48.045959498056, -1.233103875278004], [-48.0459142375, -1.233179942221991], [-48.045857756111, -1.2333900002779992], [-48.045883481667, -1.2335332422219991], [-48.045883237778, -1.233541041943999], [-48.04582645277801, -1.2336806577779935], [-48.045825881944, -1.2336999263890136], [-48.045825763056, -1.233703772778003], [-48.045807934722, -1.2338024061110096], [-48.045807606944, -1.233813872222001], [-48.04577535833301, -1.233906905555985], [-48.045775149722, -1.233914489444004], [-48.045761771389, -1.233996798611002], [-48.0457949, -1.2341231836109958], [-48.045794790833, -1.2341269149999907], [-48.045826223333, -1.23417773499999], [-48.045894887222, -1.234205105556], [-48.046037233333, -1.234234382221993], [-48.046110210278, -1.2342548363890058], [-48.046208501111, -1.2342846305559967], [-48.046215343889, -1.2342962730559983], [-48.046306995278, -1.2343069952780081], [-48.046397266111, -1.2343435108330068], [-48.04646596, -1.2343672400000045], [-48.046472294167, -1.2344523638890073], [-48.046482648611, -1.234464158332992], [-48.046508360833, -1.2345283072220001], [-48.046587195833, -1.2346180180559954], [-48.046602334444, -1.2347275722219864], [-48.046695045278, -1.2348672919440045], [-48.046694579722, -1.2348743933329922], [-48.046755487222, -1.2349361111110122], [-48.046758833333, -1.2349399322220018], [-48.04679640336227, -1.2349563023557664], [-48.048228564444, -1.2351136483329939], [-48.048495475833, -1.2328361161110035]]], [[[-48.044247798333, -1.2346762955560076], [-48.044249418056, -1.2346036502780064], [-48.044249770556, -1.2346014566669963], [-48.044237870278, -1.234535573611], [-48.044268733333, -1.2344722091669995], [-48.044228213889006, -1.2344252325000016], [-48.044193483056, -1.2343525580560109], [-48.044150715833, -1.234297183333002], [-48.044099515833, -1.2341972458330044], [-48.044022422222, -1.2341202875000021], [-48.043988978611, -1.2340086422220078], [-48.043924334722, -1.2338844186110003], [-48.043850715, -1.2337530336110014], [-48.043781751389, -1.2336558058329983], [-48.043760243056, -1.233611911666988], [-48.043724049167, -1.2334912047220001], [-48.043721636667, -1.2334884311110055], [-48.043696251944, -1.2333584797219908], [-48.043652776111, -1.2332701122219973], [-48.043540666111, -1.233207418333003], [-48.043445260556, -1.2331996849999989], [-48.043348132778, -1.2332133044439955], [-48.043229228611, -1.2331795216670083], [-48.04305329138901, -1.2330652886109992], [-48.042812587222, -1.2328817447219935], [-48.04270079, -1.232771667499998], [-48.0426962425, -1.232760825555992], [-48.042655591111, -1.232654414722004], [-48.042655992778, -1.2326491141669962], [-48.0426118975, -1.2325025099999918], [-48.042616120833, -1.2323643491670089], [-48.042616316944, -1.2323615638889984], [-48.042587948333, -1.2321593672219964], [-48.039612265278, -1.2318633124999965], [-48.039352602222, -1.234127396111], [-48.046818436667, -1.2349659027779971], [-48.04679640336227, -1.2349563023557664], [-48.044247798333, -1.2346762955560076]]]]}}, {"type": "Feature", "properties": {"Parcela": "G-154", "ANO": 2012, "Ha": 17.77, "PLANTAS": "3.237", "VARIEDADE": "AV do B", "UDF": 30}, "geometry": {"type": "Polygon", "coordinates": [[[-48.04259151264785, -1.2318654894667789], [-48.04256154475996, -1.23182445679488], [-48.04255877180618, -1.2317779172255734], [-48.04257504587388, -1.2317368313699106], [-48.042575039657855, -1.2317313557585103], [-48.042555933588176, -1.2316738837350636], [-48.0425232611331, -1.2316465432131316], [-48.04252865474719, -1.23160546986975], [-48.04250411777825, -1.2315562175142576], [-48.042466011311696, -1.2315343588539422], [-48.0424768327313, -1.2314823280301184], [-48.04249036183892, -1.2314193428561853], [-48.04247671155254, -1.231375553597372], [-48.04248201507966, -1.231255083880854], [-48.04242482432896, -1.2311949178112633], [-48.04231867462227, -1.2311375458168636], [-48.042269690811665, -1.231118437447052], [-48.04224251451157, -1.2311403711630402], [-48.04218807493743, -1.231107580009611], [-48.042073721394246, -1.2310118880641945], [-48.04199760474839, -1.2310530426958568], [-48.04195683717756, -1.2310832054645477], [-48.041915998174, -1.2310503986644974], [-48.04187247632149, -1.231050448677256], [-48.04182623435127, -1.2310505018150177], [-48.041774514881666, -1.2310177075100837], [-48.04176356610066, -1.2309574882408185], [-48.04171453880392, -1.2309000505315975], [-48.04173081603026, -1.2308617024697528], [-48.04170898679514, -1.2308014956961457], [-48.041621908928406, -1.2307714798040827], [-48.04156472439709, -1.2307167892581985], [-48.04151298941326, -1.230670305881719], [-48.04148849905306, -1.2306621205760566], [-48.041458587084584, -1.2306703683699747], [-48.04140420337811, -1.2306868577094896], [-48.04128730043806, -1.2307417482353475], [-48.04126277282283, -1.23070070921846], [-48.04122469428776, -1.2307034907670305], [-48.04119479783121, -1.2307254276074546], [-48.04114858377376, -1.2307501210037666], [-48.041121398120055, -1.230763841293549], [-48.04105061608889, -1.2307119041408663], [-48.04094995931859, -1.2307010684900872], [-48.040892787184475, -1.2306573291317167], [-48.040887303499176, -1.2306190060385973], [-48.040925344803924, -1.230583370777604], [-48.04102328455687, -1.2305969473740985], [-48.041061356890886, -1.2305886902124796], [-48.041099395084174, -1.2305503171463317], [-48.041066716434734, -1.2305175009155909], [-48.04103407192275, -1.2305148005888404], [-48.040957908632194, -1.230514888047292], [-48.040876314410234, -1.2305231951805655], [-48.04074848748321, -1.2305397688403856], [-48.04069681144285, -1.2305453038041372], [-48.04069141154706, -1.2305809015878248], [-48.04063156894146, -1.2305809703012998], [-48.04057445265733, -1.2305865115118888], [-48.04039774112293, -1.2306715866684879], [-48.04036518347782, -1.2307455450551297], [-48.04028357679087, -1.230742900945896], [-48.0401530669, -1.230792331478699], [-48.0400035192514, -1.2308445216927417], [-48.039951836963056, -1.2308445810355775], [-48.039910973094955, -1.2307898716337091], [-48.03983750501497, -1.2307680534545888], [-48.03972869087274, -1.230759964932107], [-48.03962239760894, -1.2317758170042095], [-48.04255369527231, -1.2320982467562798], [-48.04258622162746, -1.231996910396458], [-48.04259151264785, -1.2318654894667789]]]}}]}