{"type": "FeatureCollection", "features": [{"type": "Feature", "properties": {"Parcela": "J-162", "ANO": 2025, "Ha": 4.45, "PLANTAS": "626", "VARIEDADE": "PB-121", "UDF": null}, "geometry": {"type": "Polygon", "coordinates": [[[-48.041808282778, -1.2061870869440006], [-48.03846458055601, -1.205815055000003], [-48.038438307222, -1.2059774819440028], [-48.038499702222, -1.2060916908330046], [-48.038500051389, -1.2061009097219924], [-48.038500630833, -1.2061162349999985], [-48.038553102222, -1.206314306944012], [-48.038596555556, -1.2064355175000017], [-48.038707628889, -1.2066255483330002], [-48.038877696389, -1.2067630641669986], [-48.038949918889, -1.206880012778013], [-48.039128912222004, -1.2070005722220052], [-48.039394921389, -1.207099992777993], [-48.039575540833, -1.207097354721998], [-48.039687365556, -1.2070189252780053], [-48.039690053889004, -1.207009054444], [-48.039846192778, -1.206960511110997], [-48.039938815556, -1.2069648399999915], [-48.040049648056, -1.2070159999999952], [-48.040143679444, -1.2071104761110005], [-48.040305459444, -1.2071697558329957], [-48.040499082778, -1.207245717778009], [-48.040663713611, -1.2073191580560048], [-48.040809428333, -1.2073441038889954], [-48.040957965556, -1.2073605830560075], [-48.040962265278, -1.2073597113889944], [-48.040969364722, -1.2073592330559988], [-48.04107515083301, -1.2073785550000073], [-48.041178856111, -1.2074121955559964], [-48.041185792222, -1.2074131580559926], [-48.041191340833, -1.2074139266670003], [-48.041199663611, -1.207415082499991], [-48.0413541675, -1.2074233327780004], [-48.041361113611, -1.2074242963890096], [-48.041375236111, -1.2074247861110008], [-48.041476365278, -1.2074167247219947], [-48.041479675833, -1.2074142294440098], [-48.0415773075, -1.207363296667005], [-48.0416776025, -1.2073373963889993], [-48.041810111111, -1.2061873374999932], [-48.041808282778, -1.2061870869440006]]]}}, {"type": "Feature", "properties": {"Parcela": "J-164", "ANO": 2025, "Ha": 8.76, "PLANTAS": "1505", "VARIEDADE": "PB-111", "UDF": null}, "geometry": {"type": "MultiPolygon", "coordinates": [[[[-48.041958685833, -1.2038262047220014], [-48.041115908889, -1.2025896280560016], [-48.040829329444, -1.202615129166995], [-48.040649774722, -1.2026643022220005], [-48.040581859444, -1.2024249322219902], [-48.037415134722, -1.2030549430559978], [-48.037510384444, -1.2033755777779902], [-48.041958685833, -1.2038262047220014]]], [[[-48.04017318568799, -1.2013117048362292], [-48.04019059099553, -1.2013329264185764], [-48.0402172320896, -1.2013622425203523], [-48.040260851938676, -1.2013866959768293], [-48.04032626594406, -1.2014380196649905], [-48.04034804695501, -1.201477092814178], [-48.040338268947885, -1.2015502997371184], [-48.040333255059394, -1.201702830915937], [-48.04031501000652, -1.2017577241966426], [-48.040283468728354, -1.2017753840216419], [-48.04023010898115, -1.2017887490046215], [-48.04010942330898, -1.201837428991645], [-48.04010221469465, -1.201776406475571], [-48.04007061359422, -1.2018495895562051], [-48.039949348034924, -1.2018738630338055], [-48.03991058566365, -1.2018420931063756], [-48.03987661237474, -1.2018664618725445], [-48.0398256392905, -1.2019152179301997], [-48.03982073711651, -1.2019640242834462], [-48.03979162391642, -1.201978636008392], [-48.03968489656255, -1.2020126876671855], [-48.03957335647534, -1.202012565873767], [-48.03957826917674, -1.201953997204758], [-48.03952408104712, -1.2018923132753716], [-48.03942924492699, -1.201720453599487], [-48.03942825871056, -1.2016512009405431], [-48.039411337822365, -1.2016023707812367], [-48.039387142582164, -1.2015535326826565], [-48.03935323768863, -1.2015144463242098], [-48.03930716680391, -1.2015143960340067], [-48.03928542264429, -1.2014411547756854], [-48.03924182124985, -1.201399617255178], [-48.03922975518334, -1.2013459112377458], [-48.03921279484942, -1.2013336898064346], [-48.039205554682674, -1.201301954313238], [-48.03919347283735, -1.201262891784543], [-48.03916438858965, -1.2012506571225912], [-48.03913536744422, -1.201179848519745], [-48.03762631572696, -1.2010188009105747], [-48.0376365353291, -1.2011032394021428], [-48.0376413996948, -1.2012121463186816], [-48.03766911862246, -1.20129714265179], [-48.03765982531484, -1.2013708937721619], [-48.03766595581827, -1.2014675224568683], [-48.03765636903076, -1.2015572428128438], [-48.03765666738434, -1.2016623376055056], [-48.03764986576671, -1.2018186752718865], [-48.03765643250733, -1.202100606328673], [-48.03762703055596, -1.202601833119408], [-48.04196988222098, -1.2018016300641583], [-48.04200166595037, -1.2014884302491762], [-48.040166387829466, -1.201291410047724], [-48.04017318568799, -1.2013117048362292]]], [[[-48.04231209689481, -1.2017382847422202], [-48.04233471818087, -1.2015192042934704], [-48.042024775663236, -1.2014899045537044], [-48.04199291969202, -1.2017998247524195], [-48.04231209689481, -1.2017382847422202]]]]}}, {"type": "Feature", "properties": {"Parcela": "J-153", "ANO": 2012, "Ha": 21.5, "PLANTAS": "3.635", "VARIEDADE": "AV do B", "UDF": 33}, "geometry": {"type": "MultiPolygon", "coordinates": [[[[-48.0434405010783, -1.204867118052649], [-48.04328164121782, -1.2049078786637222], [-48.04245648267207, -1.2050878447846654], [-48.04238488051929, -1.204682106478684], [-48.042249705866105, -1.2046941943599965], [-48.04223306408978, -1.2046584055245282], [-48.04202438470397, -1.2046872862541445], [-48.04184810726092, -1.206129335768908], [-48.04294810791636, -1.2062325357047947], [-48.04312833985542, -1.2062156225123324], [-48.043199340078196, -1.2060794739603833], [-48.04323717475371, -1.205977976710425], [-48.04328097853156, -1.2059122802617708], [-48.04336148155294, -1.205790444049351], [-48.04357118736597, -1.2056183318524056], [-48.04407598589325, -1.2052787858072387], [-48.04439532428556, -1.2050534359113056], [-48.04483317126526, -1.2047587249351923], [-48.043546096486246, -1.2043818074877388], [-48.04345182943987, -1.2043896718188678], [-48.0434405010783, -1.204867118052649]]], [[[-48.042027866759526, -1.2046192479759956], [-48.042068179343566, -1.2046132347165799], [-48.042104936998776, -1.2046096126251358], [-48.0421499930155, -1.2046035940310789], [-48.04217250843613, -1.2045892456892933], [-48.04220685594667, -1.2045510123400036], [-48.04211268231771, -1.2041088949201788], [-48.04208652588288, -1.2040480514749794], [-48.042027866759526, -1.2046192479759956]]]]}}, {"type": "Feature", "properties": {"Parcela": "J-152", "ANO": 2012, "Ha": 20.7, "PLANTAS": "3.633", "VARIEDADE": "AV do B", "UDF": 33}, "geometry": {"type": "Polygon", "coordinates": [[[-48.04169056099615, -1.2073107695246323], [-48.041891247919466, -1.2073072873732897], [-48.042025695966636, -1.2072482388002554], [-48.04203038115186, -1.207248761175563], [-48.042321113481215, -1.2071816394990176], [-48.04250035074783, -1.207086830860073], [-48.04266725985685, -1.207013399371091], [-48.04283709058779, -1.2069573736724981], [-48.042919553984106, -1.206871161731709], [-48.04296194470881, -1.206663412326157], [-48.043041869262346, -1.2065484128534631], [-48.04307752, -1.2063228672219866], [-48.041818023611, -1.2061852808329987], [-48.04169056099615, -1.2073107695246323]]]}}, {"type": "Feature", "properties": {"Parcela": "K-151", "ANO": 2012, "Ha": 15.86, "PLANTAS": "2.287", "VARIEDADE": "AV do B", "UDF": 34}, "geometry": {"type": "Polygon", "coordinates": [[[-48.04257898128848, -1.1993157131592522], [-48.04232608875873, -1.201741156382082], [-48.04309248722784, -1.2015891500650255], [-48.04316403697225, -1.2015721439233074], [-48.0434204609217, -1.1993148747097617], [-48.04342441070833, -1.1993060318567978], [-48.043432912874785, -1.199291702622112], [-48.04343745575277, -1.1992950633807917], [-48.04343046613138, -1.1993121399287108], [-48.043188151398546, -1.2015553911381402], [-48.043179344456135, -1.2015712453894787], [-48.043194504658636, -1.2015663807318195], [-48.043745649053626, -1.2014644765888258], [-48.04375169265642, -1.2014815673336066], [-48.04377350791752, -1.201488912892477], [-48.04381958949135, -1.2014792007407762], [-48.04366856870478, -1.199292190776018], [-48.0436470664093, -1.199269317910747], [-48.04257898128848, -1.1993157131592522]]]}}, {"type": "Feature", "properties": {"Parcela": "J-154", "ANO": 2012, "Ha": 27.15, "PLANTAS": "4.550", "VARIEDADE": "AV do B", "UDF": 33}, "geometry": {"type": "Polygon", "coordinates": [[[-48.044235106807996, -1.201769750815926], [-48.04388129777324, -1.2018377173160717], [-48.043599432477535, -1.2018846214861145], [-48.04335633183247, -1.2019077308853952], [-48.043137994980164, -1.2019597736192535], [-48.04288727655014, -1.2020375625127104], [-48.042442866255186, -1.202100279155351], [-48.04203454871655, -1.2021967203688724], [-48.04182038388594, -1.2022384179564019], [-48.04159168766363, -1.2022775578927891], [-48.041437336815726, -1.2023160083598694], [-48.04130354179144, -1.2023521737424798], [-48.04123126441298, -1.202413053591843], [-48.04122366417451, -1.2024298654772825], [-48.04124851688316, -1.2024649552303417], [-48.04132456656858, -1.2026045194570016], [-48.042208729045136, -1.2040349338750136], [-48.042394165408695, -1.2044333827830485], [-48.04281614284871, -1.204263419250291], [-48.04315752682611, -1.204134128268037], [-48.043274220397, -1.2040894678569067], [-48.04337064331117, -1.2040965891165025], [-48.04346564970056, -1.2042206149811454], [-48.04349308566934, -1.2042830544083678], [-48.04365705399805, -1.2043395400952719], [-48.04381545810721, -1.204397658335637], [-48.044707954499145, -1.2046346898106322], [-48.04484173126774, -1.2046583051991182], [-48.04496032216599, -1.2046629460373515], [-48.045081250279935, -1.204636551108963], [-48.045166467438584, -1.2044884510366312], [-48.0452327056108, -1.2043355980182988], [-48.045392516562714, -1.2042181018783167], [-48.045566803857625, -1.204053536784119], [-48.04580587630273, -1.2038524823591372], [-48.04583918454769, -1.2037238018840932], [-48.046016967262474, -1.2036376640314417], [-48.04610144234128, -1.2036306816071858], [-48.04619527131055, -1.2036157199861135], [-48.04634019553987, -1.2034994783003876], [-48.04639227869137, -1.2034132832840618], [-48.046460086947135, -1.2032862528157235], [-48.04651238411184, -1.2032048416371877], [-48.04661167209764, -1.2031022709379027], [-48.046687384864875, -1.2030573207637938], [-48.046814236962014, -1.2030446441895015], [-48.04690903829358, -1.202957768881562], [-48.04703975115921, -1.2028387583632854], [-48.04720128608666, -1.2027735379461315], [-48.04739448760419, -1.2026341925355728], [-48.0474611548422, -1.2025786592870806], [-48.047635143240804, -1.2025063561793272], [-48.04777364323189, -1.2024495149228498], [-48.04786064296722, -1.2024267015382721], [-48.047958712709715, -1.202378027504711], [-48.0481625161812, -1.202181545097148], [-48.04467361434929, -1.2017878661307089], [-48.044235106807996, -1.201769750815926]]]}}, {"type": "Feature", "properties": {"Parcela": "J-163", "ANO": 2022, "Ha": 10.6, "PLANTAS": "1.689", "VARIEDADE": "EXPERIMENTO", "UDF": null}, "geometry": {"type": "MultiPolygon", "coordinates": [[[[-48.04196992933903, -1.2047054004719093], [-48.04184663177356, -1.2047341851805775], [-48.04181343168608, -1.2047378032729328], [-48.04180635097863, -1.2047688444598474], [-48.04177317076416, -1.2047903663142927], [-48.04176131216954, -1.2047903796504287], [-48.04174588937149, -1.2047844290666907], [-48.04172806438077, -1.2047510287145695], [-48.041571565363476, -1.204782237931227], [-48.0415004283541, -1.204795447369744], [-48.04146961454804, -1.2048121922226596], [-48.041436436970606, -1.2048361012499995], [-48.04141275819539, -1.204870741870599], [-48.04137721949586, -1.2049042022436984], [-48.04138672227476, -1.2049185145894197], [-48.04139030105407, -1.2049376079409568], [-48.04138675407411, -1.204947160617967], [-48.04138439957916, -1.2049626798840358], [-48.0413820450844, -1.20497819915017], [-48.04137018913467, -1.2049805996557381], [-48.041372617831684, -1.2050319211235638], [-48.04136495611998, -1.2050737052517815], [-48.0413698082244, -1.205171573849029], [-48.04137700820228, -1.2052479552558453], [-48.04137945149147, -1.2053124061524412], [-48.04139847561917, -1.2053577410192742], [-48.041398544544116, -1.2054198074135518], [-48.041408126865925, -1.2055057348239433], [-48.041443723880626, -1.2055247921475511], [-48.04147456684911, -1.2055343061313595], [-48.04148170322072, -1.2055533954760764], [-48.04149125373672, -1.2056106768526256], [-48.041479424302445, -1.2056369490536913], [-48.041455720357085, -1.2056489115864686], [-48.04145340697274, -1.205701431970747], [-48.04146293628226, -1.2057396159966476], [-48.04147719842666, -1.2057682460081927], [-48.04148207711953, -1.2058899862795929], [-48.04147979292227, -1.2059687655200706], [-48.04148220442806, -1.2060045703827076], [-48.04152019174398, -1.2060403351987579], [-48.04152971576176, -1.2060737448815386], [-48.04153211400841, -1.2060976138986756], [-48.041826244460445, -1.2061307031661166], [-48.04199011677025, -1.2047304430613923], [-48.04196992933903, -1.2047054004719093]]], [[[-48.0412771634901, -1.2045044634050106], [-48.04132003988404, -1.2046715172577436], [-48.041400704848705, -1.204695298283318], [-48.04198406822866, -1.204623027182272], [-48.04206401786323, -1.204002272939629], [-48.041983252344245, -1.203887779522476], [-48.037507253930606, -1.2033891109821397], [-48.037495445515965, -1.2034344806611277], [-48.03752165875532, -1.2035466487465698], [-48.03755983375691, -1.2037519034470525], [-48.037612136033935, -1.2038640422403477], [-48.03764780185383, -1.2039451663483507], [-48.037662061307785, -1.2039714093287663], [-48.03770487934657, -1.2040859459242566], [-48.0377310318258, -1.2041432088937711], [-48.037818814828675, -1.2041693693358126], [-48.03783305444948, -1.2041777084808158], [-48.03788061067681, -1.2042874653677764], [-48.03790439937778, -1.2043518925145333], [-48.03793051483237, -1.2043757349903554], [-48.037938866146675, -1.2044210820279762], [-48.03796740360295, -1.2044902781945934], [-48.038003050953144, -1.2045546920137558], [-48.03804582142779, -1.2046262593668982], [-48.03805296174957, -1.2046489295526037], [-48.03805890959222, -1.2046656331286723], [-48.03806722916219, -1.2046823340408122], [-48.03807675841513, -1.2047205182085725], [-48.03806966043697, -1.204736042846921], [-48.03806849574661, -1.204755141590366], [-48.03808168052681, -1.2048816472885167], [-48.03809604456831, -1.2050021837102245], [-48.038104481953475, -1.2051251139667851], [-48.03811883410896, -1.205234908088928], [-48.038236606685174, -1.205570174403904], [-48.03826512833363, -1.2056250474611672], [-48.03837007859023, -1.205626123076414], [-48.0384294088528, -1.2056594768819966], [-48.03849969413595, -1.205762207216934], [-48.038714164427, -1.2057928387194432], [-48.040530555089305, -1.2060092221746135], [-48.04141530278487, -1.2060941646359113], [-48.04125772456465, -1.2051537961265526], [-48.04073586116374, -1.2050779934890856], [-48.04077918168083, -1.2045766383659264], [-48.0412771634901, -1.2045044634050106]]]]}}, {"type": "Feature", "properties": {"Parcela": "K-161", "ANO": 2025, "Ha": 10.37, "PLANTAS": "1.499", "VARIEDADE": "PB-111", "UDF": null}, "geometry": {"type": "Polygon", "coordinates": [[[-48.04224017099441, -1.1994062563825623], [-48.042025991506186, -1.2014867026050786], [-48.04233496862161, -1.2015167842471641], [-48.04256511493858, -1.1993153167247417], [-48.04242931498593, -1.1993261515773614], [-48.04238809489664, -1.1993248864154107], [-48.04236989718509, -1.199335849266971], [-48.04233958471094, -1.1993382568630173], [-48.04232747388185, -1.19932604072613], [-48.041255641996486, -1.1993956509012065], [-48.04115236202054, -1.1993948520171684], [-48.04106890464788, -1.199422294015937], [-48.04101553838117, -1.1994417606008283], [-48.040954942363975, -1.1994197293159754], [-48.04075223836715, -1.1994261438940177], [-48.04057037165765, -1.1994332675663435], [-48.04051114116889, -1.1994802606144261], [-48.04023230939048, -1.199462872764997], [-48.03910470683528, -1.199534861645973], [-48.03707501710334, -1.199671761807465], [-48.037104030337666, -1.1997498919899339], [-48.03708938707031, -1.199837736869514], [-48.037084437647, -1.1999304734807896], [-48.0371668064793, -1.199998899565136], [-48.037181207949665, -1.2001355877256488], [-48.037239323751066, -1.2002088685235273], [-48.037331323351516, -1.2003407602165421], [-48.037403861625705, -1.200531204607533], [-48.037481428241506, -1.2005556950636964], [-48.037563728729225, -1.2006875762198133], [-48.037519998564775, -1.2007656270544163], [-48.037578151181634, -1.2008047398164674], [-48.037619172552645, -1.2009902687047238], [-48.03762490707468, -1.2010128503341009], [-48.039125986857634, -1.2011654998527619], [-48.03907998171604, -1.2011044350542381], [-48.039046093914465, -1.2010494849420859], [-48.039041337674384, -1.2009628390357832], [-48.03898319547644, -1.200913963922621], [-48.03893596085731, -1.2008687615900557], [-48.038931201978976, -1.200784556273344], [-48.03899195294216, -1.200662593383932], [-48.03899927459372, -1.2006186708690876], [-48.039044143571566, -1.2006089574816934], [-48.03905143368534, -1.2005943219327695], [-48.039087843519944, -1.2005589731871797], [-48.039172746368656, -1.2005261179163988], [-48.03923943444993, -1.2005200891952232], [-48.039317037997414, -1.2005104115007057], [-48.03933643363001, -1.2005128732392156], [-48.03939216553088, -1.2005483224966491], [-48.03950731906751, -1.2005704133515092], [-48.039909525701354, -1.2008564004934188], [-48.03994102687307, -1.2008759595381826], [-48.039948251297005, -1.200922338544037], [-48.04003544630116, -1.2010127353292863], [-48.04006687126188, -1.2011030712849182], [-48.0400910901989, -1.2011299441507692], [-48.04010556531605, -1.2011982963477212], [-48.04012493205465, -1.2012276045083305], [-48.04015214648868, -1.2012874285570825], [-48.04016791416259, -1.2012813442956147], [-48.04200242862318, -1.2014838549744657], [-48.04222994289543, -1.1994048724159618], [-48.04224017099441, -1.1994062563825623]]]}}]}