{"type": "FeatureCollection", "features": [{"type": "Feature", "properties": {"Parcela": "H-172", "ANO": 2023, "Ha": 5.47, "PLANTAS": "1.011", "VARIEDADE": "PB-143", "UDF": null}, "geometry": {"type": "Polygon", "coordinates": [[[-48.02750282888472, -1.2244024703553804], [-48.02755230306817, -1.2244144171472047], [-48.02790321263612, -1.2244389472400972], [-48.027849778052854, -1.2249488985621104], [-48.028897556911815, -1.225049473052054], [-48.02891684524948, -1.2249844932804355], [-48.02902010575853, -1.2249843757065706], [-48.02913626895186, -1.2249799129170158], [-48.0291784620547, -1.2242393460289123], [-48.02926883927777, -1.2242608957740049], [-48.02920105015934, -1.2251963651241342], [-48.02926566586587, -1.225265579839607], [-48.029437881099824, -1.2253671508676798], [-48.02958430556288, -1.2254904038249894], [-48.029610257054614, -1.225611628756137], [-48.02959670899858, -1.2258756817619], [-48.02969667768255, -1.225940649609282], [-48.03037655357461, -1.226009162850831], [-48.034533314089835, -1.2264807752692297], [-48.0345590216937, -1.2263854749558116], [-48.03029895232029, -1.2258706748422046], [-48.03021280451896, -1.2257841627367578], [-48.03011799322582, -1.2256456942995573], [-48.030040314088374, -1.2254379180552604], [-48.02997124977185, -1.225238792997021], [-48.029876331441, -1.2250050532253673], [-48.029790047410216, -1.2247972866791905], [-48.029789862445554, -1.2246327272403739], [-48.02974664260104, -1.224459555759239], [-48.02965176338767, -1.2242604599577813], [-48.02960002614437, -1.2241652474514775], [-48.0295053707579, -1.2241653551762277], [-48.02940215897449, -1.2242087778215813], [-48.029298859614826, -1.2241742512274763], [-48.02915253505857, -1.224139773581396], [-48.02905778235644, -1.224053270997679], [-48.028954414893356, -1.2239581171550722], [-48.02881647168371, -1.2237244259478604], [-48.02864891407237, -1.2234599133809285], [-48.028452838364174, -1.2231829828869236], [-48.0284112765852, -1.2230493252442898], [-48.028170043952876, -1.2227897680011548], [-48.02795441286179, -1.2223396384581793], [-48.027782312005925, -1.222339833920685], [-48.02764461188309, -1.2223226682016706], [-48.02758280135305, -1.2223568412880808], [-48.02750818415011, -1.2234400989198366], [-48.0275514717972, -1.223673898128008], [-48.02750282888472, -1.2244024703553804]]]}}]}