{"type": "FeatureCollection", "features": [{"type": "Feature", "properties": {"FID": 0}, "geometry": {"type": "LineString", "coordinates": [[-141.23307290963783, -85.52568656407446], [-141.2330730389879, -85.52568646535731]]}}, {"type": "Feature", "properties": {"FID": 1}, "geometry": {"type": "LineString", "coordinates": [[-141.23307302331568, -85.52568647731815], [-141.23307355288546, -85.52568648199698], [-141.23307345637045, -85.52568655661403]]}}, {"type": "Feature", "properties": {"FID": 2}, "geometry": {"type": "LineString", "coordinates": [[-141.23307357401453, -85.52568646768744], [-141.23307355288546, -85.52568648199698]]}}, {"type": "Feature", "properties": {"FID": 3}, "geometry": {"type": "LineString", "coordinates": [[-141.23307355288546, -85.52568648199698], [-141.23307409062173, -85.52568648593915], [-141.23307404865292, -85.5256865159065]]}}, {"type": "Feature", "properties": {"FID": 4}, "geometry": {"type": "LineString", "coordinates": [[-141.23307409062173, -85.52568648593915], [-141.23307411535765, -85.5256864652963]]}}, {"type": "Feature", "properties": {"FID": 5}, "geometry": {"type": "LineString", "coordinates": [[-141.23307409062173, -85.52568648593915], [-141.2330746209473, -85.52568649040423], [-141.2330745452684, -85.52568654720439]]}}, {"type": "Feature", "properties": {"FID": 6}, "geometry": {"type": "LineString", "coordinates": [[-141.23307435532354, -85.5256864881678], [-141.2330743382064, -85.5256864992671]]}}, {"type": "Feature", "properties": {"FID": 7}, "geometry": {"type": "LineString", "coordinates": [[-141.23307435247443, -85.52568648806631], [-141.2330744032842, -85.52568644892195], [-141.23307448937894, -85.52568638630689]]}}, {"type": "Feature", "properties": {"FID": 8}, "geometry": {"type": "LineString", "coordinates": [[-141.2330744588889, -85.52568640848165], [-141.2330752614998, -85.52568641471795], [-141.23307529247688, -85.52568639211032]]}}, {"type": "Feature", "properties": {"FID": 9}, "geometry": {"type": "LineString", "coordinates": [[-141.2330752614998, -85.52568641471795], [-141.23307522425978, -85.52568644307944], [-141.23307520691412, -85.52568645443505], [-141.23307519479502, -85.52568646114656], [-141.2330751868469, -85.52568646812982], [-141.2330751869433, -85.52568646997311], [-141.2330754552748, -85.52568647214065], [-141.2330754085973, -85.52568650619723], [-141.2330753755635, -85.52568653131449], [-141.23307536036484, -85.52568653980204], [-141.233075355041, -85.52568654258579], [-141.23307533836774, -85.52568655424841], [-141.23307533001324, -85.52568656182918], [-141.23307532459305, -85.52568656695125], [-141.23307531106835, -85.52568657606976], [-141.23307529276866, -85.5256865901878]]}}, {"type": "Feature", "properties": {"FID": 10}, "geometry": {"type": "LineString", "coordinates": [[-141.2330749938289, -85.52568641263814], [-141.23307502226112, -85.52568639155629]]}}, {"type": "Feature", "properties": {"FID": 11}, "geometry": {"type": "LineString", "coordinates": [[-141.2330749938289, -85.52568641263814], [-141.23307495641262, -85.52568644180779], [-141.23307494789756, -85.52568644631643], [-141.2330749416808, -85.5256864529407], [-141.23307492544876, -85.52568646467147], [-141.23307491302484, -85.52568647392617], [-141.23307489908498, -85.52568648347152], [-141.2330748886107, -85.52568649235009]]}}, {"type": "Feature", "properties": {"FID": 12}, "geometry": {"type": "LineString", "coordinates": [[-141.2330746209473, -85.52568649040423], [-141.2330748886107, -85.52568649235009]]}}, {"type": "Feature", "properties": {"FID": 13}, "geometry": {"type": "LineString", "coordinates": [[-141.2330748886107, -85.52568649235009], [-141.2330748649461, -85.52568651046658], [-141.233074834258, -85.52568653024088]]}}, {"type": "Feature", "properties": {"FID": 14}, "geometry": {"type": "LineString", "coordinates": [[-141.2330748886107, -85.52568649235009], [-141.23307512554936, -85.52568649454469], [-141.2330754214315, -85.52568649683317]]}}, {"type": "Feature", "properties": {"FID": 15}, "geometry": {"type": "LineString", "coordinates": [[-141.2330754214315, -85.52568649683317], [-141.23307568945043, -85.52568649888816], [-141.23307566139053, -85.52568651872134], [-141.2330756249178, -85.52568654501738], [-141.23307561565048, -85.52568655188159], [-141.23307559646014, -85.52568656561021], [-141.2330755846759, -85.52568657454043], [-141.2330755750391, -85.52568658270192], [-141.23307556642706, -85.5256865895403], [-141.2330755577405, -85.5256865954326]]}}, {"type": "Feature", "properties": {"FID": 16}, "geometry": {"type": "LineString", "coordinates": [[-141.23307568945043, -85.52568649888816], [-141.233075951662, -85.52568650117284], [-141.2330759823959, -85.52568647808738]]}}, {"type": "Feature", "properties": {"FID": 17}, "geometry": {"type": "LineString", "coordinates": [[-141.233075951662, -85.52568650117284], [-141.2330761206376, -85.52568650272343], [-141.23307621475027, -85.52568650347858], [-141.2330762338846, -85.52568648867897], [-141.23307627290978, -85.52568646412732], [-141.23307630255286, -85.52568644110193], [-141.23307633891267, -85.52568641473766], [-141.23307634321006, -85.52568641115207], [-141.23307634559768, -85.52568640661126], [-141.23307635359168, -85.52568640049844], [-141.23307635525876, -85.52568639891061]]}}, {"type": "Feature", "properties": {"FID": 18}, "geometry": {"type": "LineString", "coordinates": [[-141.23307621475027, -85.52568650347858], [-141.23307620409048, -85.52568651194761], [-141.23307619634298, -85.52568651858945], [-141.2330761929774, -85.52568652116777], [-141.23307618391897, -85.52568652783563], [-141.23307617851304, -85.52568653323078], [-141.23307616654392, -85.52568654280962], [-141.2330761585528, -85.52568654897365]]}}, {"type": "Feature", "properties": {"FID": 19}, "geometry": {"type": "LineString", "coordinates": [[-141.23307621475027, -85.52568650347858], [-141.23307701792743, -85.52568650974281], [-141.23307700654033, -85.52568651790484], [-141.23307699163507, -85.52568652990826], [-141.2330769780873, -85.525686538583], [-141.2330769705515, -85.52568654508826], [-141.23307696198086, -85.52568655272029], [-141.23307695291408, -85.525686559226], [-141.23307694341648, -85.52568656586841], [-141.23307693580318, -85.52568657088877], [-141.23307693042878, -85.52568657324584]]}}, {"type": "Feature", "properties": {"FID": 20}, "geometry": {"type": "LineString", "coordinates": [[-141.23307701792743, -85.52568650974281], [-141.23307728964298, -85.52568651178126], [-141.23307802142878, -85.52568651773538], [-141.23307802517195, -85.52568651819502], [-141.23307802695777, -85.52568651887717], [-141.23307802776336, -85.52568652069036], [-141.23307802594618, -85.5256865225428], [-141.2330780235371, -85.52568652458316], [-141.23307802423162, -85.52568652531686], [-141.23307802741698, -85.52568652556333], [-141.23307803758968, -85.5256865255601]]}}, {"type": "Feature", "properties": {"FID": 21}, "geometry": {"type": "LineString", "coordinates": [[-141.23307728411228, -85.52568651173976], [-141.23307727570617, -85.52568651929126], [-141.23307726556578, -85.52568652618989], [-141.23307725423243, -85.52568653537598], [-141.23307724303362, -85.52568654357144], [-141.2330772379041, -85.5256865471829], [-141.23307723025195, -85.52568655340913], [-141.23307722253378, -85.52568655836988], [-141.23307722339885, -85.52568655965587], [-141.23307723517183, -85.5256865610421], [-141.2330772936348, -85.52568656535941], [-141.23307729579997, -85.52568656608484], [-141.23307728786807, -85.5256865669587], [-141.23307728076955, -85.5256865685169], [-141.2330772568935, -85.52568657468606], [-141.2330772240174, -85.52568658419302], [-141.23307725345433, -85.52568659028299], [-141.23307725946074, -85.5256865932685], [-141.23307726059323, -85.52568659458552], [-141.2330772459821, -85.52568659485986], [-141.23307720399944, -85.52568659549561], [-141.2330771907264, -85.52568659593551], [-141.23307717772676, -85.52568659652053], [-141.23307712945766, -85.52568659898392], [-141.23307702656032, -85.52568660434842], [-141.23307702012812, -85.52568660466164], [-141.233077012428, -85.52568660488194], [-141.2330770091055, -85.52568660490893], [-141.233077004891, -85.52568660440717], [-141.23307699897745, -85.52568660320061], [-141.23307699158616, -85.52568660169888], [-141.2330769845388, -85.52568659914935], [-141.2330769788038, -85.52568659626746], [-141.2330769735211, -85.52568659441239], [-141.23307696444292, -85.52568659116852], [-141.2330769385193, -85.52568658107347], [-141.233076935698, -85.52568658010128]]}}, {"type": "Feature", "properties": {"FID": 22}, "geometry": {"type": "LineString", "coordinates": [[-141.23307726059323, -85.52568659458552], [-141.2330772772267, -85.52568660246371], [-141.23307728045677, -85.52568660320954], [-141.2330772926955, -85.52568660333012], [-141.2330773131627, -85.52568660315762], [-141.2330773777351, -85.52568660226574], [-141.23307743857802, -85.52568660125057], [-141.23307756637507, -85.52568659911454], [-141.23307767372015, -85.52568659744144], [-141.23307769337947, -85.5256865970825], [-141.23307770747124, -85.52568659703653], [-141.2330777199823, -85.52568659728149], [-141.2330777341097, -85.52568659792013], [-141.23307774163774, -85.52568659949442], [-141.23307774996044, -85.52568660100623], [-141.2330777622122, -85.52568660137575], [-141.23307792501353, -85.52568660246496], [-141.2330779393782, -85.52568660255375], [-141.2330779365283, -85.5256866039965], [-141.23307793455302, -85.52568660690157], [-141.23307793025103, -85.52568661235397], [-141.23307792969857, -85.52568661704792], [-141.23307792502075, -85.5256866216654], [-141.23307792363934, -85.52568662576319], [-141.23307792627136, -85.52568662778508], [-141.23307792753965, -85.52568662915392], [-141.2330779310516, -85.52568663274187], [-141.2330779384771, -85.52568663743847], [-141.23307794425548, -85.52568664115017], [-141.23307794843032, -85.5256866447068], [-141.2330779524652, -85.5256866481286], [-141.23307795856655, -85.52568665292937], [-141.2330779609737, -85.52568665573968], [-141.23307796113025, -85.52568665618567]]}}, {"type": "Feature", "properties": {"FID": 23}, "geometry": {"type": "LineString", "coordinates": [[-141.2330779393782, -85.52568660255375], [-141.2330782427343, -85.52568660519566], [-141.23307850609976, -85.5256866071553], [-141.23307876827423, -85.52568660921904], [-141.23307891964745, -85.52568661043637], [-141.23307897485165, -85.5256866109167], [-141.23307903990445, -85.52568661158061], [-141.23307919979544, -85.5256866129508], [-141.23307929823054, -85.52568661379081], [-141.23307932563227, -85.5256866140103], [-141.2330793554221, -85.52568661413567], [-141.2330794015675, -85.52568661428695], [-141.23307941033937, -85.52568661422191], [-141.23307939001472, -85.52568662727764], [-141.23307937425673, -85.52568663614119], [-141.23307937279495, -85.52568663869341], [-141.2330793723399, -85.52568664016654], [-141.23307936766946, -85.52568664238785], [-141.2330793543571, -85.52568665224645], [-141.23307934891616, -85.52568665498666], [-141.23307934553827, -85.5256866565022], [-141.2330793471915, -85.52568665760121], [-141.23307935228743, -85.52568665842942], [-141.23307936028883, -85.52568665888329], [-141.23307936854513, -85.5256866591296], [-141.2330793720021, -85.52568665912851]]}}, {"type": "Feature", "properties": {"FID": 24}, "geometry": {"type": "LineString", "coordinates": [[-141.2330793720021, -85.52568665912851], [-141.2330795284204, -85.525686660199], [-141.23307977288903, -85.5256866618431], [-141.2330797530906, -85.52568667733632], [-141.23307972667865, -85.5256866960369], [-141.23307971519947, -85.52568670535551], [-141.23307970806303, -85.5256867112704]]}}, {"type": "Feature", "properties": {"FID": 25}, "geometry": {"type": "LineString", "coordinates": [[-141.23307803758968, -85.5256865255601], [-141.23307833743786, -85.52568652706708], [-141.23307860104748, -85.52568652860136], [-141.23307860942478, -85.52568652861943], [-141.23307857730117, -85.52568655251353]]}}, {"type": "Feature", "properties": {"FID": 26}, "geometry": {"type": "LineString", "coordinates": [[-141.23307860942478, -85.52568652861943], [-141.2330788792769, -85.52568653003243], [-141.23307884117162, -85.52568655649576], [-141.23307881743293, -85.52568657038239], [-141.23307881416173, -85.52568657393101], [-141.23307880752085, -85.52568657660936], [-141.2330788025798, -85.52568658128916], [-141.23307879175317, -85.52568659036899], [-141.23307878163502, -85.52568660028882], [-141.23307877344038, -85.52568660630777], [-141.23307876827423, -85.52568660921904]]}}, {"type": "Feature", "properties": {"FID": 27}, "geometry": {"type": "LineString", "coordinates": [[-141.2330767837844, -85.5256864824517], [-141.2330767497551, -85.52568650765124]]}}, {"type": "Feature", "properties": {"FID": 28}, "geometry": {"type": "LineString", "coordinates": [[-141.23307648553333, -85.5256865055905], [-141.23307645747076, -85.52568652650896], [-141.23307644717806, -85.52568653308873], [-141.23307644360597, -85.52568653597355], [-141.23307642574704, -85.52568655041848]]}}, {"type": "Feature", "properties": {"FID": 29}, "geometry": {"type": "LineString", "coordinates": [[-141.2330745452684, -85.52568654720439], [-141.23307467435146, -85.5256865485539], [-141.23307467968021, -85.52568654875448], [-141.23307468275428, -85.52568654905951], [-141.23307468291813, -85.52568654965073], [-141.23307468215577, -85.5256865503252], [-141.23307467675104, -85.52568655312506], [-141.2330746647111, -85.5256865606182], [-141.23307465907473, -85.52568656470696], [-141.23307464705985, -85.52568657268245], [-141.23307463992757, -85.52568657868031], [-141.2330746357437, -85.52568658257152], [-141.2330746305441, -85.52568658611555], [-141.23307463080542, -85.52568658666526], [-141.23307463335067, -85.5256865870275], [-141.23307463785576, -85.52568658736061], [-141.23307464317668, -85.52568658741076], [-141.2330749753633, -85.52568658740486], [-141.2330751178794, -85.52568658737765], [-141.23307514068927, -85.52568658751042], [-141.23307517416126, -85.52568658812733], [-141.2330752869273, -85.52568659031644], [-141.2330752918855, -85.52568659042379], [-141.23307529305137, -85.5256865904701], [-141.23307529276866, -85.5256865901878]]}}, {"type": "Feature", "properties": {"FID": 30}, "geometry": {"type": "LineString", "coordinates": [[-141.23307646797147, -85.52568611970327], [-141.23307636262015, -85.52568619889846], [-141.23307630038673, -85.52568624450767], [-141.23307627835317, -85.52568626048911], [-141.2330762762678, -85.52568626129887], [-141.23307654656008, -85.52568626349489], [-141.2330765765745, -85.52568623868346], [-141.2330765977368, -85.52568622256743], [-141.2330766260648, -85.52568620237254], [-141.23307662821057, -85.52568620018315], [-141.233076895622, -85.5256862006893], [-141.23307689607554, -85.52568620173163], [-141.23307688753792, -85.52568620627773], [-141.2330768818493, -85.52568621191207], [-141.23307685631428, -85.52568623085615], [-141.2330768458041, -85.52568623963506], [-141.23307683523382, -85.5256862472626], [-141.23307682140648, -85.52568625744291], [-141.2330768100637, -85.52568626555305], [-141.23307680338166, -85.52568626553962], [-141.23307670302097, -85.52568626474691], [-141.23307654656008, -85.52568626349489]]}}, {"type": "Feature", "properties": {"FID": 31}, "geometry": {"type": "LineString", "coordinates": [[-141.2330768100637, -85.52568626555305], [-141.2330767927538, -85.52568627969438], [-141.23307678610252, -85.52568628408427], [-141.23307677539825, -85.52568629105835], [-141.23307676890633, -85.52568629658404], [-141.23307675039027, -85.52568630863301], [-141.23307674697602, -85.52568631199495], [-141.23307674845842, -85.52568631364379], [-141.2330767582513, -85.52568631402966], [-141.23307678039623, -85.52568631416264], [-141.23307700665634, -85.5256863159422], [-141.2330770140386, -85.52568631600208], [-141.23307728837918, -85.52568631806976], [-141.23307732408665, -85.52568631821397], [-141.2330773979328, -85.5256863192174], [-141.23307744665436, -85.52568632032217], [-141.23307746300554, -85.52568632026251], [-141.2330774889063, -85.52568631975635], [-141.23307760001236, -85.52568632007885], [-141.2330776977803, -85.5256863208724], [-141.2330778297546, -85.52568632170949], [-141.23307783584008, -85.52568632175424], [-141.23307784994833, -85.52568630359956]]}}, {"type": "Feature", "properties": {"FID": 32}, "geometry": {"type": "LineString", "coordinates": [[-141.23307783584008, -85.52568632175424], [-141.233077922924, -85.52568632227887], [-141.23307796022334, -85.52568632235257], [-141.23307798135724, -85.52568632222138], [-141.23307798961136, -85.52568632178308], [-141.23307799720945, -85.52568632024804], [-141.23307800169977, -85.52568631458296], [-141.23307801032547, -85.52568630028101], [-141.23307801457366, -85.52568629570516], [-141.23307802330993, -85.52568628542531], [-141.2330780272482, -85.52568628445937], [-141.23307803599585, -85.52568628392756], [-141.23307805572324, -85.52568628359452], [-141.23307839423217, -85.52568628466929], [-141.23307839941825, -85.5256862846832], [-141.23307839263452, -85.5256862941611], [-141.23307838408357, -85.52568630608242], [-141.23307837250132, -85.52568632105438]]}}, {"type": "Feature", "properties": {"FID": 33}, "geometry": {"type": "LineString", "coordinates": [[-141.23307839941825, -85.5256862846832], [-141.23307866979948, -85.52568628540622], [-141.23307869704485, -85.525686245783], [-141.2330787006301, -85.52568623806435], [-141.2330787092769, -85.52568622797904]]}}, {"type": "Feature", "properties": {"FID": 34}, "geometry": {"type": "LineString", "coordinates": [[-141.2330762762678, -85.52568626129887], [-141.23307627737267, -85.52568626208169], [-141.23307625263539, -85.52568627911945]]}}, {"type": "Feature", "properties": {"FID": 35}, "geometry": {"type": "LineString", "coordinates": [[-141.23307702776358, -85.5256863038613], [-141.23307701126146, -85.52568631597956]]}}, {"type": "Feature", "properties": {"FID": 36}, "geometry": {"type": "LineString", "coordinates": [[-141.23307701126146, -85.52568631597956], [-141.23307694808037, -85.52568636570852]]}}, {"type": "Feature", "properties": {"FID": 37}, "geometry": {"type": "LineString", "coordinates": [[-141.2330772787652, -85.52568631799728], [-141.23307724728983, -85.52568633990894]]}}, {"type": "Feature", "properties": {"FID": 38}, "geometry": {"type": "LineString", "coordinates": [[-141.23307728862682, -85.52568631041049], [-141.2330772787652, -85.52568631799728]]}}, {"type": "Feature", "properties": {"FID": 39}, "geometry": {"type": "LineString", "coordinates": [[-141.23307744665436, -85.52568632032217], [-141.2330774833014, -85.52568632222044], [-141.23307751731315, -85.52568632426346], [-141.23307753099408, -85.52568632653079], [-141.2330775327716, -85.52568633001556], [-141.23307752265728, -85.52568633492004], [-141.233077518416, -85.52568633772209], [-141.23307747569845, -85.5256863713287], [-141.23307745878998, -85.52568638361055], [-141.23307745241678, -85.5256863875958], [-141.23307744501537, -85.52568639480222], [-141.23307743458108, -85.52568640121608], [-141.2330774307339, -85.52568640392464], [-141.23307742370258, -85.5256864067665], [-141.23307741937828, -85.52568640798152], [-141.23307741519685, -85.52568641191941], [-141.23307738952244, -85.52568643201492], [-141.23307736536495, -85.52568645060069], [-141.233077359932, -85.52568645349648], [-141.23307735290203, -85.52568645636167], [-141.23307734759132, -85.52568646159135], [-141.23307733028787, -85.52568647395113], [-141.23307732419877, -85.5256864795545], [-141.23307731773696, -85.52568648565588], [-141.2330773127467, -85.52568648939175], [-141.23307730810174, -85.52568649210059], [-141.23307730064028, -85.52568649815561], [-141.23307729188602, -85.52568650618711], [-141.23307728411228, -85.52568651173976]]}}, {"type": "Feature", "properties": {"FID": 40}, "geometry": {"type": "LineString", "coordinates": [[-141.2330788792769, -85.52568653003243], [-141.23307914601182, -85.52568653127008], [-141.23307945364039, -85.52568653297705], [-141.2330794351909, -85.52568654630188], [-141.23307941563928, -85.52568656143195], [-141.2330793975537, -85.5256865740876], [-141.23307939686643, -85.52568657620392], [-141.2330794070826, -85.52568657705643], [-141.23307944059954, -85.5256865772636], [-141.23307945297807, -85.52568657750862], [-141.2330794623725, -85.52568657791016], [-141.23307946520723, -85.52568657871838], [-141.23307946467466, -85.52568657997885], [-141.23307945187386, -85.52568658690691], [-141.23307944589712, -85.52568659084537], [-141.23307943459176, -85.52568659967123], [-141.23307941952234, -85.52568660898062], [-141.23307941033937, -85.52568661422191]]}}, {"type": "Feature", "properties": {"FID": 41}, "geometry": {"type": "LineString", "coordinates": [[-141.23307945364039, -85.52568653297705], [-141.23307948156585, -85.52568653304596], [-141.23307951028815, -85.52568653309906], [-141.23307952825894, -85.52568653349789], [-141.23307955664924, -85.52568653482697], [-141.23307956629378, -85.52568653619313], [-141.23307963774306, -85.52568654475924], [-141.23307966578656, -85.52568654708425], [-141.23307968853865, -85.52568654738819], [-141.23307972443124, -85.52568654725228], [-141.23307976431224, -85.52568654711513], [-141.23307979021328, -85.52568654660897], [-141.23307985072208, -85.5256865442869], [-141.2330798925082, -85.52568654243757], [-141.23307997248367, -85.52568653861559], [-141.23308005987187, -85.52568653351537], [-141.23308023036566, -85.52568652533904], [-141.23308026027811, -85.52568652526726], [-141.23308028021813, -85.52568652518312], [-141.23308033126287, -85.52568652494904], [-141.23308036434366, -85.5256865244406], [-141.23308048429146, -85.52568652222409], [-141.23308057035598, -85.52568652042291], [-141.23308059147882, -85.52568652007386], [-141.23308061742043, -85.52568652034569], [-141.23308076746494, -85.52568652157379], [-141.23308111104419, -85.52568652426514], [-141.23308117287527, -85.52568652433881], [-141.2330811780589, -85.52568652430602], [-141.2330811812271, -85.52568652386937], [-141.2330811839772, -85.52568652305939], [-141.23308118670238, -85.52568652178265], [-141.2330812052724, -85.52568650313644], [-141.2330812146109, -85.5256864986523], [-141.23308122011386, -85.52568649709461], [-141.23308123030907, -85.5256864937305], [-141.23308123298216, -85.52568649145798], [-141.23308123922266, -85.52568648874862], [-141.23308124633564, -85.52568648747048], [-141.23308127452754, -85.5256864850031], [-141.2330813250495, -85.52568648240414], [-141.23308137792142, -85.5256864789642], [-141.2330814137013, -85.52568647668113], [-141.23308145144966, -85.52568647389953], [-141.23308148243854, -85.52568647152461], [-141.23308151611673, -85.52568646718835], [-141.23308154379416, -85.52568646251167], [-141.23308160664251, -85.52568645153777], [-141.2330816083781, -85.52568645040137], [-141.23308160734263, -85.5256864496704], [-141.2330816106772, -85.52568644859574], [-141.23308161935776, -85.52568644678806], [-141.2330816468115, -85.52568644164468], [-141.2330816626249, -85.52568643893228], [-141.23308167456835, -85.52568643849283], [-141.2330816853264, -85.52568643827156], [-141.23308169144084, -85.52568643696262], [-141.23308170368892, -85.52568643471815], [-141.2330817368794, -85.52568642868606]]}}, {"type": "Feature", "properties": {"FID": 42}, "geometry": {"type": "LineString", "coordinates": [[-141.23307993750666, -85.52568654028713], [-141.23307993691324, -85.52568654299913], [-141.23307992691917, -85.52568655020637], [-141.23307989261218, -85.52568657683965], [-141.23307986507393, -85.52568659561318], [-141.2330798390546, -85.5256866148297], [-141.23307982425865, -85.52568662555491], [-141.23307980603892, -85.52568663945537], [-141.2330797887166, -85.52568665145726], [-141.23307978182822, -85.52568665702978], [-141.23307977288903, -85.5256866618431]]}}, {"type": "Feature", "properties": {"FID": 43}, "geometry": {"type": "LineString", "coordinates": [[-141.23307977288903, -85.5256866618431], [-141.23308015755234, -85.52568666419202], [-141.23308057612059, -85.52568666685949], [-141.23308053494318, -85.52568669559547], [-141.23308052727316, -85.5256867014794], [-141.2330805105251, -85.5256867015781], [-141.2330804247138, -85.52568670059405], [-141.23308031719029, -85.52568670013036], [-141.23308026730788, -85.52568669971058], [-141.23308025216724, -85.52568670002658], [-141.23308023626564, -85.52568670105858], [-141.23308020354096, -85.52568673125447]]}}, {"type": "Feature", "properties": {"FID": 44}, "geometry": {"type": "LineString", "coordinates": [[-141.23308052727316, -85.5256867014794], [-141.23308090596285, -85.52568670433072], [-141.23308106238832, -85.52568670554125], [-141.2330810612667, -85.52568670697309], [-141.2330810543246, -85.52568671151867], [-141.23308102585096, -85.52568673147503], [-141.23308099480823, -85.52568675569553], [-141.2330809501367, -85.52568678626865], [-141.23308094996995, -85.52568678689107], [-141.23308126043392, -85.52568678942181], [-141.23308126960126, -85.52568678929441], [-141.2330812795177, -85.52568678823322], [-141.2330812995188, -85.5256867740677], [-141.23308130447347, -85.52568677346707], [-141.23308131194688, -85.52568677335576], [-141.23308150479298, -85.52568677499424], [-141.23308150972747, -85.52568677400465], [-141.2330815496227, -85.52568674363532], [-141.23308155980888, -85.525686736288], [-141.2330815632809, -85.52568673403076], [-141.23308157792704, -85.52568672425471]]}}, {"type": "Feature", "properties": {"FID": 45}, "geometry": {"type": "LineString", "coordinates": [[-141.23308150479298, -85.52568677499424], [-141.23308176783664, -85.52568677651703], [-141.23308177471077, -85.52568677639039], [-141.23308177697623, -85.52568677585286], [-141.23308178122537, -85.52568677320637], [-141.23308179510417, -85.5256867601942], [-141.23308180867997, -85.52568675854835], [-141.23308182159442, -85.52568675761067], [-141.23308184495193, -85.52568675614063], [-141.2330819263702, -85.52568675129905], [-141.2330819297343, -85.5256867507923], [-141.23308193128835, -85.52568674999827], [-141.23308193113525, -85.52568674897915], [-141.23308192974903, -85.52568674726028], [-141.23308193108326, -85.52568674607733], [-141.23308193559942, -85.52568674472221], [-141.233081941335, -85.52568674380237], [-141.23308196697724, -85.52568674216046], [-141.23308201194453, -85.5256867401234], [-141.23308202744235, -85.52568673899819], [-141.23308203655432, -85.52568673781276], [-141.23308204607534, -85.52568673681391], [-141.2330820571935, -85.5256867358457], [-141.23308207370957, -85.5256867351247], [-141.2330820957764, -85.52568673376399], [-141.2330821025194, -85.52568673303834], [-141.23308210895638, -85.5256867321805], [-141.23308211987575, -85.5256867312279], [-141.23308211947705, -85.52568673122803], [-141.2330821302092, -85.52568673050888], [-141.23308215256262, -85.52568672700086], [-141.23308217294945, -85.5256867240225], [-141.23308218835905, -85.5256867212169], [-141.233082263117, -85.52568670915002], [-141.23308226664014, -85.52568670787302], [-141.2330822649695, -85.52568670644207], [-141.23308225765632, -85.52568670389265], [-141.2330822522464, -85.52568670341202], [-141.23308225044522, -85.52568669185187], [-141.2330822496565, -85.5256866843991], [-141.23308225213447, -85.52568667458027], [-141.23308225092808, -85.52568667058185], [-141.23308225325636, -85.52568666552426], [-141.23308225490484, -85.52568666081697], [-141.23308225707882, -85.525686656623]]}}, {"type": "Feature", "properties": {"FID": 46}, "geometry": {"type": "LineString", "coordinates": [[-141.2330822522464, -85.52568670341202], [-141.23308224339004, -85.5256867037727], [-141.23308223265542, -85.52568670444518], [-141.23308222392916, -85.52568670538153], [-141.23308220426264, -85.52568670688152], [-141.23308217763207, -85.5256867086871], [-141.2330821623015, -85.52568670919769], [-141.2330821523379, -85.52568670935644], [-141.23308213917412, -85.52568670934507], [-141.2330821254023, -85.52568670914718], [-141.23308205117948, -85.52568670856398], [-141.2330818947498, -85.52568670727567], [-141.23308186841405, -85.52568670709734], [-141.23308186708707, -85.52568670842031], [-141.23308185672832, -85.52568671628119], [-141.23308185325402, -85.52568671849174]]}}, {"type": "Feature", "properties": {"FID": 47}, "geometry": {"type": "LineString", "coordinates": [[-141.23308194078345, -85.52568665317612], [-141.23308194077939, -85.52568665309833], [-141.23308186841405, -85.52568670709734]]}}, {"type": "Feature", "properties": {"FID": 48}, "geometry": {"type": "LineString", "coordinates": [[-141.23308057612059, -85.52568666685949], [-141.2330808478326, -85.52568666824335], [-141.23308095656174, -85.5256866688778], [-141.23308119536594, -85.52568667026438], [-141.23308121811107, -85.5256866704283], [-141.23308121966886, -85.52568666971206], [-141.2330812221876, -85.52568666829535], [-141.2330812270393, -85.52568666572648], [-141.23308123170634, -85.52568666343774], [-141.2330812360287, -85.5256866621916], [-141.23308124455735, -85.52568666128644], [-141.2330812499219, -85.52568666089574], [-141.2330812620839, -85.52568666082185], [-141.23308127096308, -85.52568666089684], [-141.23308131774522, -85.52568666114644], [-141.2330813476807, -85.52568666151812], [-141.2330813696679, -85.5256866624447], [-141.2330813820804, -85.5256866633432], [-141.2330813877012, -85.52568666404159], [-141.23308138857485, -85.52568666548835], [-141.23308138151293, -85.52568666774671], [-141.233081380199, -85.52568667313074], [-141.23308138225673, -85.52568667434372], [-141.23308138573196, -85.52568667596081], [-141.23308139270566, -85.52568667964618], [-141.2330814103099, -85.5256866844796], [-141.23308143568664, -85.5256866892016], [-141.23308144851578, -85.52568669044228], [-141.23308146960636, -85.52568669329852], [-141.23308151184514, -85.52568669628806], [-141.23308157765422, -85.52568669997028], [-141.23308160361844, -85.52568670067775], [-141.2330816659995, -85.52568670364532], [-141.2330816813848, -85.525686704185], [-141.23308170874773, -85.5256867049387], [-141.23308174072125, -85.52568670614218], [-141.2330817754497, -85.52568670662903], [-141.23308186841405, -85.52568670709734]]}}, {"type": "Feature", "properties": {"FID": 49}, "geometry": {"type": "LineString", "coordinates": [[-141.23308052727316, -85.5256867014794], [-141.2330805210433, -85.52568670629707], [-141.23308050338468, -85.52568671948937], [-141.2330804945839, -85.525686726634], [-141.2330804782666, -85.52568673877562], [-141.23308046401255, -85.52568674842706]]}}, {"type": "Feature", "properties": {"FID": 50}, "geometry": {"type": "LineString", "coordinates": [[-141.23308094996995, -85.52568678689107], [-141.23308091241938, -85.52568681442783], [-141.2330809134687, -85.52568681542331], [-141.23308091829594, -85.52568681619974], [-141.23308092790805, -85.52568681694353], [-141.23308099400174, -85.52568681844733], [-141.23308102040897, -85.52568681999489], [-141.233081034495, -85.52568682238658], [-141.23308103540367, -85.52568682450237], [-141.23308102629602, -85.52568682578114], [-141.23308101916987, -85.52568682681034], [-141.23308101926102, -85.52568682855298], [-141.23308102494477, -85.52568683044943], [-141.23308102943642, -85.52568683243962], [-141.23308103148298, -85.52568683343478], [-141.23308103291876, -85.52568683487159]]}}, {"type": "Feature", "properties": {"FID": 51}, "geometry": {"type": "LineString", "coordinates": [[-141.23307768332404, -85.52568641721766], [-141.2330776723059, -85.52568642391175], [-141.2330776638934, -85.52568643085397], [-141.23307765314343, -85.52568643885499], [-141.23307764277243, -85.52568644648245], [-141.23307762652178, -85.52568645608785], [-141.23307761477602, -85.52568646412031], [-141.23307760394965, -85.52568647448639], [-141.23307758935903, -85.52568648532046], [-141.23307757707252, -85.52568649445782], [-141.23307757223222, -85.5256864972445], [-141.23307756632317, -85.52568650247439], [-141.2330775617173, -85.52568650593007], [-141.23307754993158, -85.52568651389907]]}}, {"type": "Feature", "properties": {"FID": 52}, "geometry": {"type": "LineString", "coordinates": [[-141.23307781723148, -85.52568651607395], [-141.23307780317, -85.5256865274498], [-141.23307779731945, -85.52568652998788], [-141.23307779405874, -85.52568653246287], [-141.2330777798217, -85.52568654625314], [-141.2330777750366, -85.52568655009786], [-141.23307776529762, -85.52568655836306], [-141.23307774955873, -85.525686566319], [-141.2330777457954, -85.52568657063019], [-141.23307774083656, -85.5256865749573]]}}, {"type": "Feature", "properties": {"FID": 53}, "geometry": {"type": "LineString", "coordinates": [[-141.23307802741698, -85.52568652556333], [-141.2330780313326, -85.52568652747053], [-141.23307802875212, -85.52568653151683], [-141.233078025036, -85.52568653673046], [-141.2330780146862, -85.52568654476246], [-141.23307800768617, -85.52568654820334], [-141.23307799261434, -85.52568655365397], [-141.23307799015976, -85.52568655629987], [-141.23307798848046, -85.52568655850988], [-141.23307798326593, -85.52568656557554], [-141.2330779801983, -85.52568657175365], [-141.23307797078013, -85.52568657852504], [-141.23307796220146, -85.52568658229316], [-141.2330779541003, -85.52568658755487], [-141.23307794594672, -85.52568659182077], [-141.2330779429379, -85.52568659530705], [-141.2330779401824, -85.5256865998202], [-141.2330779393782, -85.52568660255375]]}}, {"type": "Feature", "properties": {"FID": 54}, "geometry": {"type": "LineString", "coordinates": [[-141.2330782356299, -85.52568660513377], [-141.23307823047355, -85.52568660942137], [-141.23307821240422, -85.52568662238819], [-141.2330782058144, -85.52568662795282], [-141.23307819718553, -85.52568663456837], [-141.23307818705933, -85.52568664305932], [-141.23307817558026, -85.52568665238311], [-141.2330781727095, -85.52568665468684]]}}, {"type": "Feature", "properties": {"FID": 55}, "geometry": {"type": "LineString", "coordinates": [[-141.23307876827423, -85.52568660921904], [-141.23307875504975, -85.52568661980372], [-141.23307874821998, -85.52568662649651], [-141.23307873932723, -85.52568663188292], [-141.23307872969545, -85.52568663838987], [-141.23307872671037, -85.52568664232739], [-141.2330787194376, -85.52568664818007], [-141.23307871350835, -85.52568665302097]]}}, {"type": "Feature", "properties": {"FID": 56}, "geometry": {"type": "LineString", "coordinates": [[-141.23307945364039, -85.52568653297705], [-141.23307945388413, -85.52568653191894], [-141.23307945852582, -85.52568652914786], [-141.23307946643993, -85.52568652602567], [-141.23307947613648, -85.52568652266172], [-141.23307953481068, -85.52568649670532], [-141.23307954981414, -85.5256864899477], [-141.23307957161038, -85.52568647959367], [-141.23307958504088, -85.52568647327224], [-141.23307963987233, -85.52568645010223], [-141.23307965533087, -85.52568644441808], [-141.23307971483004, -85.52568641897489], [-141.23307971677042, -85.52568641794734], [-141.23307997870967, -85.52568641932655], [-141.23308025024414, -85.52568642049074]]}}, {"type": "Feature", "properties": {"FID": 57}, "geometry": {"type": "LineString", "coordinates": [[-141.2330786939718, -85.5256864126503], [-141.23307914946164, -85.52568641514829], [-141.2330794347401, -85.52568641661341], [-141.23307971677042, -85.52568641794734]]}}, {"type": "Feature", "properties": {"FID": 58}, "geometry": {"type": "LineString", "coordinates": [[-141.23307929592832, -85.52568641590051], [-141.23307926129493, -85.52568644081701]]}}, {"type": "Feature", "properties": {"FID": 59}, "geometry": {"type": "LineString", "coordinates": [[-141.23307875791312, -85.52568641300095], [-141.23307873358183, -85.5256864333764], [-141.23307872158253, -85.5256864441941], [-141.2330787115651, -85.52568645285615], [-141.2330787010297, -85.52568646115273], [-141.23307868618568, -85.52568647477203], [-141.23307866432114, -85.52568649144322]]}}, {"type": "Feature", "properties": {"FID": 60}, "geometry": {"type": "LineString", "coordinates": [[-141.23307872158253, -85.5256864441941], [-141.23307889407997, -85.52568644571845], [-141.23307890384322, -85.52568644554421], [-141.2330789199744, -85.52568644508784], [-141.2330789261284, -85.52568644454131], [-141.23307892928696, -85.52568644391792], [-141.2330789352059, -85.52568644268683], [-141.233078943938, -85.52568644185939], [-141.23307895906692, -85.52568644131], [-141.23307900354234, -85.52568644131141], [-141.23307907495592, -85.52568644156874], [-141.2330791216293, -85.52568644164722], [-141.23307915511242, -85.5256864412009], [-141.23307919578633, -85.52568644097013], [-141.23307923048043, -85.52568644080348], [-141.23307926129493, -85.52568644081701]]}}, {"type": "Feature", "properties": {"FID": 61}, "geometry": {"type": "LineString", "coordinates": [[-141.23307866979948, -85.52568628540622], [-141.23307866342068, -85.5256862911925], [-141.23307865517444, -85.52568629749673], [-141.23307865206385, -85.52568629903811], [-141.2330786464349, -85.52568630199622], [-141.23307864115355, -85.52568630397397], [-141.23307863370093, -85.52568630638807], [-141.23307862889905, -85.52568630990604], [-141.23307862431903, -85.52568631385962], [-141.23307862189407, -85.52568631706565], [-141.2330786184375, -85.5256863196185], [-141.23307860807338, -85.52568632737045], [-141.23307860055786, -85.52568633239858], [-141.23307859830695, -85.5256863351222], [-141.23307858961232, -85.52568634047744], [-141.23307858714244, -85.52568634282771], [-141.23307858239085, -85.52568634731037], [-141.2330785785624, -85.52568635037682], [-141.2330785652341, -85.52568635865872], [-141.23307856140488, -85.52568636170962], [-141.2330785607301, -85.52568636215327], [-141.23307882491295, -85.52568636448868], [-141.23307884827116, -85.52568634587205], [-141.23307885885066, -85.52568633841568], [-141.23307887607413, -85.52568632834317]]}}, {"type": "Feature", "properties": {"FID": 62}, "geometry": {"type": "LineString", "coordinates": [[-141.23307882491295, -85.52568636448868], [-141.23307882239845, -85.52568636598319], [-141.23307881934744, -85.5256863686604], [-141.2330788163321, -85.52568637202222], [-141.2330788097523, -85.52568637586751], [-141.23307880253242, -85.52568638273155], [-141.2330787946767, -85.52568638887229], [-141.23307878587804, -85.52568639414977], [-141.23307877889528, -85.5256863979174], [-141.2330787696998, -85.52568640513994], [-141.2330787662734, -85.5256864082685]]}}, {"type": "Feature", "properties": {"FID": 63}, "geometry": {"type": "LineString", "coordinates": [[-141.2330787662734, -85.5256864082685], [-141.23307875791312, -85.52568641300095]]}}, {"type": "Feature", "properties": {"FID": 64}, "geometry": {"type": "LineString", "coordinates": [[-141.2330785656255, -85.52568656061338], [-141.2330785314354, -85.5256865856751], [-141.23307851344862, -85.5256866002134], [-141.23307850609976, -85.5256866071553]]}}, {"type": "Feature", "properties": {"FID": 65}, "geometry": {"type": "LineString", "coordinates": [[-141.23307915893682, -85.52568612156826], [-141.23307914680063, -85.52568612975642], [-141.233079131485, -85.52568614199109], [-141.23307911654658, -85.52568615380552], [-141.2330791043985, -85.52568616177587], [-141.23307910045932, -85.52568616653832], [-141.2330790865944, -85.52568617600292], [-141.23307905815608, -85.52568619662834], [-141.2330790475793, -85.5256862041314], [-141.23307904702622, -85.52568620500291]]}}, {"type": "Feature", "properties": {"FID": 66}, "geometry": {"type": "LineString", "coordinates": [[-141.23307904702622, -85.52568620500291], [-141.2330790244856, -85.52568620493228], [-141.23307900794626, -85.52568620520206], [-141.23307899879634, -85.52568620567176], [-141.2330789950448, -85.52568620638868], [-141.23307899139027, -85.52568620897273], [-141.2330789863865, -85.52568621244411], [-141.23307898569922, -85.52568621456041], [-141.23307898117403, -85.52568622336854], [-141.23307897931892, -85.52568622602982], [-141.2330789755857, -85.52568623091668], [-141.23307897256467, -85.52568623416958], [-141.233078967187, -85.52568624193549], [-141.23307896388835, -85.52568624750685], [-141.23307895933144, -85.52568625189609], [-141.23307894466856, -85.52568627279719], [-141.2330789337938, -85.52568628604182]]}}, {"type": "Feature", "properties": {"FID": 67}, "geometry": {"type": "LineString", "coordinates": [[-141.23307866979948, -85.52568628540622], [-141.2330789337938, -85.52568628604182]]}}, {"type": "Feature", "properties": {"FID": 68}, "geometry": {"type": "LineString", "coordinates": [[-141.2330789337938, -85.52568628604182], [-141.233079465215, -85.5256862881132], [-141.2330802539793, -85.52568629139414], [-141.23308025836855, -85.52568629142384], [-141.23308026889646, -85.52568628298725], [-141.2330802901511, -85.5256862660984], [-141.23308032033364, -85.52568624449216], [-141.23308032874337, -85.52568623750328], [-141.23308034525454, -85.52568622525267], [-141.23308035248664, -85.52568621862201], [-141.2330803606044, -85.5256862136715], [-141.23308036192793, -85.52568621228629]]}}, {"type": "Feature", "properties": {"FID": 69}, "geometry": {"type": "LineString", "coordinates": [[-141.23307904702622, -85.52568620500291], [-141.2330795714418, -85.5256862065942], [-141.2330795782236, -85.5256862066076], [-141.23307983254597, -85.52568620725793], [-141.23307987643523, -85.52568620749291], [-141.23308006896588, -85.52568620881642], [-141.2330801759096, -85.52568620963815], [-141.23308035467332, -85.52568621085713], [-141.23308036185304, -85.52568621085483], [-141.2330803634476, -85.52568621083877], [-141.23308036192793, -85.52568621228629]]}}, {"type": "Feature", "properties": {"FID": 70}, "geometry": {"type": "LineString", "coordinates": [[-141.23307983878453, -85.52568620729133], [-141.23307983170736, -85.52568621410438], [-141.2330798236355, -85.52568621992623], [-141.23307981005286, -85.5256862309778], [-141.23307979950636, -85.52568623905654], [-141.233079783398, -85.52568625138483], [-141.23307977017856, -85.52568626175166], [-141.2330797519611, -85.52568627569879], [-141.2330797344914, -85.52568628923328]]}}, {"type": "Feature", "properties": {"FID": 71}, "geometry": {"type": "LineString", "coordinates": [[-141.23307968488126, -85.52568612378921], [-141.23307967073006, -85.52568613540113], [-141.23307965809335, -85.52568614547215], [-141.23307965100506, -85.52568615102916], [-141.2330796425405, -85.5256861569756], [-141.23307963092068, -85.52568616551368], [-141.2330796242907, -85.52568617030813], [-141.2330796170374, -85.52568617652648], [-141.2330796085594, -85.52568618221616], [-141.23307959856982, -85.52568618950897], [-141.2330795839561, -85.5256861999074], [-141.2330795782236, -85.5256862066076]]}}, {"type": "Feature", "properties": {"FID": 72}, "geometry": {"type": "LineString", "coordinates": [[-141.23307919886733, -85.52568628707503], [-141.23307917554794, -85.52568630378829], [-141.2330791546823, -85.52568632049028], [-141.23307914063915, -85.52568633417158]]}}, {"type": "Feature", "properties": {"FID": 73}, "geometry": {"type": "LineString", "coordinates": [[-141.2330794686773, -85.52568628812762], [-141.23307946076957, -85.52568629272803], [-141.23307945158376, -85.52568630013728], [-141.2330794451903, -85.52568630754564], [-141.2330794407416, -85.52568631019219], [-141.23307943358344, -85.52568631442666], [-141.2330794293213, -85.52568631682418], [-141.23307942406464, -85.52568632118252], [-141.23307941804507, -85.52568632621016], [-141.23307941256644, -85.52568633014069], [-141.23307940447302, -85.52568633555019], [-141.23307939405922, -85.52568634426684], [-141.23307938387987, -85.52568635173864], [-141.23307937554185, -85.5256863581985], [-141.23307936302027, -85.5256863666513], [-141.23307936150235, -85.52568636812993], [-141.2330793681039, -85.52568636851683], [-141.23307937628329, -85.5256863685609], [-141.2330794462117, -85.52568636902099], [-141.233079542085, -85.52568636981513], [-141.23307958059542, -85.52568637016073], [-141.23307964184167, -85.5256863704991], [-141.2330797794182, -85.52568637167673], [-141.2330801538219, -85.52568637456831], [-141.23308033480737, -85.52568637631559], [-141.23308041082888, -85.52568637697603], [-141.2330806846709, -85.52568637904383], [-141.23308095679684, -85.52568638071544], [-141.23308122656314, -85.52568638302571], [-141.2330812574657, -85.52568638282138], [-141.23308127000118, -85.52568638225725], [-141.23308128105495, -85.52568638196588], [-141.233081307478, -85.52568638191079], [-141.2330813302368, -85.52568638233922], [-141.233081338939, -85.52568637486972]]}}, {"type": "Feature", "properties": {"FID": 74}, "geometry": {"type": "LineString", "coordinates": [[-141.2330817368794, -85.52568642868606], [-141.23308131281013, -85.52568642665827]]}}, {"type": "Feature", "properties": {"FID": 75}, "geometry": {"type": "LineString", "coordinates": [[-141.2330817368794, -85.52568642868606], [-141.23308223747344, -85.52568643145187], [-141.2330824311884, -85.5256864325416], [-141.23308255547187, -85.52568643314], [-141.23308269949882, -85.52568643371652], [-141.2330830601609, -85.52568643507986], [-141.23308306395427, -85.52568643515646], [-141.23308304418111, -85.52568644986648], [-141.2330830351747, -85.52568645688669], [-141.23308298883606, -85.5256864899032], [-141.23308297065856, -85.52568649698857], [-141.2330829560676, -85.52568650019847], [-141.23308293616614, -85.52568651245015], [-141.2330829294494, -85.52568651749357], [-141.23308292102843, -85.52568652283149]]}}, {"type": "Feature", "properties": {"FID": 76}, "geometry": {"type": "LineString", "coordinates": [[-141.2330830351747, -85.52568645688669], [-141.2330829585358, -85.52568645586861], [-141.23308283383048, -85.5256864548347], [-141.2330827841664, -85.52568645477272], [-141.2330827506786, -85.52568645512568], [-141.23308256936545, -85.52568645854426], [-141.23308252666763, -85.52568645821555], [-141.2330824656215, -85.52568645789268], [-141.2330822022539, -85.52568645589153], [-141.233081946857, -85.52568645376338], [-141.23308174453686, -85.52568645211626], [-141.23308160787485, -85.5256864507309]]}}, {"type": "Feature", "properties": {"FID": null}, "geometry": {"type": "LineString", "coordinates": [[-141.23307290963783, -85.52568656407446], [-141.2330730389879, -85.52568646535731]]}}, {"type": "Feature", "properties": {"FID": null}, "geometry": {"type": "LineString", "coordinates": [[-141.23307302331568, -85.52568647731815], [-141.23307355288546, -85.52568648199698], [-141.23307345637045, -85.52568655661403]]}}, {"type": "Feature", "properties": {"FID": null}, "geometry": {"type": "LineString", "coordinates": [[-141.23307357401453, -85.52568646768744], [-141.23307355288546, -85.52568648199698]]}}, {"type": "Feature", "properties": {"FID": null}, "geometry": {"type": "LineString", "coordinates": [[-141.23307355288546, -85.52568648199698], [-141.23307409062173, -85.52568648593915], [-141.23307404865292, -85.5256865159065]]}}, {"type": "Feature", "properties": {"FID": null}, "geometry": {"type": "LineString", "coordinates": [[-141.23307409062173, -85.52568648593915], [-141.23307411535765, -85.5256864652963]]}}, {"type": "Feature", "properties": {"FID": null}, "geometry": {"type": "LineString", "coordinates": [[-141.23307409062173, -85.52568648593915], [-141.2330746209473, -85.52568649040423], [-141.2330745452684, -85.52568654720439]]}}, {"type": "Feature", "properties": {"FID": null}, "geometry": {"type": "LineString", "coordinates": [[-141.23307435532354, -85.5256864881678], [-141.2330743382064, -85.5256864992671]]}}, {"type": "Feature", "properties": {"FID": null}, "geometry": {"type": "LineString", "coordinates": [[-141.23307435247443, -85.52568648806631], [-141.2330744032842, -85.52568644892195], [-141.23307448937894, -85.52568638630689]]}}, {"type": "Feature", "properties": {"FID": null}, "geometry": {"type": "LineString", "coordinates": [[-141.2330744588889, -85.52568640848165], [-141.2330752614998, -85.52568641471795], [-141.23307529247688, -85.52568639211032]]}}, {"type": "Feature", "properties": {"FID": null}, "geometry": {"type": "LineString", "coordinates": [[-141.2330752614998, -85.52568641471795], [-141.23307522425978, -85.52568644307944], [-141.23307520691412, -85.52568645443505], [-141.23307519479502, -85.52568646114656], [-141.2330751868469, -85.52568646812982], [-141.2330751869433, -85.52568646997311], [-141.2330754552748, -85.52568647214065], [-141.2330754085973, -85.52568650619723], [-141.2330753755635, -85.52568653131449], [-141.23307536036484, -85.52568653980204], [-141.233075355041, -85.52568654258579], [-141.23307533836774, -85.52568655424841], [-141.23307533001324, -85.52568656182918], [-141.23307532459305, -85.52568656695125], [-141.23307531106835, -85.52568657606976], [-141.23307529276866, -85.5256865901878]]}}, {"type": "Feature", "properties": {"FID": null}, "geometry": {"type": "LineString", "coordinates": [[-141.2330749938289, -85.52568641263814], [-141.23307502226112, -85.52568639155629]]}}, {"type": "Feature", "properties": {"FID": null}, "geometry": {"type": "LineString", "coordinates": [[-141.2330749938289, -85.52568641263814], [-141.23307495641262, -85.52568644180779], [-141.23307494789756, -85.52568644631643], [-141.2330749416808, -85.5256864529407], [-141.23307492544876, -85.52568646467147], [-141.23307491302484, -85.52568647392617], [-141.23307489908498, -85.52568648347152], [-141.2330748886107, -85.52568649235009]]}}, {"type": "Feature", "properties": {"FID": null}, "geometry": {"type": "LineString", "coordinates": [[-141.2330746209473, -85.52568649040423], [-141.2330748886107, -85.52568649235009]]}}, {"type": "Feature", "properties": {"FID": null}, "geometry": {"type": "LineString", "coordinates": [[-141.2330748886107, -85.52568649235009], [-141.2330748649461, -85.52568651046658], [-141.233074834258, -85.52568653024088]]}}, {"type": "Feature", "properties": {"FID": null}, "geometry": {"type": "LineString", "coordinates": [[-141.2330748886107, -85.52568649235009], [-141.23307512554936, -85.52568649454469], [-141.2330754214315, -85.52568649683317]]}}, {"type": "Feature", "properties": {"FID": null}, "geometry": {"type": "LineString", "coordinates": [[-141.2330754214315, -85.52568649683317], [-141.23307568945043, -85.52568649888816], [-141.23307566139053, -85.52568651872134], [-141.2330756249178, -85.52568654501738], [-141.23307561565048, -85.52568655188159], [-141.23307559646014, -85.52568656561021], [-141.2330755846759, -85.52568657454043], [-141.2330755750391, -85.52568658270192], [-141.23307556642706, -85.5256865895403], [-141.2330755577405, -85.5256865954326]]}}, {"type": "Feature", "properties": {"FID": null}, "geometry": {"type": "LineString", "coordinates": [[-141.23307568945043, -85.52568649888816], [-141.233075951662, -85.52568650117284], [-141.2330759823959, -85.52568647808738]]}}, {"type": "Feature", "properties": {"FID": null}, "geometry": {"type": "LineString", "coordinates": [[-141.233075951662, -85.52568650117284], [-141.2330761206376, -85.52568650272343], [-141.23307621475027, -85.52568650347858], [-141.2330762338846, -85.52568648867897], [-141.23307627290978, -85.52568646412732], [-141.23307630255286, -85.52568644110193], [-141.23307633891267, -85.52568641473766], [-141.23307634321006, -85.52568641115207], [-141.23307634559768, -85.52568640661126], [-141.23307635359168, -85.52568640049844], [-141.23307635525876, -85.52568639891061]]}}, {"type": "Feature", "properties": {"FID": null}, "geometry": {"type": "LineString", "coordinates": [[-141.23307621475027, -85.52568650347858], [-141.23307620409048, -85.52568651194761], [-141.23307619634298, -85.52568651858945], [-141.2330761929774, -85.52568652116777], [-141.23307618391897, -85.52568652783563], [-141.23307617851304, -85.52568653323078], [-141.23307616654392, -85.52568654280962], [-141.2330761585528, -85.52568654897365]]}}, {"type": "Feature", "properties": {"FID": null}, "geometry": {"type": "LineString", "coordinates": [[-141.23307621475027, -85.52568650347858], [-141.23307701792743, -85.52568650974281], [-141.23307700654033, -85.52568651790484], [-141.23307699163507, -85.52568652990826], [-141.2330769780873, -85.525686538583], [-141.2330769705515, -85.52568654508826], [-141.23307696198086, -85.52568655272029], [-141.23307695291408, -85.525686559226], [-141.23307694341648, -85.52568656586841], [-141.23307693580318, -85.52568657088877], [-141.23307693042878, -85.52568657324584]]}}, {"type": "Feature", "properties": {"FID": null}, "geometry": {"type": "LineString", "coordinates": [[-141.23307701792743, -85.52568650974281], [-141.23307728964298, -85.52568651178126], [-141.23307802142878, -85.52568651773538], [-141.23307802517195, -85.52568651819502], [-141.23307802695777, -85.52568651887717], [-141.23307802776336, -85.52568652069036], [-141.23307802594618, -85.5256865225428], [-141.2330780235371, -85.52568652458316], [-141.23307802423162, -85.52568652531686], [-141.23307802741698, -85.52568652556333], [-141.23307803758968, -85.5256865255601]]}}, {"type": "Feature", "properties": {"FID": null}, "geometry": {"type": "LineString", "coordinates": [[-141.23307728411228, -85.52568651173976], [-141.23307727570617, -85.52568651929126], [-141.23307726556578, -85.52568652618989], [-141.23307725423243, -85.52568653537598], [-141.23307724303362, -85.52568654357144], [-141.2330772379041, -85.5256865471829], [-141.23307723025195, -85.52568655340913], [-141.23307722253378, -85.52568655836988], [-141.23307722339885, -85.52568655965587], [-141.23307723517183, -85.5256865610421], [-141.2330772936348, -85.52568656535941], [-141.23307729579997, -85.52568656608484], [-141.23307728786807, -85.5256865669587], [-141.23307728076955, -85.5256865685169], [-141.2330772568935, -85.52568657468606], [-141.2330772240174, -85.52568658419302], [-141.23307725345433, -85.52568659028299], [-141.23307725946074, -85.5256865932685], [-141.23307726059323, -85.52568659458552], [-141.2330772459821, -85.52568659485986], [-141.23307720399944, -85.52568659549561], [-141.2330771907264, -85.52568659593551], [-141.23307717772676, -85.52568659652053], [-141.23307712945766, -85.52568659898392], [-141.23307702656032, -85.52568660434842], [-141.23307702012812, -85.52568660466164], [-141.233077012428, -85.52568660488194], [-141.2330770091055, -85.52568660490893], [-141.233077004891, -85.52568660440717], [-141.23307699897745, -85.52568660320061], [-141.23307699158616, -85.52568660169888], [-141.2330769845388, -85.52568659914935], [-141.2330769788038, -85.52568659626746], [-141.2330769735211, -85.52568659441239], [-141.23307696444292, -85.52568659116852], [-141.2330769385193, -85.52568658107347], [-141.233076935698, -85.52568658010128]]}}, {"type": "Feature", "properties": {"FID": null}, "geometry": {"type": "LineString", "coordinates": [[-141.23307726059323, -85.52568659458552], [-141.2330772772267, -85.52568660246371], [-141.23307728045677, -85.52568660320954], [-141.2330772926955, -85.52568660333012], [-141.2330773131627, -85.52568660315762], [-141.2330773777351, -85.52568660226574], [-141.23307743857802, -85.52568660125057], [-141.23307756637507, -85.52568659911454], [-141.23307767372015, -85.52568659744144], [-141.23307769337947, -85.5256865970825], [-141.23307770747124, -85.52568659703653], [-141.2330777199823, -85.52568659728149], [-141.2330777341097, -85.52568659792013], [-141.23307774163774, -85.52568659949442], [-141.23307774996044, -85.52568660100623], [-141.2330777622122, -85.52568660137575], [-141.23307792501353, -85.52568660246496], [-141.2330779393782, -85.52568660255375], [-141.2330779365283, -85.5256866039965], [-141.23307793455302, -85.52568660690157], [-141.23307793025103, -85.52568661235397], [-141.23307792969857, -85.52568661704792], [-141.23307792502075, -85.5256866216654], [-141.23307792363934, -85.52568662576319], [-141.23307792627136, -85.52568662778508], [-141.23307792753965, -85.52568662915392], [-141.2330779310516, -85.52568663274187], [-141.2330779384771, -85.52568663743847], [-141.23307794425548, -85.52568664115017], [-141.23307794843032, -85.5256866447068], [-141.2330779524652, -85.5256866481286], [-141.23307795856655, -85.52568665292937], [-141.2330779609737, -85.52568665573968], [-141.23307796113025, -85.52568665618567]]}}, {"type": "Feature", "properties": {"FID": null}, "geometry": {"type": "LineString", "coordinates": [[-141.2330779393782, -85.52568660255375], [-141.2330782427343, -85.52568660519566], [-141.23307850609976, -85.5256866071553], [-141.23307876827423, -85.52568660921904], [-141.23307891964745, -85.52568661043637], [-141.23307897485165, -85.5256866109167], [-141.23307903990445, -85.52568661158061], [-141.23307919979544, -85.5256866129508], [-141.23307929823054, -85.52568661379081], [-141.23307932563227, -85.5256866140103], [-141.2330793554221, -85.52568661413567], [-141.2330794015675, -85.52568661428695], [-141.23307941033937, -85.52568661422191], [-141.23307939001472, -85.52568662727764], [-141.23307937425673, -85.52568663614119], [-141.23307937279495, -85.52568663869341], [-141.2330793723399, -85.52568664016654], [-141.23307936766946, -85.52568664238785], [-141.2330793543571, -85.52568665224645], [-141.23307934891616, -85.52568665498666], [-141.23307934553827, -85.5256866565022], [-141.2330793471915, -85.52568665760121], [-141.23307935228743, -85.52568665842942], [-141.23307936028883, -85.52568665888329], [-141.23307936854513, -85.5256866591296], [-141.2330793720021, -85.52568665912851]]}}, {"type": "Feature", "properties": {"FID": null}, "geometry": {"type": "LineString", "coordinates": [[-141.2330793720021, -85.52568665912851], [-141.2330795284204, -85.525686660199], [-141.23307977288903, -85.5256866618431], [-141.2330797530906, -85.52568667733632], [-141.23307972667865, -85.5256866960369], [-141.23307971519947, -85.52568670535551], [-141.23307970806303, -85.5256867112704]]}}, {"type": "Feature", "properties": {"FID": null}, "geometry": {"type": "LineString", "coordinates": [[-141.23307803758968, -85.5256865255601], [-141.23307833743786, -85.52568652706708], [-141.23307860104748, -85.52568652860136], [-141.23307860942478, -85.52568652861943], [-141.23307857730117, -85.52568655251353]]}}, {"type": "Feature", "properties": {"FID": null}, "geometry": {"type": "LineString", "coordinates": [[-141.23307860942478, -85.52568652861943], [-141.2330788792769, -85.52568653003243], [-141.23307884117162, -85.52568655649576], [-141.23307881743293, -85.52568657038239], [-141.23307881416173, -85.52568657393101], [-141.23307880752085, -85.52568657660936], [-141.2330788025798, -85.52568658128916], [-141.23307879175317, -85.52568659036899], [-141.23307878163502, -85.52568660028882], [-141.23307877344038, -85.52568660630777], [-141.23307876827423, -85.52568660921904]]}}, {"type": "Feature", "properties": {"FID": null}, "geometry": {"type": "LineString", "coordinates": [[-141.2330767837844, -85.5256864824517], [-141.2330767497551, -85.52568650765124]]}}, {"type": "Feature", "properties": {"FID": null}, "geometry": {"type": "LineString", "coordinates": [[-141.23307648553333, -85.5256865055905], [-141.23307645747076, -85.52568652650896], [-141.23307644717806, -85.52568653308873], [-141.23307644360597, -85.52568653597355], [-141.23307642574704, -85.52568655041848]]}}, {"type": "Feature", "properties": {"FID": null}, "geometry": {"type": "LineString", "coordinates": [[-141.2330745452684, -85.52568654720439], [-141.23307467435146, -85.5256865485539], [-141.23307467968021, -85.52568654875448], [-141.23307468275428, -85.52568654905951], [-141.23307468291813, -85.52568654965073], [-141.23307468215577, -85.5256865503252], [-141.23307467675104, -85.52568655312506], [-141.2330746647111, -85.5256865606182], [-141.23307465907473, -85.52568656470696], [-141.23307464705985, -85.52568657268245], [-141.23307463992757, -85.52568657868031], [-141.2330746357437, -85.52568658257152], [-141.2330746305441, -85.52568658611555], [-141.23307463080542, -85.52568658666526], [-141.23307463335067, -85.5256865870275], [-141.23307463785576, -85.52568658736061], [-141.23307464317668, -85.52568658741076], [-141.2330749753633, -85.52568658740486], [-141.2330751178794, -85.52568658737765], [-141.23307514068927, -85.52568658751042], [-141.23307517416126, -85.52568658812733], [-141.2330752869273, -85.52568659031644], [-141.2330752918855, -85.52568659042379], [-141.23307529305137, -85.5256865904701], [-141.23307529276866, -85.5256865901878]]}}, {"type": "Feature", "properties": {"FID": null}, "geometry": {"type": "LineString", "coordinates": [[-141.23307646797147, -85.52568611970327], [-141.23307636262015, -85.52568619889846], [-141.23307630038673, -85.52568624450767], [-141.23307627835317, -85.52568626048911], [-141.2330762762678, -85.52568626129887], [-141.23307654656008, -85.52568626349489], [-141.2330765765745, -85.52568623868346], [-141.2330765977368, -85.52568622256743], [-141.2330766260648, -85.52568620237254], [-141.23307662821057, -85.52568620018315], [-141.233076895622, -85.5256862006893], [-141.23307689607554, -85.52568620173163], [-141.23307688753792, -85.52568620627773], [-141.2330768818493, -85.52568621191207], [-141.23307685631428, -85.52568623085615], [-141.2330768458041, -85.52568623963506], [-141.23307683523382, -85.5256862472626], [-141.23307682140648, -85.52568625744291], [-141.2330768100637, -85.52568626555305], [-141.23307680338166, -85.52568626553962], [-141.23307670302097, -85.52568626474691], [-141.23307654656008, -85.52568626349489]]}}, {"type": "Feature", "properties": {"FID": null}, "geometry": {"type": "LineString", "coordinates": [[-141.2330768100637, -85.52568626555305], [-141.2330767927538, -85.52568627969438], [-141.23307678610252, -85.52568628408427], [-141.23307677539825, -85.52568629105835], [-141.23307676890633, -85.52568629658404], [-141.23307675039027, -85.52568630863301], [-141.23307674697602, -85.52568631199495], [-141.23307674845842, -85.52568631364379], [-141.2330767582513, -85.52568631402966], [-141.23307678039623, -85.52568631416264], [-141.23307700665634, -85.5256863159422], [-141.2330770140386, -85.52568631600208], [-141.23307728837918, -85.52568631806976], [-141.23307732408665, -85.52568631821397], [-141.2330773979328, -85.5256863192174], [-141.23307744665436, -85.52568632032217], [-141.23307746300554, -85.52568632026251], [-141.2330774889063, -85.52568631975635], [-141.23307760001236, -85.52568632007885], [-141.2330776977803, -85.5256863208724], [-141.2330778297546, -85.52568632170949], [-141.23307783584008, -85.52568632175424], [-141.23307784994833, -85.52568630359956]]}}, {"type": "Feature", "properties": {"FID": null}, "geometry": {"type": "LineString", "coordinates": [[-141.23307783584008, -85.52568632175424], [-141.233077922924, -85.52568632227887], [-141.23307796022334, -85.52568632235257], [-141.23307798135724, -85.52568632222138], [-141.23307798961136, -85.52568632178308], [-141.23307799720945, -85.52568632024804], [-141.23307800169977, -85.52568631458296], [-141.23307801032547, -85.52568630028101], [-141.23307801457366, -85.52568629570516], [-141.23307802330993, -85.52568628542531], [-141.2330780272482, -85.52568628445937], [-141.23307803599585, -85.52568628392756], [-141.23307805572324, -85.52568628359452], [-141.23307839423217, -85.52568628466929], [-141.23307839941825, -85.5256862846832], [-141.23307839263452, -85.5256862941611], [-141.23307838408357, -85.52568630608242], [-141.23307837250132, -85.52568632105438]]}}, {"type": "Feature", "properties": {"FID": null}, "geometry": {"type": "LineString", "coordinates": [[-141.23307839941825, -85.5256862846832], [-141.23307866979948, -85.52568628540622], [-141.23307869704485, -85.525686245783], [-141.2330787006301, -85.52568623806435], [-141.2330787092769, -85.52568622797904]]}}, {"type": "Feature", "properties": {"FID": null}, "geometry": {"type": "LineString", "coordinates": [[-141.2330762762678, -85.52568626129887], [-141.23307627737267, -85.52568626208169], [-141.23307625263539, -85.52568627911945]]}}, {"type": "Feature", "properties": {"FID": null}, "geometry": {"type": "LineString", "coordinates": [[-141.23307702776358, -85.5256863038613], [-141.23307701126146, -85.52568631597956]]}}, {"type": "Feature", "properties": {"FID": null}, "geometry": {"type": "LineString", "coordinates": [[-141.23307701126146, -85.52568631597956], [-141.23307694808037, -85.52568636570852]]}}, {"type": "Feature", "properties": {"FID": null}, "geometry": {"type": "LineString", "coordinates": [[-141.2330772787652, -85.52568631799728], [-141.23307724728983, -85.52568633990894]]}}, {"type": "Feature", "properties": {"FID": null}, "geometry": {"type": "LineString", "coordinates": [[-141.23307728862682, -85.52568631041049], [-141.2330772787652, -85.52568631799728]]}}, {"type": "Feature", "properties": {"FID": null}, "geometry": {"type": "LineString", "coordinates": [[-141.23307744665436, -85.52568632032217], [-141.2330774833014, -85.52568632222044], [-141.23307751731315, -85.52568632426346], [-141.23307753099408, -85.52568632653079], [-141.2330775327716, -85.52568633001556], [-141.23307752265728, -85.52568633492004], [-141.233077518416, -85.52568633772209], [-141.23307747569845, -85.5256863713287], [-141.23307745878998, -85.52568638361055], [-141.23307745241678, -85.5256863875958], [-141.23307744501537, -85.52568639480222], [-141.23307743458108, -85.52568640121608], [-141.2330774307339, -85.52568640392464], [-141.23307742370258, -85.5256864067665], [-141.23307741937828, -85.52568640798152], [-141.23307741519685, -85.52568641191941], [-141.23307738952244, -85.52568643201492], [-141.23307736536495, -85.52568645060069], [-141.233077359932, -85.52568645349648], [-141.23307735290203, -85.52568645636167], [-141.23307734759132, -85.52568646159135], [-141.23307733028787, -85.52568647395113], [-141.23307732419877, -85.5256864795545], [-141.23307731773696, -85.52568648565588], [-141.2330773127467, -85.52568648939175], [-141.23307730810174, -85.52568649210059], [-141.23307730064028, -85.52568649815561], [-141.23307729188602, -85.52568650618711], [-141.23307728411228, -85.52568651173976]]}}, {"type": "Feature", "properties": {"FID": null}, "geometry": {"type": "LineString", "coordinates": [[-141.2330788792769, -85.52568653003243], [-141.23307914601182, -85.52568653127008], [-141.23307945364039, -85.52568653297705], [-141.2330794351909, -85.52568654630188], [-141.23307941563928, -85.52568656143195], [-141.2330793975537, -85.5256865740876], [-141.23307939686643, -85.52568657620392], [-141.2330794070826, -85.52568657705643], [-141.23307944059954, -85.5256865772636], [-141.23307945297807, -85.52568657750862], [-141.2330794623725, -85.52568657791016], [-141.23307946520723, -85.52568657871838], [-141.23307946467466, -85.52568657997885], [-141.23307945187386, -85.52568658690691], [-141.23307944589712, -85.52568659084537], [-141.23307943459176, -85.52568659967123], [-141.23307941952234, -85.52568660898062], [-141.23307941033937, -85.52568661422191]]}}, {"type": "Feature", "properties": {"FID": null}, "geometry": {"type": "LineString", "coordinates": [[-141.23307945364039, -85.52568653297705], [-141.23307948156585, -85.52568653304596], [-141.23307951028815, -85.52568653309906], [-141.23307952825894, -85.52568653349789], [-141.23307955664924, -85.52568653482697], [-141.23307956629378, -85.52568653619313], [-141.23307963774306, -85.52568654475924], [-141.23307966578656, -85.52568654708425], [-141.23307968853865, -85.52568654738819], [-141.23307972443124, -85.52568654725228], [-141.23307976431224, -85.52568654711513], [-141.23307979021328, -85.52568654660897], [-141.23307985072208, -85.5256865442869], [-141.2330798925082, -85.52568654243757], [-141.23307997248367, -85.52568653861559], [-141.23308005987187, -85.52568653351537], [-141.23308023036566, -85.52568652533904], [-141.23308026027811, -85.52568652526726], [-141.23308028021813, -85.52568652518312], [-141.23308033126287, -85.52568652494904], [-141.23308036434366, -85.5256865244406], [-141.23308048429146, -85.52568652222409], [-141.23308057035598, -85.52568652042291], [-141.23308059147882, -85.52568652007386], [-141.23308061742043, -85.52568652034569], [-141.23308076746494, -85.52568652157379], [-141.23308111104419, -85.52568652426514], [-141.23308117287527, -85.52568652433881], [-141.2330811780589, -85.52568652430602], [-141.2330811812271, -85.52568652386937], [-141.2330811839772, -85.52568652305939], [-141.23308118670238, -85.52568652178265], [-141.2330812052724, -85.52568650313644], [-141.2330812146109, -85.5256864986523], [-141.23308122011386, -85.52568649709461], [-141.23308123030907, -85.5256864937305], [-141.23308123298216, -85.52568649145798], [-141.23308123922266, -85.52568648874862], [-141.23308124633564, -85.52568648747048], [-141.23308127452754, -85.5256864850031], [-141.2330813250495, -85.52568648240414], [-141.23308137792142, -85.5256864789642], [-141.2330814137013, -85.52568647668113], [-141.23308145144966, -85.52568647389953], [-141.23308148243854, -85.52568647152461], [-141.23308151611673, -85.52568646718835], [-141.23308154379416, -85.52568646251167], [-141.23308160664251, -85.52568645153777], [-141.2330816083781, -85.52568645040137], [-141.23308160734263, -85.5256864496704], [-141.2330816106772, -85.52568644859574], [-141.23308161935776, -85.52568644678806], [-141.2330816468115, -85.52568644164468], [-141.2330816626249, -85.52568643893228], [-141.23308167456835, -85.52568643849283], [-141.2330816853264, -85.52568643827156], [-141.23308169144084, -85.52568643696262], [-141.23308170368892, -85.52568643471815], [-141.2330817368794, -85.52568642868606]]}}, {"type": "Feature", "properties": {"FID": null}, "geometry": {"type": "LineString", "coordinates": [[-141.23307993750666, -85.52568654028713], [-141.23307993691324, -85.52568654299913], [-141.23307992691917, -85.52568655020637], [-141.23307989261218, -85.52568657683965], [-141.23307986507393, -85.52568659561318], [-141.2330798390546, -85.5256866148297], [-141.23307982425865, -85.52568662555491], [-141.23307980603892, -85.52568663945537], [-141.2330797887166, -85.52568665145726], [-141.23307978182822, -85.52568665702978], [-141.23307977288903, -85.5256866618431]]}}, {"type": "Feature", "properties": {"FID": null}, "geometry": {"type": "LineString", "coordinates": [[-141.23307977288903, -85.5256866618431], [-141.23308015755234, -85.52568666419202], [-141.23308057612059, -85.52568666685949], [-141.23308053494318, -85.52568669559547], [-141.23308052727316, -85.5256867014794], [-141.2330805105251, -85.5256867015781], [-141.2330804247138, -85.52568670059405], [-141.23308031719029, -85.52568670013036], [-141.23308026730788, -85.52568669971058], [-141.23308025216724, -85.52568670002658], [-141.23308023626564, -85.52568670105858], [-141.23308020354096, -85.52568673125447]]}}, {"type": "Feature", "properties": {"FID": null}, "geometry": {"type": "LineString", "coordinates": [[-141.23308052727316, -85.5256867014794], [-141.23308090596285, -85.52568670433072], [-141.23308106238832, -85.52568670554125], [-141.2330810612667, -85.52568670697309], [-141.2330810543246, -85.52568671151867], [-141.23308102585096, -85.52568673147503], [-141.23308099480823, -85.52568675569553], [-141.2330809501367, -85.52568678626865], [-141.23308094996995, -85.52568678689107], [-141.23308126043392, -85.52568678942181], [-141.23308126960126, -85.52568678929441], [-141.2330812795177, -85.52568678823322], [-141.2330812995188, -85.5256867740677], [-141.23308130447347, -85.52568677346707], [-141.23308131194688, -85.52568677335576], [-141.23308150479298, -85.52568677499424], [-141.23308150972747, -85.52568677400465], [-141.2330815496227, -85.52568674363532], [-141.23308155980888, -85.525686736288], [-141.2330815632809, -85.52568673403076], [-141.23308157792704, -85.52568672425471]]}}, {"type": "Feature", "properties": {"FID": null}, "geometry": {"type": "LineString", "coordinates": [[-141.23308150479298, -85.52568677499424], [-141.23308176783664, -85.52568677651703], [-141.23308177471077, -85.52568677639039], [-141.23308177697623, -85.52568677585286], [-141.23308178122537, -85.52568677320637], [-141.23308179510417, -85.5256867601942], [-141.23308180867997, -85.52568675854835], [-141.23308182159442, -85.52568675761067], [-141.23308184495193, -85.52568675614063], [-141.2330819263702, -85.52568675129905], [-141.2330819297343, -85.5256867507923], [-141.23308193128835, -85.52568674999827], [-141.23308193113525, -85.52568674897915], [-141.23308192974903, -85.52568674726028], [-141.23308193108326, -85.52568674607733], [-141.23308193559942, -85.52568674472221], [-141.233081941335, -85.52568674380237], [-141.23308196697724, -85.52568674216046], [-141.23308201194453, -85.5256867401234], [-141.23308202744235, -85.52568673899819], [-141.23308203655432, -85.52568673781276], [-141.23308204607534, -85.52568673681391], [-141.2330820571935, -85.5256867358457], [-141.23308207370957, -85.5256867351247], [-141.2330820957764, -85.52568673376399], [-141.2330821025194, -85.52568673303834], [-141.23308210895638, -85.5256867321805], [-141.23308211987575, -85.5256867312279], [-141.23308211947705, -85.52568673122803], [-141.2330821302092, -85.52568673050888], [-141.23308215256262, -85.52568672700086], [-141.23308217294945, -85.5256867240225], [-141.23308218835905, -85.5256867212169], [-141.233082263117, -85.52568670915002], [-141.23308226664014, -85.52568670787302], [-141.2330822649695, -85.52568670644207], [-141.23308225765632, -85.52568670389265], [-141.2330822522464, -85.52568670341202], [-141.23308225044522, -85.52568669185187], [-141.2330822496565, -85.5256866843991], [-141.23308225213447, -85.52568667458027], [-141.23308225092808, -85.52568667058185], [-141.23308225325636, -85.52568666552426], [-141.23308225490484, -85.52568666081697], [-141.23308225707882, -85.525686656623]]}}, {"type": "Feature", "properties": {"FID": null}, "geometry": {"type": "LineString", "coordinates": [[-141.2330822522464, -85.52568670341202], [-141.23308224339004, -85.5256867037727], [-141.23308223265542, -85.52568670444518], [-141.23308222392916, -85.52568670538153], [-141.23308220426264, -85.52568670688152], [-141.23308217763207, -85.5256867086871], [-141.2330821623015, -85.52568670919769], [-141.2330821523379, -85.52568670935644], [-141.23308213917412, -85.52568670934507], [-141.2330821254023, -85.52568670914718], [-141.23308205117948, -85.52568670856398], [-141.2330818947498, -85.52568670727567], [-141.23308186841405, -85.52568670709734], [-141.23308186708707, -85.52568670842031], [-141.23308185672832, -85.52568671628119], [-141.23308185325402, -85.52568671849174]]}}, {"type": "Feature", "properties": {"FID": null}, "geometry": {"type": "LineString", "coordinates": [[-141.23308194078345, -85.52568665317612], [-141.23308194077939, -85.52568665309833], [-141.23308186841405, -85.52568670709734]]}}, {"type": "Feature", "properties": {"FID": null}, "geometry": {"type": "LineString", "coordinates": [[-141.23308057612059, -85.52568666685949], [-141.2330808478326, -85.52568666824335], [-141.23308095656174, -85.5256866688778], [-141.23308119536594, -85.52568667026438], [-141.23308121811107, -85.5256866704283], [-141.23308121966886, -85.52568666971206], [-141.2330812221876, -85.52568666829535], [-141.2330812270393, -85.52568666572648], [-141.23308123170634, -85.52568666343774], [-141.2330812360287, -85.5256866621916], [-141.23308124455735, -85.52568666128644], [-141.2330812499219, -85.52568666089574], [-141.2330812620839, -85.52568666082185], [-141.23308127096308, -85.52568666089684], [-141.23308131774522, -85.52568666114644], [-141.2330813476807, -85.52568666151812], [-141.2330813696679, -85.5256866624447], [-141.2330813820804, -85.5256866633432], [-141.2330813877012, -85.52568666404159], [-141.23308138857485, -85.52568666548835], [-141.23308138151293, -85.52568666774671], [-141.233081380199, -85.52568667313074], [-141.23308138225673, -85.52568667434372], [-141.23308138573196, -85.52568667596081], [-141.23308139270566, -85.52568667964618], [-141.2330814103099, -85.5256866844796], [-141.23308143568664, -85.5256866892016], [-141.23308144851578, -85.52568669044228], [-141.23308146960636, -85.52568669329852], [-141.23308151184514, -85.52568669628806], [-141.23308157765422, -85.52568669997028], [-141.23308160361844, -85.52568670067775], [-141.2330816659995, -85.52568670364532], [-141.2330816813848, -85.525686704185], [-141.23308170874773, -85.5256867049387], [-141.23308174072125, -85.52568670614218], [-141.2330817754497, -85.52568670662903], [-141.23308186841405, -85.52568670709734]]}}, {"type": "Feature", "properties": {"FID": null}, "geometry": {"type": "LineString", "coordinates": [[-141.23308052727316, -85.5256867014794], [-141.2330805210433, -85.52568670629707], [-141.23308050338468, -85.52568671948937], [-141.2330804945839, -85.525686726634], [-141.2330804782666, -85.52568673877562], [-141.23308046401255, -85.52568674842706]]}}, {"type": "Feature", "properties": {"FID": null}, "geometry": {"type": "LineString", "coordinates": [[-141.23308094996995, -85.52568678689107], [-141.23308091241938, -85.52568681442783], [-141.2330809134687, -85.52568681542331], [-141.23308091829594, -85.52568681619974], [-141.23308092790805, -85.52568681694353], [-141.23308099400174, -85.52568681844733], [-141.23308102040897, -85.52568681999489], [-141.233081034495, -85.52568682238658], [-141.23308103540367, -85.52568682450237], [-141.23308102629602, -85.52568682578114], [-141.23308101916987, -85.52568682681034], [-141.23308101926102, -85.52568682855298], [-141.23308102494477, -85.52568683044943], [-141.23308102943642, -85.52568683243962], [-141.23308103148298, -85.52568683343478], [-141.23308103291876, -85.52568683487159]]}}, {"type": "Feature", "properties": {"FID": null}, "geometry": {"type": "LineString", "coordinates": [[-141.23307768332404, -85.52568641721766], [-141.2330776723059, -85.52568642391175], [-141.2330776638934, -85.52568643085397], [-141.23307765314343, -85.52568643885499], [-141.23307764277243, -85.52568644648245], [-141.23307762652178, -85.52568645608785], [-141.23307761477602, -85.52568646412031], [-141.23307760394965, -85.52568647448639], [-141.23307758935903, -85.52568648532046], [-141.23307757707252, -85.52568649445782], [-141.23307757223222, -85.5256864972445], [-141.23307756632317, -85.52568650247439], [-141.2330775617173, -85.52568650593007], [-141.23307754993158, -85.52568651389907]]}}, {"type": "Feature", "properties": {"FID": null}, "geometry": {"type": "LineString", "coordinates": [[-141.23307781723148, -85.52568651607395], [-141.23307780317, -85.5256865274498], [-141.23307779731945, -85.52568652998788], [-141.23307779405874, -85.52568653246287], [-141.2330777798217, -85.52568654625314], [-141.2330777750366, -85.52568655009786], [-141.23307776529762, -85.52568655836306], [-141.23307774955873, -85.525686566319], [-141.2330777457954, -85.52568657063019], [-141.23307774083656, -85.5256865749573]]}}, {"type": "Feature", "properties": {"FID": null}, "geometry": {"type": "LineString", "coordinates": [[-141.23307802741698, -85.52568652556333], [-141.2330780313326, -85.52568652747053], [-141.23307802875212, -85.52568653151683], [-141.233078025036, -85.52568653673046], [-141.2330780146862, -85.52568654476246], [-141.23307800768617, -85.52568654820334], [-141.23307799261434, -85.52568655365397], [-141.23307799015976, -85.52568655629987], [-141.23307798848046, -85.52568655850988], [-141.23307798326593, -85.52568656557554], [-141.2330779801983, -85.52568657175365], [-141.23307797078013, -85.52568657852504], [-141.23307796220146, -85.52568658229316], [-141.2330779541003, -85.52568658755487], [-141.23307794594672, -85.52568659182077], [-141.2330779429379, -85.52568659530705], [-141.2330779401824, -85.5256865998202], [-141.2330779393782, -85.52568660255375]]}}, {"type": "Feature", "properties": {"FID": null}, "geometry": {"type": "LineString", "coordinates": [[-141.2330782356299, -85.52568660513377], [-141.23307823047355, -85.52568660942137], [-141.23307821240422, -85.52568662238819], [-141.2330782058144, -85.52568662795282], [-141.23307819718553, -85.52568663456837], [-141.23307818705933, -85.52568664305932], [-141.23307817558026, -85.52568665238311], [-141.2330781727095, -85.52568665468684]]}}, {"type": "Feature", "properties": {"FID": null}, "geometry": {"type": "LineString", "coordinates": [[-141.23307876827423, -85.52568660921904], [-141.23307875504975, -85.52568661980372], [-141.23307874821998, -85.52568662649651], [-141.23307873932723, -85.52568663188292], [-141.23307872969545, -85.52568663838987], [-141.23307872671037, -85.52568664232739], [-141.2330787194376, -85.52568664818007], [-141.23307871350835, -85.52568665302097]]}}, {"type": "Feature", "properties": {"FID": null}, "geometry": {"type": "LineString", "coordinates": [[-141.23307945364039, -85.52568653297705], [-141.23307945388413, -85.52568653191894], [-141.23307945852582, -85.52568652914786], [-141.23307946643993, -85.52568652602567], [-141.23307947613648, -85.52568652266172], [-141.23307953481068, -85.52568649670532], [-141.23307954981414, -85.5256864899477], [-141.23307957161038, -85.52568647959367], [-141.23307958504088, -85.52568647327224], [-141.23307963987233, -85.52568645010223], [-141.23307965533087, -85.52568644441808], [-141.23307971483004, -85.52568641897489], [-141.23307971677042, -85.52568641794734], [-141.23307997870967, -85.52568641932655], [-141.23308025024414, -85.52568642049074]]}}, {"type": "Feature", "properties": {"FID": null}, "geometry": {"type": "LineString", "coordinates": [[-141.2330786939718, -85.5256864126503], [-141.23307914946164, -85.52568641514829], [-141.2330794347401, -85.52568641661341], [-141.23307971677042, -85.52568641794734]]}}, {"type": "Feature", "properties": {"FID": null}, "geometry": {"type": "LineString", "coordinates": [[-141.23307929592832, -85.52568641590051], [-141.23307926129493, -85.52568644081701]]}}, {"type": "Feature", "properties": {"FID": null}, "geometry": {"type": "LineString", "coordinates": [[-141.23307875791312, -85.52568641300095], [-141.23307873358183, -85.5256864333764], [-141.23307872158253, -85.5256864441941], [-141.2330787115651, -85.52568645285615], [-141.2330787010297, -85.52568646115273], [-141.23307868618568, -85.52568647477203], [-141.23307866432114, -85.52568649144322]]}}, {"type": "Feature", "properties": {"FID": null}, "geometry": {"type": "LineString", "coordinates": [[-141.23307872158253, -85.5256864441941], [-141.23307889407997, -85.52568644571845], [-141.23307890384322, -85.52568644554421], [-141.2330789199744, -85.52568644508784], [-141.2330789261284, -85.52568644454131], [-141.23307892928696, -85.52568644391792], [-141.2330789352059, -85.52568644268683], [-141.233078943938, -85.52568644185939], [-141.23307895906692, -85.52568644131], [-141.23307900354234, -85.52568644131141], [-141.23307907495592, -85.52568644156874], [-141.2330791216293, -85.52568644164722], [-141.23307915511242, -85.5256864412009], [-141.23307919578633, -85.52568644097013], [-141.23307923048043, -85.52568644080348], [-141.23307926129493, -85.52568644081701]]}}, {"type": "Feature", "properties": {"FID": null}, "geometry": {"type": "LineString", "coordinates": [[-141.23307866979948, -85.52568628540622], [-141.23307866342068, -85.5256862911925], [-141.23307865517444, -85.52568629749673], [-141.23307865206385, -85.52568629903811], [-141.2330786464349, -85.52568630199622], [-141.23307864115355, -85.52568630397397], [-141.23307863370093, -85.52568630638807], [-141.23307862889905, -85.52568630990604], [-141.23307862431903, -85.52568631385962], [-141.23307862189407, -85.52568631706565], [-141.2330786184375, -85.5256863196185], [-141.23307860807338, -85.52568632737045], [-141.23307860055786, -85.52568633239858], [-141.23307859830695, -85.5256863351222], [-141.23307858961232, -85.52568634047744], [-141.23307858714244, -85.52568634282771], [-141.23307858239085, -85.52568634731037], [-141.2330785785624, -85.52568635037682], [-141.2330785652341, -85.52568635865872], [-141.23307856140488, -85.52568636170962], [-141.2330785607301, -85.52568636215327], [-141.23307882491295, -85.52568636448868], [-141.23307884827116, -85.52568634587205], [-141.23307885885066, -85.52568633841568], [-141.23307887607413, -85.52568632834317]]}}, {"type": "Feature", "properties": {"FID": null}, "geometry": {"type": "LineString", "coordinates": [[-141.23307882491295, -85.52568636448868], [-141.23307882239845, -85.52568636598319], [-141.23307881934744, -85.5256863686604], [-141.2330788163321, -85.52568637202222], [-141.2330788097523, -85.52568637586751], [-141.23307880253242, -85.52568638273155], [-141.2330787946767, -85.52568638887229], [-141.23307878587804, -85.52568639414977], [-141.23307877889528, -85.5256863979174], [-141.2330787696998, -85.52568640513994], [-141.2330787662734, -85.5256864082685]]}}, {"type": "Feature", "properties": {"FID": null}, "geometry": {"type": "LineString", "coordinates": [[-141.2330787662734, -85.5256864082685], [-141.23307875791312, -85.52568641300095]]}}, {"type": "Feature", "properties": {"FID": null}, "geometry": {"type": "LineString", "coordinates": [[-141.2330785656255, -85.52568656061338], [-141.2330785314354, -85.5256865856751], [-141.23307851344862, -85.5256866002134], [-141.23307850609976, -85.5256866071553]]}}, {"type": "Feature", "properties": {"FID": null}, "geometry": {"type": "LineString", "coordinates": [[-141.23307915893682, -85.52568612156826], [-141.23307914680063, -85.52568612975642], [-141.233079131485, -85.52568614199109], [-141.23307911654658, -85.52568615380552], [-141.2330791043985, -85.52568616177587], [-141.23307910045932, -85.52568616653832], [-141.2330790865944, -85.52568617600292], [-141.23307905815608, -85.52568619662834], [-141.2330790475793, -85.5256862041314], [-141.23307904702622, -85.52568620500291]]}}, {"type": "Feature", "properties": {"FID": null}, "geometry": {"type": "LineString", "coordinates": [[-141.23307904702622, -85.52568620500291], [-141.2330790244856, -85.52568620493228], [-141.23307900794626, -85.52568620520206], [-141.23307899879634, -85.52568620567176], [-141.2330789950448, -85.52568620638868], [-141.23307899139027, -85.52568620897273], [-141.2330789863865, -85.52568621244411], [-141.23307898569922, -85.52568621456041], [-141.23307898117403, -85.52568622336854], [-141.23307897931892, -85.52568622602982], [-141.2330789755857, -85.52568623091668], [-141.23307897256467, -85.52568623416958], [-141.233078967187, -85.52568624193549], [-141.23307896388835, -85.52568624750685], [-141.23307895933144, -85.52568625189609], [-141.23307894466856, -85.52568627279719], [-141.2330789337938, -85.52568628604182]]}}, {"type": "Feature", "properties": {"FID": null}, "geometry": {"type": "LineString", "coordinates": [[-141.23307866979948, -85.52568628540622], [-141.2330789337938, -85.52568628604182]]}}, {"type": "Feature", "properties": {"FID": null}, "geometry": {"type": "LineString", "coordinates": [[-141.2330789337938, -85.52568628604182], [-141.233079465215, -85.5256862881132], [-141.2330802539793, -85.52568629139414], [-141.23308025836855, -85.52568629142384], [-141.23308026889646, -85.52568628298725], [-141.2330802901511, -85.5256862660984], [-141.23308032033364, -85.52568624449216], [-141.23308032874337, -85.52568623750328], [-141.23308034525454, -85.52568622525267], [-141.23308035248664, -85.52568621862201], [-141.2330803606044, -85.5256862136715], [-141.23308036192793, -85.52568621228629]]}}, {"type": "Feature", "properties": {"FID": null}, "geometry": {"type": "LineString", "coordinates": [[-141.23307904702622, -85.52568620500291], [-141.2330795714418, -85.5256862065942], [-141.2330795782236, -85.5256862066076], [-141.23307983254597, -85.52568620725793], [-141.23307987643523, -85.52568620749291], [-141.23308006896588, -85.52568620881642], [-141.2330801759096, -85.52568620963815], [-141.23308035467332, -85.52568621085713], [-141.23308036185304, -85.52568621085483], [-141.2330803634476, -85.52568621083877], [-141.23308036192793, -85.52568621228629]]}}, {"type": "Feature", "properties": {"FID": null}, "geometry": {"type": "LineString", "coordinates": [[-141.23307983878453, -85.52568620729133], [-141.23307983170736, -85.52568621410438], [-141.2330798236355, -85.52568621992623], [-141.23307981005286, -85.5256862309778], [-141.23307979950636, -85.52568623905654], [-141.233079783398, -85.52568625138483], [-141.23307977017856, -85.52568626175166], [-141.2330797519611, -85.52568627569879], [-141.2330797344914, -85.52568628923328]]}}, {"type": "Feature", "properties": {"FID": null}, "geometry": {"type": "LineString", "coordinates": [[-141.23307968488126, -85.52568612378921], [-141.23307967073006, -85.52568613540113], [-141.23307965809335, -85.52568614547215], [-141.23307965100506, -85.52568615102916], [-141.2330796425405, -85.5256861569756], [-141.23307963092068, -85.52568616551368], [-141.2330796242907, -85.52568617030813], [-141.2330796170374, -85.52568617652648], [-141.2330796085594, -85.52568618221616], [-141.23307959856982, -85.52568618950897], [-141.2330795839561, -85.5256861999074], [-141.2330795782236, -85.5256862066076]]}}, {"type": "Feature", "properties": {"FID": null}, "geometry": {"type": "LineString", "coordinates": [[-141.23307919886733, -85.52568628707503], [-141.23307917554794, -85.52568630378829], [-141.2330791546823, -85.52568632049028], [-141.23307914063915, -85.52568633417158]]}}, {"type": "Feature", "properties": {"FID": null}, "geometry": {"type": "LineString", "coordinates": [[-141.2330794686773, -85.52568628812762], [-141.23307946076957, -85.52568629272803], [-141.23307945158376, -85.52568630013728], [-141.2330794451903, -85.52568630754564], [-141.2330794407416, -85.52568631019219], [-141.23307943358344, -85.52568631442666], [-141.2330794293213, -85.52568631682418], [-141.23307942406464, -85.52568632118252], [-141.23307941804507, -85.52568632621016], [-141.23307941256644, -85.52568633014069], [-141.23307940447302, -85.52568633555019], [-141.23307939405922, -85.52568634426684], [-141.23307938387987, -85.52568635173864], [-141.23307937554185, -85.5256863581985], [-141.23307936302027, -85.5256863666513], [-141.23307936150235, -85.52568636812993], [-141.2330793681039, -85.52568636851683], [-141.23307937628329, -85.5256863685609], [-141.2330794462117, -85.52568636902099], [-141.233079542085, -85.52568636981513], [-141.23307958059542, -85.52568637016073], [-141.23307964184167, -85.5256863704991], [-141.2330797794182, -85.52568637167673], [-141.2330801538219, -85.52568637456831], [-141.23308033480737, -85.52568637631559], [-141.23308041082888, -85.52568637697603], [-141.2330806846709, -85.52568637904383], [-141.23308095679684, -85.52568638071544], [-141.23308122656314, -85.52568638302571], [-141.2330812574657, -85.52568638282138], [-141.23308127000118, -85.52568638225725], [-141.23308128105495, -85.52568638196588], [-141.233081307478, -85.52568638191079], [-141.2330813302368, -85.52568638233922], [-141.233081338939, -85.52568637486972]]}}, {"type": "Feature", "properties": {"FID": null}, "geometry": {"type": "LineString", "coordinates": [[-141.2330817368794, -85.52568642868606], [-141.23308131281013, -85.52568642665827]]}}, {"type": "Feature", "properties": {"FID": null}, "geometry": {"type": "LineString", "coordinates": [[-141.2330817368794, -85.52568642868606], [-141.23308223747344, -85.52568643145187], [-141.2330824311884, -85.5256864325416], [-141.23308255547187, -85.52568643314], [-141.23308269949882, -85.52568643371652], [-141.2330830601609, -85.52568643507986], [-141.23308306395427, -85.52568643515646], [-141.23308304418111, -85.52568644986648], [-141.2330830351747, -85.52568645688669], [-141.23308298883606, -85.5256864899032], [-141.23308297065856, -85.52568649698857], [-141.2330829560676, -85.52568650019847], [-141.23308293616614, -85.52568651245015], [-141.2330829294494, -85.52568651749357], [-141.23308292102843, -85.52568652283149]]}}, {"type": "Feature", "properties": {"FID": null}, "geometry": {"type": "LineString", "coordinates": [[-141.2330830351747, -85.52568645688669], [-141.2330829585358, -85.52568645586861], [-141.23308283383048, -85.5256864548347], [-141.2330827841664, -85.52568645477272], [-141.2330827506786, -85.52568645512568], [-141.23308256936545, -85.52568645854426], [-141.23308252666763, -85.52568645821555], [-141.2330824656215, -85.52568645789268], [-141.2330822022539, -85.52568645589153], [-141.233081946857, -85.52568645376338], [-141.23308174453686, -85.52568645211626], [-141.23308160787485, -85.5256864507309]]}}, {"type": "Feature", "properties": {"FID": null}, "geometry": {"type": "LineString", "coordinates": [[-141.23308167964876, -85.52568645145847], [-141.23308167108905, -85.52568645490923], [-141.23308165960282, -85.525686464093], [-141.23308163266938, -85.52568648299084], [-141.23308161151556, -85.52568649799694], [-141.2330815953341, -85.52568650892486], [-141.23308157320366, -85.52568652813237], [-141.23308156659033, -85.52568653133973], [-141.23308155169, -85.52568654388544]]}}, {"type": "Feature", "properties": {"FID": null}, "geometry": {"type": "LineString", "coordinates": [[-141.23308229937706, -85.52568639097743], [-141.23308229075496, -85.52568640152953], [-141.23308228114763, -85.52568640850325], [-141.23308227217512, -85.52568641236486], [-141.23308225987319, -85.52568642120659], [-141.23308224460595, -85.52568643054715], [-141.23308224215805, -85.52568643147823]]}}, {"type": "Feature", "properties": {"FID": null}, "geometry": {"type": "LineString", "coordinates": [[-141.2330820166002, -85.52568640301715], [-141.233082001187, -85.52568641719678], [-141.2330819899159, -85.52568642286403], [-141.2330819755712, -85.52568643000484]]}}, {"type": "Feature", "properties": {"FID": null}, "geometry": {"type": "LineString", "coordinates": [[-141.23308150572947, -85.52568637822232], [-141.23308146263327, -85.52568641221804], [-141.23308144524316, -85.52568642577978], [-141.23308144526922, -85.52568642627769], [-141.23308188914686, -85.52568642856366], [-141.23308197713996, -85.52568642922391]]}}, {"type": "Feature", "properties": {"FID": null}, "geometry": {"type": "LineString", "coordinates": [[-141.2330795782236, -85.5256862066076], [-141.23307957541192, -85.52568620718807], [-141.23307956581206, -85.52568621430183], [-141.2330795585318, -85.52568622001449], [-141.23307955126586, -85.52568622599165], [-141.23307953493295, -85.52568623783766], [-141.2330795238171, -85.52568624647672], [-141.2330794961681, -85.5256862669463], [-141.23307947311764, -85.52568628382015], [-141.2330794686773, -85.52568628812762]]}}, {"type": "Feature", "properties": {"FID": null}, "geometry": {"type": "LineString", "coordinates": [[-141.2330797344914, -85.52568628923328], [-141.23307968654865, -85.52568632630751], [-141.2330796808218, -85.52568633121058], [-141.23307968165633, -85.52568633191049], [-141.2330796874442, -85.52568633198644], [-141.23307969720497, -85.52568633176548], [-141.23307970477398, -85.52568633157638], [-141.2330797935208, -85.5256863314859], [-141.23307980629636, -85.52568633169966], [-141.23307981528802, -85.52568633202355], [-141.2330798213266, -85.52568633307968], [-141.23307982338534, -85.5256863343082], [-141.2330798243547, -85.52568633759097], [-141.23307981746143, -85.5256863430701], [-141.2330797794182, -85.52568637167673]]}}, {"type": "Feature", "properties": {"FID": null}, "geometry": {"type": "LineString", "coordinates": [[-141.2330797794182, -85.52568637167673], [-141.23307975613454, -85.52568639076401], [-141.2330797280632, -85.52568641078248], [-141.23307971883096, -85.52568641730485], [-141.23307971677042, -85.52568641794734]]}}, {"type": "Feature", "properties": {"FID": null}, "geometry": {"type": "LineString", "coordinates": [[-141.23307866432114, -85.52568649144322], [-141.23307919060267, -85.52568649534064], [-141.23307916762525, -85.52568651361481], [-141.23307915478637, -85.52568652362368], [-141.23307914601182, -85.52568653127008]]}}]}