{"type": "FeatureCollection", "features": [{"type": "Feature", "properties": {"Parcela": "G-162", "ANO": 2012, "Ha": 16.12, "PLANTAS": "2.937", "VARIEDADE": "AV do B", "UDF": 39}, "geometry": {"type": "Polygon", "coordinates": [[[-48.03401425621431, -1.2335685416655775], [-48.034088102778, -1.233577186944007], [-48.033900668889, -1.2358665952779992], [-48.03903529194401, -1.2364215722219967], [-48.039296734444, -1.234171268611006], [-48.034014752736965, -1.2335636717575018], [-48.03401425621431, -1.2335685416655775]]]}}, {"type": "Feature", "properties": {"Parcela": "G-163", "ANO": 2012, "Ha": 17.99, "PLANTAS": "3.279", "VARIEDADE": "AV do B", "UDF": 39}, "geometry": {"type": "MultiPolygon", "coordinates": [[[[-48.03401390533759, -1.2335719830741434], [-48.034088811111, -1.2335810150000042], [-48.03409083240754, -1.2335567002903949], [-48.03401631056623, -1.2335483925232134], [-48.03401390533759, -1.2335719830741434]]], [[[-48.034281686111, -1.2312608397220064], [-48.03409083240754, -1.2335567002903949], [-48.039281571389, -1.2341353650000149], [-48.039552389444, -1.231837407777993], [-48.034281686111, -1.2312608397220064]]]]}}, {"type": "Feature", "properties": {"Parcela": "G-164", "ANO": 2012, "Ha": 12.04, "PLANTAS": "2.182", "VARIEDADE": "AV do B", "UDF": 39}, "geometry": {"type": "Polygon", "coordinates": [[[-48.034288966111, -1.2312153352779995], [-48.039553103333, -1.2317916919439962], [-48.039626235, -1.230698984999992], [-48.039509661667, -1.2306927766669962], [-48.03938771194401, -1.230667615555994], [-48.039262127778, -1.230645181943997], [-48.039186243056, -1.2306393897219994], [-48.039110870278, -1.2306575808329976], [-48.039075206667, -1.2306355727779947], [-48.039072515833, -1.2306321472220083], [-48.039014448333, -1.2305934472220041], [-48.038977301111, -1.230544362222003], [-48.038952760278, -1.230485235277998], [-48.038954953333, -1.2304820266670118], [-48.038957168333, -1.2303887758330074], [-48.03888990944401, -1.2303741258329948], [-48.038822228611, -1.2304016994439877], [-48.038743449167, -1.2303808488889851], [-48.038670018889, -1.230315590832991], [-48.03859362916701, -1.2302997547219994], [-48.038582810833, -1.2303366102779991], [-48.038542733611, -1.2303844669440032], [-48.038465615556, -1.2303655055560012], [-48.038427604722, -1.2303498475000103], [-48.038374067778, -1.2303308374999944], [-48.038370613889, -1.2303305238890057], [-48.038336932222, -1.2302842850000004], [-48.038335369722, -1.2302823272219938], [-48.038311251944, -1.2302213338890016], [-48.038272396944, -1.2301972091669966], [-48.038217266389, -1.230169486667014], [-48.038108018611, -1.2301288002780073], [-48.038048346111, -1.2300774313889957], [-48.037870788056, -1.2300083255559948], [-48.037795064444, -1.2299623461110067], [-48.037722043333, -1.2299437605559953], [-48.037633269167, -1.2299207600000106], [-48.037520917778, -1.2298333672220023], [-48.037454062222, -1.2298078683330085], [-48.037366323333, -1.2297601011109958], [-48.037252306389, -1.229690280555996], [-48.037025450556, -1.2295917491670116], [-48.036893325833, -1.2295321630559983], [-48.036890845, -1.2294399380559937], [-48.036894635833, -1.229379101943995], [-48.036850438611, -1.2293371927780048], [-48.036852519444, -1.2292426094439945], [-48.036862464444, -1.229170570833007], [-48.034494489444, -1.2289186344440095], [-48.034288966111, -1.2312153352779995]]]}}]}