{"type": "FeatureCollection", "features": [{"type": "Feature", "properties": {"nome": "CASA DO ROMARIO"}, "geometry": {"type": "Point", "coordinates": [-48.05067694444444, -1.256661388888889]}}, {"type": "Feature", "properties": {"nome": "POÇO - VIVEIRO"}, "geometry": {"type": "Point", "coordinates": [-48.05912777777777, -1.248286388888889]}}, {"type": "Feature", "properties": {"nome": "CASA DO FRANCIMARIO", "descricao": "ÁREA DO GRINGO/ATUAL MORADOR - HENRIQUE"}, "geometry": {"type": "Point", "coordinates": [-48.01548527777778, -1.237550277777778]}}, {"type": "Feature", "properties": {"nome": "VILA DOS TECNICOS", "descricao": "Casas: Joelmi; Jean; Arthur; Josias"}, "geometry": {"type": "Point", "coordinates": [-48.04287166666666, -1.204391666666667]}}, {"type": "Feature", "properties": {"nome": "PORTARIA MALAN - P3"}, "geometry": {"type": "Point", "coordinates": [-48.05196916666667, -1.199372222222222]}}, {"type": "Feature", "properties": {"nome": "BURRARIA NOVA"}, "geometry": {"type": "Point", "coordinates": [-48.04293687226963, -1.19464516340858]}}, {"type": "Feature", "properties": {"nome": "ALOJAMENTO II - EVARISTO"}, "geometry": {"type": "Point", "coordinates": [-48.08609527777778, -1.200508333333333]}}, {"type": "Feature", "properties": {"nome": "CASA-MELQUIADES"}, "geometry": {"type": "Point", "coordinates": [-48.08402305555556, -1.216759444444445]}}, {"type": "Feature", "properties": {"nome": "CASA-SEDE", "descricao": "HOSPEDARIA PRINCIPAL"}, "geometry": {"type": "Point", "coordinates": [-48.07136777777778, -1.225946666666667]}}, {"type": "Feature", "properties": {"nome": "PORTARIA -P1"}, "geometry": {"type": "Point", "coordinates": [-48.06019555555555, -1.243455555555556]}}, {"type": "Feature", "properties": {"nome": "POÇO - CASA DO BOLO (ALOJAMENTO MALAN)", "descricao": "Casas: Manoel Messias (Bolo); Ceará"}, "geometry": {"type": "Point", "coordinates": [-48.04961944444445, -1.1773]}}, {"type": "Feature", "properties": {"nome": "OUTORGA DE CAP. SUPERFICIAL"}, "geometry": {"type": "Point", "coordinates": [-48.05739840109894, -1.251704476602288]}}, {"type": "Feature", "properties": {"nome": "POÇO - CC03"}, "geometry": {"type": "Point", "coordinates": [-48.02898471137104, -1.225846051498223]}}, {"type": "Feature", "properties": {"nome": "POÇO-BASE"}, "geometry": {"type": "Point", "coordinates": [-48.04908111111111, -1.227997222222222]}}]}