{"type": "FeatureCollection", "features": [{"type": "Feature", "properties": {"Parcela": "J-123", "ANO": 2012, "Ha": 2.84, "PLANTAS": "1.740", "VARIEDADE": "AV do B", "UDF": 9}, "geometry": {"type": "MultiPolygon", "coordinates": [[[[-48.071361090278, -1.2083538322219929], [-48.071390642778, -1.2082906372219986], [-48.07139742833301, -1.2082596722219996], [-48.071419014167, -1.2081843313890077], [-48.071446417222, -1.2081273461109965], [-48.071445100278, -1.208024409166992], [-48.071481026389, -1.2079333269440002], [-48.071483645556, -1.2079304322220006], [-48.0715162725, -1.207877227500011], [-48.071499424444, -1.2077769344439904], [-48.071531041667, -1.2076909302779884], [-48.071532584444, -1.2076400663890008], [-48.071518793056, -1.207525393888993], [-48.071476082778, -1.207470066389003], [-48.071426308333, -1.207440811110998], [-48.0713213525, -1.2073681138890053], [-48.071317809722, -1.207364543888995], [-48.071248004444, -1.2072788741669889], [-48.071175689722, -1.2071811113889985], [-48.071121520833, -1.2071075452779991], [-48.071160078611, -1.2070235055559912], [-48.07122898780249, -1.207030511555982], [-48.071161514722, -1.2070220369439988], [-48.069463941389, -1.2068928594440003], [-48.069289426667, -1.2083167069439984], [-48.071346330278, -1.2084368902780083], [-48.071348115278, -1.2083930533329903], [-48.071361090278, -1.2083538322219929]]], [[[-48.07122898780249, -1.207030511555982], [-48.07131118925425, -1.2070408360482463], [-48.071309254749515, -1.2070386722976922], [-48.07122898780249, -1.207030511555982]]]]}}, {"type": "Feature", "properties": {"Parcela": "J-132", "ANO": 2012, "Ha": 5.15, "PLANTAS": "953", "VARIEDADE": "AV do B", "UDF": 16}, "geometry": {"type": "Polygon", "coordinates": [[[-48.062351626667, -1.208443217222013], [-48.060246058889, -1.2082143138889985], [-48.060088223333, -1.2099230477780143], [-48.060233868056, -1.209965654721994], [-48.060344894444, -1.2100039625000019], [-48.060447082222, -1.2100198697220006], [-48.060552219722, -1.2100041616669934], [-48.060675618333, -1.2100188630560127], [-48.060750730278, -1.2100314011109994], [-48.060805659722, -1.2100380252780103], [-48.060956522222, -1.2100311550000147], [-48.0610815525, -1.2100137005559977], [-48.061250922222, -1.2100836244440025], [-48.06126315, -1.210095771388993], [-48.061373282778, -1.210112171389008], [-48.061530312222004, -1.2100837847219985], [-48.061619946389, -1.2101193894440063], [-48.061711773889, -1.210198009166999], [-48.06185628, -1.2101834619440084], [-48.061918806389, -1.2101553255559943], [-48.061947876944, -1.210101095832998], [-48.062025951667, -1.2101035275000034], [-48.062160786111, -1.2100765830560034], [-48.062284527222, -1.210055194999993], [-48.0624507025, -1.2099798227779945], [-48.062580395556, -1.2099551072219954], [-48.062658004722, -1.2097635247219858], [-48.062633789167, -1.2096269855559851], [-48.062658885278, -1.2095141319439975], [-48.062711644444, -1.209411130000007], [-48.0627847925, -1.209350159167002], [-48.062861064444, -1.2092214861110027], [-48.062856983333, -1.209082383056009], [-48.062718593056, -1.2090401638890116], [-48.062611025556, -1.2089805055560041], [-48.062519924444, -1.2089140772220015], [-48.062431086389, -1.208851938333011], [-48.0624135975, -1.2088413300000074], [-48.062316475278, -1.2087176627779852], [-48.062328162778, -1.2086402427779954], [-48.062349154722, -1.2085364208330107], [-48.062351626667, -1.208443217222013]]]}}, {"type": "Feature", "properties": {"Parcela": "J-133", "ANO": 2012, "Ha": 18.15, "PLANTAS": "3.225", "VARIEDADE": "AV do B", "UDF": 16}, "geometry": {"type": "Polygon", "coordinates": [[[-48.069387535278, -1.2068385227779947], [-48.060498508056, -1.2058681008330008], [-48.060395526389, -1.2070593416669946], [-48.0605389125, -1.2070875524999978], [-48.060544243056, -1.207091539999999], [-48.060708520556, -1.207080360555991], [-48.060855450556, -1.2071054877779896], [-48.060976237222, -1.2071140547220007], [-48.06115489472201, -1.207156978888996], [-48.061297475, -1.2071310238889923], [-48.061385600833, -1.2071232094439903], [-48.061440380833, -1.2071710305560084], [-48.061608647778, -1.2071580847219974], [-48.061746688056, -1.2072217783329935], [-48.0618384725, -1.2073605494439899], [-48.061840470556, -1.2073641794440033], [-48.061849120278, -1.20737544666699], [-48.061930227222, -1.2075047058330135], [-48.062032110556, -1.207666173610989], [-48.062061212778, -1.2077728500000011], [-48.062086731111, -1.2078966138890035], [-48.062086006389, -1.2078993930560105], [-48.062066926944, -1.2080406061109883], [-48.062076131111, -1.2081747822219895], [-48.0620734925, -1.208266123888998], [-48.062076301111006, -1.2083531602780053], [-48.062397698333, -1.20843842722201], [-48.062453891667, -1.2084081638889934], [-48.062574156111, -1.208347688889001], [-48.062579285, -1.2083020227780061], [-48.06258525083301, -1.2082872291669953], [-48.062596608889, -1.2082416730560017], [-48.062599805, -1.208242059443985], [-48.062607269167, -1.2081669786109943], [-48.062613535, -1.2081613547220025], [-48.06267688083301, -1.2081080791669991], [-48.062754773889, -1.2081270983330026], [-48.062845624167, -1.2081573375000096], [-48.062942867222, -1.2082236241669952], [-48.063039923889, -1.208209780278], [-48.063187210833, -1.2081663399999916], [-48.063331968611, -1.2081614511109962], [-48.063446415833006, -1.208046693611001], [-48.069219915, -1.2083131058330012], [-48.069387535278, -1.2068385227779947]]]}}, {"type": "Feature", "properties": {"Parcela": "J-134", "ANO": 2012, "Ha": 17.45, "PLANTAS": "3.341", "VARIEDADE": "AV do B", "UDF": 16}, "geometry": {"type": "MultiPolygon", "coordinates": [[[[-48.06352907463542, -1.2061411856315094], [-48.063619047778, -1.2061532380560005], [-48.06361917443775, -1.206151064677236], [-48.063609335556, -1.2061499819439983], [-48.06352907463542, -1.2061411856315094]]], [[[-48.063335606667, -1.2056181547220024], [-48.063176560833, -1.2056049547219987], [-48.062931872778, -1.2055804786109858], [-48.062914950556, -1.2055787219440064], [-48.062901414167, -1.2055773147219977], [-48.0627316625, -1.2055484738889914], [-48.062496080556, -1.2055015694440097], [-48.062469411111, -1.2055100427780066], [-48.062301518611, -1.2055321052779988], [-48.062271383333, -1.205528662499997], [-48.062144705833, -1.2055134991669958], [-48.062128075, -1.2055114491670147], [-48.062040639722, -1.2055196511109942], [-48.061920521389, -1.2055207161109953], [-48.061761089167, -1.2054981125000093], [-48.061469344444, -1.205463263332992], [-48.061149805833004, -1.2054364488889926], [-48.061006081389, -1.2054498755559961], [-48.060836942222, -1.205456111110994], [-48.0607207775, -1.205439365278003], [-48.060523528611, -1.2054388022220002], [-48.060498478056, -1.2058090416670062], [-48.06352907463542, -1.2061411856315094], [-48.0634508725, -1.2061307100000018], [-48.063493372778, -1.205921270556], [-48.063474968333, -1.2055965488889997], [-48.063335606667, -1.2056181547220024]]], [[[-48.069357016389, -1.2052655425000034], [-48.069248531111, -1.2051653563890012], [-48.069034341944, -1.2050054161110006], [-48.0688796125, -1.2049156508329943], [-48.068676981944, -1.2047534533329982], [-48.068366068056, -1.2045128488890047], [-48.068288665556, -1.2044306744440099], [-48.068161487778, -1.2043756855559984], [-48.068040039167, -1.2043206072220078], [-48.063752425278, -1.2038645461110113], [-48.06361917443775, -1.206151064677236], [-48.069417937222006, -1.2067891927780103], [-48.069556558889, -1.2054348386110019], [-48.06952632666701, -1.2054042466670043], [-48.069461813056, -1.2053299536110003], [-48.069357016389, -1.2052655425000034]]]]}}, {"type": "Feature", "properties": {"Parcela": "K-131", "ANO": 2012, "Ha": 8.27, "PLANTAS": "1.487", "VARIEDADE": "AV do B", "UDF": 17}, "geometry": {"type": "Polygon", "coordinates": [[[-48.063768152222, -1.2038054611109956], [-48.068033418333, -1.204290683889002], [-48.068010012222, -1.20422665222199], [-48.067986987778, -1.2041776752779896], [-48.067939255556, -1.2041510433330123], [-48.067909808333, -1.2041297919440115], [-48.067877342778, -1.2040933822220115], [-48.067856204722, -1.2040431027779983], [-48.067821884167, -1.2039769305560004], [-48.067791911944, -1.20391009416699], [-48.06778486, -1.2038433352780007], [-48.067711515833, -1.2038042391669972], [-48.067690708056, -1.2036963352779981], [-48.067620474722, -1.2036021830559862], [-48.067581529167, -1.2035469991669945], [-48.06755829, -1.2035065930560036], [-48.0675587675, -1.2035033563890032], [-48.067543603056, -1.2034500952780105], [-48.067544315833, -1.203445163888997], [-48.067547841389, -1.203432171943994], [-48.067550421111, -1.2034257561109973], [-48.067500436667, -1.2033688188889875], [-48.067432014167, -1.2033175649999934], [-48.067331886111, -1.2032199950000055], [-48.067324519444, -1.2031716694439936], [-48.067260402222, -1.203165689999995], [-48.06720985500001, -1.2031631841669939], [-48.067150385556, -1.203129953610995], [-48.067044749444, -1.2030643969440034], [-48.066987280556, -1.2030205827779996], [-48.066898222222, -1.2029916475000006], [-48.066814930833, -1.2029770166670004], [-48.0667626325, -1.202909882500001], [-48.066754448333, -1.202886225555996], [-48.066717908056006, -1.2028559336110038], [-48.066693037222, -1.202815211667004], [-48.066639805278, -1.2027908938889942], [-48.066640734167, -1.2027860077779946], [-48.066626691389, -1.2027459027779983], [-48.066581379444, -1.2026831066670047], [-48.066564281667, -1.2026087869439872], [-48.066526089722, -1.2025448494439892], [-48.066453342222, -1.2025311913889858], [-48.066326685556, -1.2024515911109948], [-48.066280732778, -1.2024107513890012], [-48.066207446389, -1.2023613019439856], [-48.066141806111, -1.2023207697220053], [-48.066073227222, -1.2022990749999867], [-48.06600779722201, -1.2022673561110004], [-48.0659585625, -1.2021987080559986], [-48.065829301111, -1.2020750433330059], [-48.065775076667, -1.2020252522219987], [-48.065718250556, -1.2019765733330083], [-48.065636980556, -1.2019150380560142], [-48.065529925, -1.2018630647219979], [-48.06538519, -1.2018003761110083], [-48.065302857222, -1.2018311652779958], [-48.065176733333, -1.2017841091669939], [-48.065097678333, -1.2017726038889955], [-48.0650395625, -1.2017700274999932], [-48.064942541667, -1.201763045556011], [-48.064807271667, -1.2017711122220014], [-48.064735826667, -1.2017712138889944], [-48.064667250556, -1.2017780633329975], [-48.064608851389, -1.2018204572219997], [-48.064573134444, -1.2018227333329998], [-48.064502652222, -1.201779418610986], [-48.064400680000006, -1.2017682949999993], [-48.064268555556, -1.2017436408330098], [-48.0641720625, -1.2017184625000092], [-48.063961536111, -1.201721614722002], [-48.063768152222, -1.2038054611109956]]]}}]}